Latitude,Longitude,Street,City,PostalCode
42.84858,10.976287,Unbekannte Straße,Buriano,58040
42.849896,10.982152,Unbekannte Straße,Buriano,58040
42.851058,10.984875,Unbekannte Straße,Buriano,58040
42.85145,10.985457,Unbekannte Straße,Buriano,58040
42.85296,10.985976,Unbekannte Straße,Buriano,58040
42.854035,10.98772,Strada Comunale della Scala Santa,Buriano,58040
42.855167,10.987936,Strada Comunale della Scala Santa,Buriano,58040
42.856073,10.987633,Strada Comunale della Scala Santa,Buriano,58040
42.855932,10.990209,Strada Comunale della Scala Santa,Buriano,58040
42.856772,10.990896,Strada Comunale della Scala Santa,Buriano,58040
42.857818,10.99218,Strada Vicinale di Marruchetto Signore,Buriano,58040
42.85861,10.992427,Strada Vicinale di Marruchetto Signore,Buriano,58040
42.861264,10.9943,Strada Vicinale di Marruchetto Signore,Buriano,58040
42.862142,10.995552,Strada Vicinale di Marruchetto Signore,Buriano,58040
42.862141,10.995799,Strada Vicinale di Marruchetto Signore,Buriano,58040
42.861505,10.996923,Strada Vicinale di Marruchetto Signore,Buriano,58040
42.861544,10.99807,Strada Vicinale di Marruchetto Signore,Buriano,58040
42.862077,11.00091,Strada Vicinale di Marruchetto Signore,Buriano,58040
42.861275,11.003958,Strada Vicinale di Val di Campo,Castiglione della Pescaia,58040
42.860492,11.005774,Strada Vicinale di Val di Campo,Castiglione della Pescaia,58040
42.861452,11.007127,Strada Vicinale di Val di Campo,Castiglione della Pescaia,58040
42.862427,11.008044,Strada Vicinale di Val di Campo,Castiglione della Pescaia,58040
42.862728,11.009159,Strada Vicinale di Val di Campo,Castiglione della Pescaia,58040
42.863891,11.011942,Strada Provinciale 43 Macchiascandona,Castiglione della Pescaia,58040
42.86431,11.03699,Strada Provinciale 72 del Bozzone,Castiglione della Pescaia,58035
42.864529,11.041284,Strada Provinciale 72 del Bozzone,Castiglione della Pescaia,58035
42.87601,11.037744,Unbekannte Straße,Gavorrano,58023
42.879944,11.036815,Unbekannte Straße,Gavorrano,58023
42.890077,11.036707,Unbekannte Straße,Castellaccia,58027
42.890616,11.036421,Unbekannte Straße,Castellaccia,58027
42.896076,11.031107,Strada Provinciale 152 Aurelia Vecchia,Giuncarico,Keine PLZ
42.896284,11.031694,Strada Provinciale 152 Aurelia Vecchia,Giuncarico,Keine PLZ
42.896609,11.031958,Strada Provinciale 152 Aurelia Vecchia,Giuncarico,Keine PLZ
42.898564,11.032293,Strada Provinciale 152 Aurelia Vecchia,Giuncarico,Keine PLZ
42.899272,11.032634,Strada Provinciale 152 Aurelia Vecchia,Giuncarico,Keine PLZ
42.901484,11.034703,Strada Provinciale 152 Aurelia Vecchia,Gavorrano,58035
42.901985,11.034726,Strada Provinciale 152 Aurelia Vecchia,Gavorrano,58035
42.903021,11.034224,Strada Provinciale 152 Aurelia Vecchia,Gavorrano,58035
42.903208,11.035077,Strada Provinciale 152 Aurelia Vecchia,Gavorrano,58035
42.903278,11.037643,Strada Provinciale 152 Aurelia Vecchia,Gavorrano,58035
42.902822,11.039139,Strada Provinciale 152 Aurelia Vecchia,Gavorrano,58035
42.909864,11.040798,Via delle selvacce,Roccastrada,58035
42.913237,11.045303,Via delle selvacce,Roccastrada,58035
42.913826,11.045655,Via delle selvacce,Roccastrada,58035
42.915783,11.049099,Via delle selvacce,Roccastrada,58035
42.928173,11.066583,Via delle selvacce,Roccastrada,58035
42.928534,11.0652,Via delle selvacce,Roccastrada,58035
42.934883,11.067525,Via dell'Asina,Roccastrada,58027
42.933838,11.064001,Via dell'Asina,Roccastrada,58027
42.93664,11.063301,Via dell'Asina,Roccastrada,58027
42.936799,11.063321,Via dell'Asina,Roccastrada,58027
42.938599,11.065389,Via dell'Asina,Roccastrada,58027
42.940286,11.066064,Via Pian del Bichi,Roccastrada,58027
42.944509,11.07343,Via Pian del Bichi,Roccastrada,58027
42.94345,11.088987,Strada Provinciale 138 Montelattaia,Roccastrada,Keine PLZ
42.944977,11.089602,Strada Provinciale 138 Montelattaia,Roccastrada,Keine PLZ
42.945672,11.090628,Strada Provinciale 138 Montelattaia,Roccastrada,Keine PLZ
42.946394,11.091056,Strada Provinciale 138 Montelattaia,Roccastrada,Keine PLZ
42.948079,11.094571,Strada Provinciale 138 Montelattaia,Roccastrada,Keine PLZ
42.950568,11.104752,Strada Provinciale 138 Montelattaia,Roccastrada,Keine PLZ
42.951282,11.105985,Strada Provinciale 138 Montelattaia,Roccastrada,Keine PLZ
42.951918,11.109636,Strada Provinciale 138 Montelattaia,Roccastrada,Keine PLZ
42.950565,11.109497,Strada Provinciale 138 Montelattaia,Roccastrada,Keine PLZ
42.950243,11.125133,Unbekannte Straße,Roccastrada,Keine PLZ
42.950458,11.126631,Unbekannte Straße,Roccastrada,Keine PLZ
42.948544,11.13207,Unbekannte Straße,Roccastrada,Keine PLZ
42.948046,11.132692,Unbekannte Straße,Roccastrada,Keine PLZ
42.947513,11.134957,Unbekannte Straße,Roccastrada,Keine PLZ
42.952256,11.138821,Strada Provinciale 157 Roccastrada,Roccastrada,Keine PLZ
42.955598,11.142794,Strada Provinciale 157 Roccastrada,Roccastrada,Keine PLZ
42.957042,11.144887,Strada Provinciale 157 Roccastrada,Roccastrada,Keine PLZ
42.957479,11.145812,Strada Provinciale 157 Roccastrada,Roccastrada,Keine PLZ
42.958327,11.148157,Strada Provinciale 157 Roccastrada,Roccastrada,Keine PLZ
42.95817,11.149427,Strada Provinciale 157 Roccastrada,Roccastrada,Keine PLZ
42.958956,11.149956,Strada Provinciale 157 Roccastrada,Roccastrada,Keine PLZ
42.957779,11.150474,Strada Provinciale 157 Roccastrada,Roccastrada,Keine PLZ
42.956716,11.15038,Strada Provinciale 157 Roccastrada,Roccastrada,Keine PLZ
42.956201,11.15069,Strada Provinciale 157 Roccastrada,Roccastrada,Keine PLZ
42.954417,11.154889,Strada vicinale dei Casalini,Roccastrada,Keine PLZ
42.953259,11.156191,Strada vicinale dei Casalini,Roccastrada,Keine PLZ
42.953291,11.156686,Strada vicinale dei Casalini,Roccastrada,Keine PLZ
42.952873,11.157368,Strada vicinale dei Casalini,Roccastrada,Keine PLZ
42.952392,11.157342,Strada vicinale dei Casalini,Roccastrada,Keine PLZ
42.951718,11.158136,Strada vicinale dei Casalini,Roccastrada,Keine PLZ
42.951686,11.159208,Strada vicinale dei Casalini,Roccastrada,Keine PLZ
42.948091,11.164569,vicinale del Vado alla Colonna,Roccastrada,Keine PLZ
42.945659,11.166106,vicinale del Vado alla Colonna,Roccastrada,Keine PLZ
42.943743,11.166818,vicinale del Vado alla Colonna,Roccastrada,Keine PLZ
42.940188,11.170185,vicinale del Vado alla Colonna,Roccastrada,Keine PLZ
42.939843,11.172961,vicinale del Vado alla Colonna,Roccastrada,Keine PLZ
42.940424,11.174266,vicinale del Vado alla Colonna,Roccastrada,Keine PLZ
42.944592,11.179716,Unbekannte Straße,Roccastrada,Keine PLZ
42.953106,11.186748,Unbekannte Straße,Roccastrada,Keine PLZ
42.95262,11.187993,Unbekannte Straße,Roccastrada,Keine PLZ
42.952681,11.190411,Unbekannte Straße,Roccastrada,Keine PLZ
42.952433,11.19232,Unbekannte Straße,Roccastrada,Keine PLZ
42.952401,11.197682,Unbekannte Straße,Roccastrada,Keine PLZ
42.951895,11.200707,Unbekannte Straße,Roccastrada,Keine PLZ
42.951654,11.20093,Unbekannte Straße,Roccastrada,Keine PLZ
42.951129,11.200984,Unbekannte Straße,Roccastrada,Keine PLZ
42.949984,11.201538,Unbekannte Straße,Roccastrada,Keine PLZ
42.947942,11.201222,Unbekannte Straße,Roccastrada,Keine PLZ
42.947526,11.201335,Unbekannte Straße,Roccastrada,Keine PLZ
42.946118,11.202527,Unbekannte Straße,Roccastrada,Keine PLZ
42.945741,11.202341,Unbekannte Straße,Roccastrada,Keine PLZ
42.94493,11.20138,Unbekannte Straße,Roccastrada,Keine PLZ
42.94493,11.20241,Unbekannte Straße,Roccastrada,Keine PLZ
42.94498,11.20316,Unbekannte Straße,Roccastrada,Keine PLZ
42.9476,11.20479,Unbekannte Straße,Roccastrada,Keine PLZ
42.94882,11.20627,Unbekannte Straße,Roccastrada,Keine PLZ
42.94929,11.20708,Unbekannte Straße,Roccastrada,Keine PLZ
42.95081,11.20754,Unbekannte Straße,Roccastrada,Keine PLZ
42.95244,11.20743,Unbekannte Straße,Roccastrada,Keine PLZ
42.95313,11.20775,Unbekannte Straße,Roccastrada,Keine PLZ
42.95365,11.20897,Unbekannte Straße,Roccastrada,Keine PLZ
42.95418,11.2111,Unbekannte Straße,Roccastrada,Keine PLZ
42.95508,11.21232,Unbekannte Straße,Roccastrada,Keine PLZ
42.95511,11.21335,Unbekannte Straße,Roccastrada,Keine PLZ
42.95438,11.21535,Unbekannte Straße,Roccastrada,Keine PLZ
42.95435,11.21775,Unbekannte Straße,Roccastrada,Keine PLZ
42.95393,11.21942,Unbekannte Straße,Roccastrada,Keine PLZ
42.9538,11.21977,Unbekannte Straße,Roccastrada,Keine PLZ
42.95268,11.22095,Unbekannte Straße,Roccastrada,Keine PLZ
42.95227,11.22253,Unbekannte Straße,Roccastrada,Keine PLZ
42.95236,11.22391,Unbekannte Straße,Roccastrada,Keine PLZ
42.9527,11.2253,Unbekannte Straße,Roccastrada,Keine PLZ
42.95307,11.22629,Unbekannte Straße,Roccastrada,Keine PLZ
42.95401,11.22794,Unbekannte Straße,Roccastrada,Keine PLZ
42.95498,11.23492,Strada Provinciale 48 Tollero,Roccastrada,Keine PLZ
42.95465,11.2358,Strada Provinciale 48 Tollero,Roccastrada,Keine PLZ
42.95427,11.23777,Strada Provinciale 48 Tollero,Roccastrada,Keine PLZ
42.95367,11.23891,Strada Provinciale 48 Tollero,Roccastrada,Keine PLZ
42.954255,11.239772,Strada Provinciale 48 Tollero,Roccastrada,Keine PLZ
42.952555,11.24253,Strada Provinciale 48 Tollero,Paganico,Keine PLZ
42.95018,11.24459,Strada Provinciale 48 Tollero,Paganico,Keine PLZ
42.948391,11.249649,Strada Provinciale 48 Tollero,Paganico,Keine PLZ
42.946717,11.252575,Strada Provinciale 48 Tollero,Paganico,Keine PLZ
42.944588,11.257135,Strada Provinciale 48 Tollero,Paganico,Keine PLZ
42.940147,11.260752,Strada Provinciale 48 Tollero,Paganico,Keine PLZ
42.939288,11.262637,Strada Provinciale 48 Tollero,Paganico,Keine PLZ
42.937313,11.264308,Strada Provinciale 48 Tollero,Paganico,Keine PLZ
42.936751,11.266454,Strada Provinciale 48 Tollero,Paganico,Keine PLZ
42.936437,11.266913,Strada Provinciale 48 Tollero,Paganico,Keine PLZ
42.936143,11.26696,Strada Provinciale 48 Tollero,Paganico,Keine PLZ
42.93578,11.266616,Strada Provinciale 48 Tollero,Paganico,Keine PLZ
42.935203,11.266953,Strada Provinciale 48 Tollero,Paganico,Keine PLZ
42.933786,11.268138,Strada Provinciale 48 Tollero,Paganico,Keine PLZ
42.93364,11.268621,Strada Provinciale 48 Tollero,Paganico,Keine PLZ
42.933703,11.269121,Strada Provinciale 48 Tollero,Paganico,Keine PLZ
42.93215,11.270298,Via Messina,Paganico,Keine PLZ
42.93193,11.270202,Via Messina,Paganico,Keine PLZ
42.931691,11.270349,Via Messina,Paganico,Keine PLZ
42.933669,11.274943,Via Messina,Paganico,Keine PLZ
42.933965,11.275291,Via Messina,Paganico,Keine PLZ
42.933767,11.275891,Via Messina,Paganico,Keine PLZ
42.934921,11.278207,Strada Provinciale 64 Cipressino,Paganico,58048
42.934949,11.278515,Strada Provinciale 64 Cipressino,Paganico,58048
42.935691,11.27942,Strada Provinciale 64 Cipressino,Paganico,58048
42.935984,11.281618,Strada Provinciale 64 Cipressino,Paganico,58048
42.936289,11.282499,Strada Provinciale 64 Cipressino,Paganico,58048
42.936689,11.283012,Strada Provinciale 64 Cipressino,Paganico,58048
42.937659,11.281873,Strada Provinciale 64 Cipressino,Paganico,58048
42.939168,11.284161,Strada Provinciale 64 Cipressino,Paganico,58045
42.939432,11.285373,Strada Provinciale 64 Cipressino,Paganico,58045
42.940677,11.288923,Strada Provinciale 64 Cipressino,Paganico,58045
42.940989,11.292403,Strada Provinciale 64 Cipressino,Grosseto,58048
42.942506,11.294939,Strada Provinciale 64 Cipressino,Grosseto,58048
42.94287,11.297021,Strada Provinciale 64 Cipressino,Grosseto,58048
42.943852,11.298336,Strada Provinciale 64 Cipressino,Grosseto,58048
42.944195,11.29919,Strada Provinciale 64 Cipressino,Grosseto,58048
42.944921,11.299289,Strada Provinciale 64 Cipressino,Grosseto,58048
42.94689,11.302459,Strada Provinciale 64 Cipressino,Grosseto,58048
42.950814,11.305666,Strada Provinciale Leopoldina,Dogana,58048
42.953659,11.310961,Strada Provinciale Leopoldina,Dogana,58048
42.953745,11.311751,Strada Provinciale Leopoldina,Dogana,58048
42.953425,11.31702,Strada Provinciale Leopoldina,Dogana,58048
42.95314,11.319143,Strada Provinciale Leopoldina,Dogana,58048
42.953255,11.321189,Strada Provinciale Leopoldina,Dogana,58048
42.954334,11.324386,Strada Provinciale Leopoldina,Dogana,58048
42.956074,11.326938,Strada Provinciale Leopoldina,Dogana,58048
42.955768,11.327233,Strada Provinciale Leopoldina,Dogana,58048
42.955809,11.32814,Strada Provinciale Leopoldina,Dogana,58048
42.954818,11.329318,Strada Provinciale Leopoldina,Dogana,58048
42.954591,11.329393,Strada Provinciale Leopoldina,Dogana,58048
42.953413,11.328857,Strada Provinciale Leopoldina,Dogana,58048
42.953047,11.329042,Strada Provinciale Leopoldina,Dogana,58048
42.954129,11.330888,Strada Provinciale Leopoldina,Dogana,58048
42.956114,11.333189,Strada Provinciale 64 Cipressino,Grosseto,58048
42.956387,11.333908,Strada Provinciale 64 Cipressino,Grosseto,58048
42.956844,11.33415,Strada Provinciale 64 Cipressino,Grosseto,58048
42.958275,11.335539,Strada Provinciale 64 Cipressino,Grosseto,58048
42.963363,11.338924,Strada Provinciale Leopoldina,Dogana,58048
42.96263,11.340613,Strada Provinciale Leopoldina,Dogana,58048
42.962035,11.341213,Strada Provinciale Leopoldina,Dogana,58048
42.961768,11.341239,Strada Provinciale Leopoldina,Dogana,58048
42.961249,11.340829,Strada Provinciale Leopoldina,Dogana,58048
42.960325,11.341034,Strada Provinciale Leopoldina,Dogana,58048
42.959793,11.340728,Strada Provinciale Leopoldina,Dogana,58048
42.95892,11.340583,Strada Provinciale 64 Cipressino,Grosseto,58048
42.958496,11.340637,Strada Provinciale 64 Cipressino,Grosseto,58048
42.957822,11.341007,Strada Provinciale 64 Cipressino,Grosseto,58048
42.957459,11.3426,Strada Provinciale 64 Cipressino,Grosseto,58048
42.956384,11.343319,Strada Provinciale 64 Cipressino,Grosseto,58048
42.9556,11.342938,Strada Provinciale 64 Cipressino,Grosseto,58048
42.955457,11.343223,Strada Provinciale 64 Cipressino,Grosseto,58048
42.955568,11.343872,Strada Provinciale 64 Cipressino,Grosseto,58048
42.955019,11.344515,Strada Provinciale 64 Cipressino,Grosseto,58048
42.954468,11.3448,Strada Provinciale 64 Cipressino,Grosseto,58048
42.953777,11.34653,Strada Provinciale 64 Cipressino,Grosseto,58048
42.953117,11.34665,Strada Provinciale 64 Cipressino,Grosseto,58048
42.952953,11.34649,Strada Provinciale 64 Cipressino,Grosseto,58048
42.953317,11.346199,Strada Provinciale 64 Cipressino,Grosseto,58048
42.953505,11.34576,Strada Provinciale 64 Cipressino,Grosseto,58048
42.953851,11.351716,Strada Provinciale 64 Cipressino,Cinigiano,58044
42.954067,11.351935,Strada Provinciale 64 Cipressino,Cinigiano,58044
42.954247,11.353244,Strada Provinciale 64 Cipressino,Cinigiano,58044
42.95464,11.353662,Strada Provinciale 64 Cipressino,Cinigiano,58044
42.955009,11.353844,Strada Provinciale 64 Cipressino,Cinigiano,58044
42.958307,11.352343,Strada Provinciale 64 Cipressino,Cinigiano,58044
42.963552,11.350358,Unbekannte Straße,Cinigiano,58048
42.963944,11.350444,Unbekannte Straße,Cinigiano,58048
42.964046,11.352557,Unbekannte Straße,Cinigiano,58048
42.963638,11.355218,Unbekannte Straße,Cinigiano,58048
42.963277,11.356162,Unbekannte Straße,Cinigiano,58048
42.96323,11.356763,Unbekannte Straße,Cinigiano,Keine PLZ
42.962138,11.359499,Unbekannte Straße,Cinigiano,Keine PLZ
42.96162,11.361762,Unbekannte Straße,Cinigiano,Keine PLZ
42.961284,11.36242,Strada Provinciale 64 Cipressino,Cinigiano,58044
42.961602,11.362743,Strada Provinciale 64 Cipressino,Cinigiano,58044
42.961643,11.36314,Strada Provinciale 64 Cipressino,Cinigiano,58044
42.96143,11.366958,Strada Provinciale 64 Cipressino,Cinigiano,58044
42.96174,11.369109,Strada Provinciale 64 Cipressino,Cinigiano,58044
42.961071,11.373403,Strada Provinciale 64 Cipressino,Cinigiano,58044
42.960036,11.376791,Strada Provinciale 64 Cipressino,Cinigiano,58044
42.960179,11.378758,Strada Provinciale 64 Cipressino,Cinigiano,58044
42.959815,11.381615,Strada Provinciale 64 Cipressino,Cinigiano,58044
42.960021,11.383316,Unbekannte Straße,Cinigiano,Keine PLZ
42.959663,11.38436,Unbekannte Straße,Cinigiano,Keine PLZ
42.958609,11.385664,Unbekannte Straße,Cinigiano,Keine PLZ
42.958409,11.385621,Unbekannte Straße,Cinigiano,Keine PLZ
42.958165,11.385022,Unbekannte Straße,Cinigiano,Keine PLZ
42.957886,11.384984,Unbekannte Straße,Cinigiano,Keine PLZ
42.957876,11.385114,Unbekannte Straße,Cinigiano,Keine PLZ
42.957408,11.384919,Unbekannte Straße,Cinigiano,Keine PLZ
42.957346,11.38505,Unbekannte Straße,Cinigiano,Keine PLZ
42.957909,11.389563,Strada Provinciale 64 Cipressino,Cinigiano,Keine PLZ
42.957369,11.396097,Strada Provinciale 64 Cipressino,Cinigiano,Keine PLZ
42.955826,11.400037,Strada Provinciale 64 Cipressino,Cinigiano,Keine PLZ
42.955025,11.400729,Strada Provinciale 64 Cipressino,Cinigiano,Keine PLZ
42.952983,11.403315,Strada Provinciale 64 Cipressino,Cinigiano,Keine PLZ
42.951978,11.404034,Strada Provinciale 64 Cipressino,Cinigiano,Keine PLZ
42.951986,11.404624,Strada Provinciale 64 Cipressino,Cinigiano,Keine PLZ
42.95124,11.406244,Strada Provinciale 64 Cipressino,Cinigiano,Keine PLZ
42.949559,11.413804,Strada Provinciale Porrona,Porrona,58044
42.951513,11.414264,Strada Provinciale Porrona,Porrona,58044
42.953539,11.413508,Strada Provinciale Porrona,Porrona,58044
42.953915,11.413699,Strada Provinciale Porrona,Porrona,58044
42.954734,11.414831,Strada Provinciale Porrona,Cinigiano,Keine PLZ
42.954978,11.414898,Strada Provinciale Porrona,Cinigiano,Keine PLZ
42.953267,11.423396,Strada Provinciale 64 Cipressino,Castel del Piano,Keine PLZ
42.95268,11.424724,Strada Provinciale 64 Cipressino,Castel del Piano,Keine PLZ
42.952736,11.425,Strada Provinciale 64 Cipressino,Castel del Piano,Keine PLZ
42.954147,11.425191,Strada Provinciale 64 Cipressino,Castel del Piano,Keine PLZ
42.955007,11.425879,Strada Provinciale 64 Cipressino,Castel del Piano,Keine PLZ
42.955519,11.426049,Strada Provinciale 64 Cipressino,Castel del Piano,Keine PLZ
42.957259,11.425535,Strada Provinciale 64 Cipressino,Castel del Piano,Keine PLZ
42.964084,11.425722,Traversa dei Monti,Montalcino,Keine PLZ
42.965069,11.425913,Traversa dei Monti,Montalcino,Keine PLZ
42.96589,11.426678,Traversa dei Monti,Montalcino,Keine PLZ
42.966467,11.428655,Traversa dei Monti,Montalcino,Keine PLZ
42.966359,11.429917,Traversa dei Monti,Montalcino,Keine PLZ
42.966582,11.431657,Via Giucheto,Montalcino,Keine PLZ
42.966412,11.434325,Via Giucheto,Montalcino,Keine PLZ
42.967359,11.435991,Via Giucheto,Montalcino,Keine PLZ
42.967572,11.437182,Via Giucheto,Montalcino,Keine PLZ
42.967441,11.441153,Strada Consorziale Sant'Angelo Monteano,Montalcino,Keine PLZ
42.967227,11.441764,Strada Consorziale Sant'Angelo Monteano,Montalcino,Keine PLZ
42.966902,11.444801,Strada Consorziale Sant'Angelo Monteano,Montalcino,Keine PLZ
42.967178,11.444987,Strada Consorziale Sant'Angelo Monteano,Montalcino,Keine PLZ
42.967725,11.444945,Strada Consorziale Sant'Angelo Monteano,Montalcino,Keine PLZ
42.967973,11.44543,Strada Consorziale Sant'Angelo Monteano,Montalcino,Keine PLZ
42.968612,11.445642,Strada Consorziale Sant'Angelo Monteano,Montalcino,Keine PLZ
42.968893,11.446481,Strada Consorziale Sant'Angelo Monteano,Montalcino,Keine PLZ
42.969422,11.446938,Unbekannte Straße,Montalcino,Keine PLZ
42.969628,11.447819,Unbekannte Straße,Montalcino,Keine PLZ
42.970869,11.449085,Unbekannte Straße,Montalcino,Keine PLZ
42.972533,11.450179,Unbekannte Straße,Montalcino,Keine PLZ
42.973037,11.450234,Unbekannte Straße,Montalcino,Keine PLZ
42.973157,11.451285,Unbekannte Straße,Montalcino,Keine PLZ
42.973454,11.451327,Unbekannte Straße,Montalcino,Keine PLZ
42.973742,11.450599,Unbekannte Straße,Montalcino,Keine PLZ
42.974016,11.450368,Unbekannte Straße,Montalcino,Keine PLZ
42.974464,11.45061,Unbekannte Straße,Montalcino,Keine PLZ
42.975067,11.450659,Unbekannte Straße,Montalcino,Keine PLZ
42.977108,11.451582,Unbekannte Straße,Montalcino,Keine PLZ
42.979268,11.453022,Unbekannte Straße,Montalcino,Keine PLZ
42.980893,11.456064,Unbekannte Straße,Montalcino,Keine PLZ
42.982157,11.457668,Unbekannte Straße,Montalcino,Keine PLZ
42.98539,11.458414,Unbekannte Straße,Montalcino,Keine PLZ
42.986398,11.458247,Unbekannte Straße,Montalcino,Keine PLZ
42.987281,11.458342,Unbekannte Straße,Montalcino,Keine PLZ
42.987543,11.458797,Unbekannte Straße,Montalcino,Keine PLZ
42.988042,11.459048,Unbekannte Straße,Montalcino,Keine PLZ
42.987403,11.459428,Unbekannte Straße,Montalcino,Keine PLZ
42.987094,11.459909,Unbekannte Straße,Montalcino,Keine PLZ
42.987034,11.460357,Unbekannte Straße,Montalcino,Keine PLZ
42.987632,11.460002,Unbekannte Straße,Montalcino,Keine PLZ
42.988543,11.460308,Unbekannte Straße,Montalcino,Keine PLZ
42.989211,11.460914,Unbekannte Straße,Montalcino,Keine PLZ
42.990125,11.46093,Unbekannte Straße,Montalcino,Keine PLZ
42.990631,11.461326,Unbekannte Straße,Montalcino,Keine PLZ
42.990909,11.461246,Unbekannte Straße,Montalcino,Keine PLZ
42.991102,11.460771,Unbekannte Straße,Montalcino,Keine PLZ
42.991701,11.460698,Unbekannte Straße,Montalcino,Keine PLZ
42.991937,11.459814,Unbekannte Straße,Montalcino,Keine PLZ
42.992293,11.459442,Unbekannte Straße,Montalcino,Keine PLZ
42.994452,11.458477,Unbekannte Straße,Montalcino,Keine PLZ
42.99485,11.458489,Unbekannte Straße,Montalcino,Keine PLZ
42.99517,11.458778,Unbekannte Straße,Montalcino,Keine PLZ
42.995803,11.460572,Unbekannte Straße,Montalcino,Keine PLZ
42.996262,11.460319,Unbekannte Straße,Montalcino,Keine PLZ
42.997035,11.458627,Unbekannte Straße,Montalcino,Keine PLZ
42.997442,11.458629,Unbekannte Straße,Montalcino,Keine PLZ
42.998525,11.457993,Unbekannte Straße,Montalcino,Keine PLZ
42.999149,11.457834,Traversa dei Monti,Montalcino,Keine PLZ
43.000702,11.457799,Traversa dei Monti,Montalcino,Keine PLZ
43.002102,11.458995,Traversa dei Monti,Montalcino,Keine PLZ
43.00255,11.459666,Traversa dei Monti,Montalcino,Keine PLZ
43.002946,11.4607,Traversa dei Monti,Montalcino,Keine PLZ
43.003105,11.462426,SP14,Montalcino,Keine PLZ
43.003662,11.463017,SP14,Montalcino,Keine PLZ
43.003637,11.463212,SP14,Montalcino,Keine PLZ
43.003995,11.46366,SP14,Montalcino,Keine PLZ
43.004669,11.464185,SP14,Montalcino,Keine PLZ
43.004808,11.4647,SP14,Montalcino,Keine PLZ
43.004599,11.466426,SP14,Montalcino,Keine PLZ
43.004707,11.468124,SP14,Montalcino,Keine PLZ
43.004592,11.468316,Unbekannte Straße,Montalcino,Keine PLZ
43.003875,11.468395,Unbekannte Straße,Montalcino,Keine PLZ
43.003685,11.468788,Unbekannte Straße,Montalcino,Keine PLZ
43.003588,11.470038,Unbekannte Straße,Montalcino,Keine PLZ
43.003115,11.472138,Unbekannte Straße,Montalcino,Keine PLZ
43.003106,11.47369,Unbekannte Straße,Montalcino,Keine PLZ
43.003624,11.474272,Unbekannte Straße,Montalcino,Keine PLZ
43.003614,11.474628,Unbekannte Straße,Montalcino,Keine PLZ
43.000965,11.476395,Unbekannte Straße,Montalcino,Keine PLZ
43.000731,11.476286,Unbekannte Straße,Montalcino,Keine PLZ
43.000063,11.474964,Unbekannte Straße,Montalcino,Keine PLZ
42.99925,11.47383,Unbekannte Straße,Montalcino,Keine PLZ
42.997964,11.473467,Unbekannte Straße,Montalcino,Keine PLZ
42.997,11.472948,Unbekannte Straße,Montalcino,Keine PLZ
42.995541,11.4748,Unbekannte Straße,Montalcino,Keine PLZ
42.994431,11.474739,Unbekannte Straße,Montalcino,Keine PLZ
42.993806,11.475198,Unbekannte Straße,Montalcino,Keine PLZ
42.993514,11.475617,Unbekannte Straße,Montalcino,Keine PLZ
42.993058,11.477169,Unbekannte Straße,Montalcino,Keine PLZ
42.993306,11.477936,Unbekannte Straße,Montalcino,Keine PLZ
42.994311,11.478503,Unbekannte Straße,Montalcino,Keine PLZ
42.993694,11.479832,Unbekannte Straße,Montalcino,Keine PLZ
42.993853,11.481299,Unbekannte Straße,Montalcino,Keine PLZ
42.993749,11.482489,Unbekannte Straße,Montalcino,Keine PLZ
42.994317,11.483821,Unbekannte Straße,Montalcino,Keine PLZ
42.995105,11.484314,Unbekannte Straße,Montalcino,Keine PLZ
42.995443,11.485159,Unbekannte Straße,Montalcino,Keine PLZ
42.995299,11.485505,Unbekannte Straße,Montalcino,Keine PLZ
42.994895,11.485366,Unbekannte Straße,Montalcino,Keine PLZ
42.994141,11.48574,Unbekannte Straße,Montalcino,Keine PLZ
42.993045,11.485754,Unbekannte Straße,Montalcino,Keine PLZ
42.99214,11.486991,Unbekannte Straße,Montalcino,Keine PLZ
42.991281,11.492672,Unbekannte Straße,Montalcino,Keine PLZ
42.990094,11.497321,Unbekannte Straße,Montalcino,Keine PLZ
42.990013,11.498403,Unbekannte Straße,Montalcino,Keine PLZ
42.991337,11.500553,Unbekannte Straße,Montalcino,Keine PLZ
42.992038,11.50112,Unbekannte Straße,Montalcino,Keine PLZ
42.992087,11.501347,Unbekannte Straße,Montalcino,Keine PLZ
42.991415,11.503363,Unbekannte Straße,Montalcino,Keine PLZ
42.990212,11.506015,Unbekannte Straße,Montalcino,Keine PLZ
42.99007,11.507002,Unbekannte Straße,Montalcino,Keine PLZ
42.989543,11.507943,Unbekannte Straße,Montalcino,Keine PLZ
42.989384,11.510021,Unbekannte Straße,Montalcino,Keine PLZ
42.989774,11.511657,Unbekannte Straße,Montalcino,Keine PLZ
42.991735,11.512259,Unbekannte Straße,Montalcino,Keine PLZ
42.99214,11.512982,Unbekannte Straße,Montalcino,Keine PLZ
42.992797,11.513291,Unbekannte Straße,Montalcino,Keine PLZ
42.993629,11.513983,Unbekannte Straße,Montalcino,Keine PLZ
42.994031,11.514025,Unbekannte Straße,Montalcino,Keine PLZ
42.995372,11.513288,Unbekannte Straße,Montalcino,Keine PLZ
42.996784,11.51369,Unbekannte Straße,Montalcino,Keine PLZ
42.997325,11.515153,Unbekannte Straße,Montalcino,Keine PLZ
42.99713,11.516761,Unbekannte Straße,Montalcino,Keine PLZ
42.996638,11.517613,Unbekannte Straße,Montalcino,Keine PLZ
42.995114,11.519088,Unbekannte Straße,Montalcino,Keine PLZ
42.994797,11.519608,Via Bassomondo,Montalcino,Keine PLZ
42.994861,11.519809,Via Bassomondo,Montalcino,Keine PLZ
42.993768,11.521179,Via Bassomondo,Montalcino,Keine PLZ
42.993032,11.523381,Via Bassomondo,Montalcino,Keine PLZ
42.992276,11.524548,Via Bassomondo,Montalcino,Keine PLZ
42.992301,11.52507,Strada Provinciale della Badia di Sant'Antimo,Montalcino,Keine PLZ
42.992662,11.525738,Strada Provinciale della Badia di Sant'Antimo,Montalcino,Keine PLZ
42.992607,11.52624,Strada Provinciale della Badia di Sant'Antimo,Montalcino,Keine PLZ
42.991301,11.526978,Strada Provinciale della Badia di Sant'Antimo,Montalcino,Keine PLZ
42.990864,11.527415,Strada Provinciale della Badia di Sant'Antimo,Montalcino,Keine PLZ
42.990075,11.529094,Strada Provinciale della Badia di Sant'Antimo,Montalcino,Keine PLZ
42.989761,11.531082,Strada Provinciale della Badia di Sant'Antimo,Montalcino,Keine PLZ
42.989335,11.531707,Strada Provinciale della Badia di Sant'Antimo,Montalcino,Keine PLZ
42.988338,11.532226,Strada Provinciale della Badia di Sant'Antimo,Montalcino,Keine PLZ
42.987636,11.533353,Strada Provinciale della Badia di Sant'Antimo,Montalcino,Keine PLZ
42.987887,11.535879,Strada Provinciale della Badia di Sant'Antimo,Montalcino,Keine PLZ
42.987763,11.536298,Strada Provinciale della Badia di Sant'Antimo,Montalcino,Keine PLZ
42.987012,11.536808,Strada Provinciale della Badia di Sant'Antimo,Montalcino,Keine PLZ
42.98652,11.536669,Strada Provinciale della Badia di Sant'Antimo,Montalcino,Keine PLZ
42.984149,11.538751,Strada Provinciale della Badia di Sant'Antimo,Montalcino,Keine PLZ
42.983541,11.539079,Strada Provinciale della Badia di Sant'Antimo,Montalcino,Keine PLZ
42.983039,11.539651,Strada Provinciale della Badia di Sant'Antimo,Montalcino,Keine PLZ
42.982244,11.54008,Strada Provinciale della Badia di Sant'Antimo,Montalcino,Keine PLZ
42.982208,11.540316,Strada Provinciale della Badia di Sant'Antimo,Montalcino,Keine PLZ
42.982422,11.540548,Strada Provinciale della Badia di Sant'Antimo,Montalcino,Keine PLZ
42.984535,11.540705,Strada Provinciale della Badia di Sant'Antimo,Montalcino,Keine PLZ
42.984579,11.541007,Strada Provinciale della Badia di Sant'Antimo,Montalcino,Keine PLZ
42.983852,11.542647,Strada Provinciale della Badia di Sant'Antimo,Montalcino,Keine PLZ
42.982606,11.542523,Strada Provinciale della Badia di Sant'Antimo,Montalcino,Keine PLZ
42.982108,11.543249,Strada Provinciale della Badia di Sant'Antimo,Montalcino,Keine PLZ
42.981362,11.543602,Strada Provinciale della Badia di Sant'Antimo,Montalcino,Keine PLZ
42.980862,11.544207,Strada Provinciale della Badia di Sant'Antimo,Montalcino,Keine PLZ
42.980355,11.544229,Strada Provinciale della Badia di Sant'Antimo,Montalcino,Keine PLZ
42.979953,11.544896,Strada Provinciale della Badia di Sant'Antimo,Montalcino,Keine PLZ
42.979011,11.545034,Strada Provinciale della Badia di Sant'Antimo,Montalcino,58038
42.977804,11.546399,Strada Provinciale della Badia di Sant'Antimo,Montalcino,58038
42.9779,11.546812,Strada Provinciale della Badia di Sant'Antimo,Montalcino,58038
42.978377,11.546964,Strada Provinciale della Badia di Sant'Antimo,Montalcino,58038
42.978307,11.54733,Strada Provinciale della Badia di Sant'Antimo,Montalcino,58038
42.977747,11.547193,Strada Provinciale della Badia di Sant'Antimo,Montalcino,58038
42.977186,11.546563,Strada Provinciale della Badia di Sant'Antimo,Montalcino,58038
42.977269,11.546928,Strada Provinciale della Badia di Sant'Antimo,Montalcino,58038
42.977099,11.547135,Strada Provinciale della Badia di Sant'Antimo,Montalcino,58038
42.976511,11.546507,Strada Provinciale della Badia di Sant'Antimo,Montalcino,58038
42.975608,11.547755,Strada Provinciale della Badia di Sant'Antimo,Montalcino,58038
42.976489,11.549373,Strada Provinciale della Badia di Sant'Antimo,Montalcino,58038
42.976048,11.550311,Strada Provinciale della Grossola,Castiglione d'Orcia,58038
42.975733,11.551891,Strada Provinciale della Grossola,Castiglione d'Orcia,58038
42.976643,11.552444,Strada Provinciale della Grossola,Castiglione d'Orcia,58038
42.977164,11.552538,Strada Provinciale della Grossola,Castiglione d'Orcia,58038
42.977583,11.553194,Strada Provinciale della Grossola,Castiglione d'Orcia,58038
42.978024,11.553156,Strada Provinciale della Grossola,Castiglione d'Orcia,58038
42.978548,11.552776,Strada Provinciale della Grossola,Castiglione d'Orcia,58038
42.978747,11.55285,Strada Provinciale della Grossola,Castiglione d'Orcia,58038
42.978993,11.55353,Strada Provinciale della Grossola,Castiglione d'Orcia,58038
42.979295,11.555756,Strada Provinciale della Grossola,Castiglione d'Orcia,58038
42.978729,11.556467,Strada Provinciale della Grossola,Castiglione d'Orcia,58038
42.97826,11.5575,Strada Provinciale della Grossola,Castiglione d'Orcia,58038
42.97762,11.55842,Strada Provinciale della Grossola,Castiglione d'Orcia,58038
42.977023,11.558297,Strada Provinciale della Grossola,Castiglione d'Orcia,58038
42.976503,11.558662,Strada Provinciale della Grossola,Castiglione d'Orcia,58038
42.975758,11.558617,Strada Provinciale della Grossola,Castiglione d'Orcia,58038
42.975194,11.558934,Strada Provinciale della Grossola,Castiglione d'Orcia,58038
42.974588,11.558662,Strada Provinciale della Grossola,Castiglione d'Orcia,58038
42.97428,11.559223,Strada Provinciale della Grossola,Castiglione d'Orcia,58038
42.973814,11.559512,Strada Provinciale della Grossola,Castiglione d'Orcia,58038
42.973283,11.560163,Strada Provinciale della Grossola,Castiglione d'Orcia,58038
42.97333,11.560519,Strada Provinciale della Grossola,Castiglione d'Orcia,58038
42.973841,11.560539,Strada Provinciale della Grossola,Castiglione d'Orcia,58038
42.974131,11.560754,Strada Provinciale della Grossola,Castiglione d'Orcia,58038
42.97422,11.562124,Strada Provinciale della Grossola,Castiglione d'Orcia,58038
42.974432,11.562587,Strada Provinciale della Grossola,Castiglione d'Orcia,58038
42.974716,11.562795,Strada Provinciale della Grossola,Castiglione d'Orcia,58038
42.975345,11.562826,Strada Provinciale della Grossola,Castiglione d'Orcia,58038
42.975524,11.563156,Strada Provinciale della Grossola,Castiglione d'Orcia,58038
42.975224,11.564305,Strada Provinciale della Grossola,Castiglione d'Orcia,58038
42.974415,11.565324,Strada Provinciale della Grossola,Castiglione d'Orcia,58038
42.97404,11.566917,Strada Provinciale della Grossola,Castiglione d'Orcia,58038
42.972461,11.568042,Strada Provinciale della Grossola,Castiglione d'Orcia,58038
42.972001,11.56997,Strada Provinciale della Grossola,Castiglione d'Orcia,58038
42.972221,11.570419,Strada Provinciale della Grossola,Castiglione d'Orcia,58038
42.97376,11.570828,Strada Provinciale della Grossola,Castiglione d'Orcia,58038
42.974113,11.571331,Strada Provinciale della Grossola,Castiglione d'Orcia,58038
42.97427,11.571243,Strada Provinciale della Grossola,Castiglione d'Orcia,58038
42.974382,11.570632,Strada Provinciale della Grossola,Castiglione d'Orcia,58038
42.974716,11.570471,Strada Provinciale della Grossola,Castiglione d'Orcia,58038
42.974776,11.571342,Strada Provinciale della Grossola,Castiglione d'Orcia,58038
42.97541,11.571927,Unbekannte Straße,Castiglione d'Orcia,Keine PLZ
42.977463,11.571415,Unbekannte Straße,Castiglione d'Orcia,Keine PLZ
42.977784,11.571495,Unbekannte Straße,Castiglione d'Orcia,Keine PLZ
42.978768,11.572595,Unbekannte Straße,Castiglione d'Orcia,Keine PLZ
42.979447,11.572584,Unbekannte Straße,Castiglione d'Orcia,Keine PLZ
42.979582,11.572703,Unbekannte Straße,Castiglione d'Orcia,Keine PLZ
42.979378,11.573764,Unbekannte Straße,Castiglione d'Orcia,Keine PLZ
42.980442,11.574535,Unbekannte Straße,Castiglione d'Orcia,Keine PLZ
42.980785,11.57539,Unbekannte Straße,Castiglione d'Orcia,Keine PLZ
42.981121,11.575728,Unbekannte Straße,Castiglione d'Orcia,Keine PLZ
42.98115,11.575988,Unbekannte Straße,Castiglione d'Orcia,Keine PLZ
42.980901,11.576393,Unbekannte Straße,Castiglione d'Orcia,Keine PLZ
42.981218,11.577272,Unbekannte Straße,Castiglione d'Orcia,Keine PLZ
42.981843,11.577295,Unbekannte Straße,Castiglione d'Orcia,Keine PLZ
42.982321,11.576446,Unbekannte Straße,Castiglione d'Orcia,Keine PLZ
42.982759,11.576441,Unbekannte Straße,Castiglione d'Orcia,Keine PLZ
42.982337,11.578313,Unbekannte Straße,Castiglione d'Orcia,Keine PLZ
42.981713,11.579244,Unbekannte Straße,Castiglione d'Orcia,Keine PLZ
42.981696,11.580485,Unbekannte Straße,Castiglione d'Orcia,Keine PLZ
42.981342,11.580354,Unbekannte Straße,Castiglione d'Orcia,Keine PLZ
42.980626,11.582454,Unbekannte Straße,Castiglione d'Orcia,Keine PLZ
42.980155,11.583342,Unbekannte Straße,Castiglione d'Orcia,Keine PLZ
42.980177,11.583536,Unbekannte Straße,Castiglione d'Orcia,Keine PLZ
42.98054,11.583535,Unbekannte Straße,Castiglione d'Orcia,Keine PLZ
42.980727,11.583938,Unbekannte Straße,Castiglione d'Orcia,Keine PLZ
42.981397,11.584442,Unbekannte Straße,Castiglione d'Orcia,Keine PLZ
42.981929,11.584654,Unbekannte Straße,Castiglione d'Orcia,Keine PLZ
42.982086,11.584935,Unbekannte Straße,Castiglione d'Orcia,Keine PLZ
42.982087,11.585912,Unbekannte Straße,Castiglione d'Orcia,Keine PLZ
42.981921,11.58608,Unbekannte Straße,Castiglione d'Orcia,Keine PLZ
42.98145,11.58578,Unbekannte Straße,Castiglione d'Orcia,Keine PLZ
42.981154,11.585971,Unbekannte Straße,Castiglione d'Orcia,Keine PLZ
42.980579,11.587057,Strada Cecchivecchi - L'Aiole,Castiglione d'Orcia,53023
42.980512,11.587698,Strada Cecchivecchi - L'Aiole,Castiglione d'Orcia,53023
42.980069,11.587894,Strada Cecchivecchi - L'Aiole,Castiglione d'Orcia,53023
42.979543,11.588752,Strada Cecchivecchi - L'Aiole,Castiglione d'Orcia,53023
42.979093,11.589957,Strada Cecchivecchi - L'Aiole,Castiglione d'Orcia,53023
42.978713,11.590616,Strada Cecchivecchi - L'Aiole,Castiglione d'Orcia,53023
42.978336,11.590938,Strada Cecchivecchi - L'Aiole,Castiglione d'Orcia,53023
42.977981,11.591907,Strada Cecchivecchi - L'Aiole,Castiglione d'Orcia,53023
42.977329,11.591874,Strada Cecchivecchi - L'Aiole,Castiglione d'Orcia,53023
42.976835,11.59166,Strada Cecchivecchi - L'Aiole,Castiglione d'Orcia,53023
42.976686,11.591777,Strada Cecchivecchi - L'Aiole,Castiglione d'Orcia,53023
42.976458,11.593569,Strada Cecchivecchi - L'Aiole,Castiglione d'Orcia,53023
42.975929,11.59398,Strada Cecchivecchi - L'Aiole,Castiglione d'Orcia,53023
42.975469,11.593874,Strada Cecchivecchi - L'Aiole,Castiglione d'Orcia,53023
42.975659,11.594298,Strada Cecchivecchi - L'Aiole,Castiglione d'Orcia,53023
42.97573,11.595511,Strada Cecchivecchi - L'Aiole,Castiglione d'Orcia,53023
42.976163,11.596498,Strada Cecchivecchi - L'Aiole,Castiglione d'Orcia,53023
42.977442,11.598366,Strada Provinciale del Monte Amiata,Castiglione d'Orcia,53023
42.977803,11.599464,Strada Provinciale del Monte Amiata,Castiglione d'Orcia,53023
42.978804,11.600158,Strada Provinciale del Monte Amiata,Castiglione d'Orcia,53023
42.980638,11.600511,Strada Provinciale del Monte Amiata,Castiglione d'Orcia,53023
42.981684,11.600226,Strada Provinciale del Monte Amiata,Castiglione d'Orcia,53023
42.982239,11.600622,Strada Provinciale del Monte Amiata,Castiglione d'Orcia,53023
42.983588,11.601145,Strada Provinciale del Monte Amiata,Castiglione d'Orcia,53023
42.986527,11.601568,Strada Provinciale del Monte Amiata,Castiglione d'Orcia,53023
42.987794,11.60207,Strada Provinciale del Monte Amiata,Castiglione d'Orcia,53023
42.990877,11.6037,Strada Provinciale del Monte Amiata,Castiglione d'Orcia,53023
42.992661,11.603873,Strada Provinciale del Monte Amiata,Castiglione d'Orcia,53023
42.99503,11.604378,Strada Provinciale del Monte Amiata,Castiglione d'Orcia,53023
42.996045,11.605572,Strada Provinciale del Monte Amiata,Castiglione d'Orcia,53023
42.997385,11.603601,Strada Provinciale del Monte Amiata,Castiglione d'Orcia,53023
42.997818,11.604325,Strada Provinciale del Monte Amiata,Castiglione d'Orcia,53023
42.998765,11.604414,Strada Provinciale del Monte Amiata,Castiglione d'Orcia,53023
42.999529,11.605,Strada Provinciale del Monte Amiata,Castiglione d'Orcia,53023
43.000757,11.605047,Strada Provinciale del Monte Amiata,Castiglione d'Orcia,53023
43.001198,11.605239,Strada Provinciale del Monte Amiata,Castiglione d'Orcia,53023
43.002021,11.606176,Strada Provinciale del Monte Amiata,Castiglione d'Orcia,53023
43.002957,11.611029,Strada Provinciale del Monte Amiata,Castiglione d'Orcia,53023
43.003608,11.612362,Via della Bonaria,Castiglione d'Orcia,53023
43.004011,11.613708,Via della Bonaria,Castiglione d'Orcia,53023
43.004482,11.614319,Via della Bonaria,Castiglione d'Orcia,53023
43.005231,11.614821,Via della Bonaria,Castiglione d'Orcia,53023
43.005993,11.615092,Via della Bonaria,Castiglione d'Orcia,53023
43.006335,11.615576,Via della Bonaria,Castiglione d'Orcia,53023
43.006883,11.615875,Via della Bonaria,Castiglione d'Orcia,53023
43.006753,11.616661,Via della Bonaria,Castiglione d'Orcia,53023
43.006911,11.616884,Via Senese,Castiglione d'Orcia,53023
43.007281,11.616887,Via Senese,Castiglione d'Orcia,53023
43.007951,11.617368,Via Senese,Castiglione d'Orcia,53023
43.00789,11.617942,Via Senese,Castiglione d'Orcia,53023
43.00745,11.618011,Via Senese,Castiglione d'Orcia,53023
43.007327,11.61826,Via Senese,Castiglione d'Orcia,53023
43.007309,11.618768,Via Senese,Castiglione d'Orcia,53023
43.007556,11.619125,Via Senese,Castiglione d'Orcia,53023
43.007741,11.619088,Via Senese,Castiglione d'Orcia,53023
43.008135,11.618449,Via Senese,Castiglione d'Orcia,53023
43.008429,11.618365,Via Senese,Castiglione d'Orcia,53023
43.008186,11.619174,Via Senese,Castiglione d'Orcia,53023
43.00815,11.620085,Via Senese,Castiglione d'Orcia,53023
43.007721,11.62083,Via Senese,Castiglione d'Orcia,53023
43.007322,11.620748,Via Senese,Castiglione d'Orcia,53023
43.007115,11.620185,Via Senese,Castiglione d'Orcia,53023
43.006905,11.620179,Via Senese,Castiglione d'Orcia,53023
43.007349,11.621752,Via Senese,Castiglione d'Orcia,53023
43.007793,11.621718,Via Senese,Castiglione d'Orcia,53023
43.008734,11.622043,Via Senese,Castiglione d'Orcia,53023
43.009309,11.621867,Via Senese,Castiglione d'Orcia,53023
43.009906,11.621626,Strada Provinciale del Monte Amiata,Castiglione d'Orcia,53023
43.011366,11.619911,Strada Provinciale del Monte Amiata,Castiglione d'Orcia,53023
43.012392,11.619452,Strada Provinciale del Monte Amiata,Castiglione d'Orcia,53023
43.013059,11.619802,Strada Provinciale del Monte Amiata,Castiglione d'Orcia,53023
43.013153,11.619515,Strada Provinciale del Monte Amiata,Castiglione d'Orcia,53023
43.01297,11.619253,Strada Provinciale del Monte Amiata,Castiglione d'Orcia,53023
43.011811,11.618817,Strada Provinciale del Monte Amiata,Castiglione d'Orcia,53023
43.011476,11.617996,Strada Provinciale del Monte Amiata,Castiglione d'Orcia,53023
43.01155,11.617526,Strada Provinciale del Monte Amiata,Castiglione d'Orcia,53023
43.011764,11.617383,Strada Provinciale del Monte Amiata,Castiglione d'Orcia,53023
43.013149,11.617803,Strada Provinciale del Monte Amiata,Castiglione d'Orcia,53023
43.013832,11.618962,Strada Provinciale del Monte Amiata,Castiglione d'Orcia,53023
43.014199,11.619088,Strada Provinciale del Monte Amiata,Castiglione d'Orcia,53023
43.015035,11.61898,Strada Provinciale del Monte Amiata,Castiglione d'Orcia,53023
43.016636,11.620288,Strada Provinciale del Monte Amiata,Castiglione d'Orcia,53023
43.019361,11.621597,Strada Provinciale del Monte Amiata,Castiglione d'Orcia,53023
43.019652,11.621968,Strada Provinciale del Monte Amiata,Castiglione d'Orcia,53023
43.019977,11.62318,Strada Provinciale del Monte Amiata,Castiglione d'Orcia,53023
43.021359,11.623525,Strada Provinciale del Monte Amiata,Castiglione d'Orcia,53023
43.021589,11.623716,Strada Provinciale del Monte Amiata,Castiglione d'Orcia,53023
43.021458,11.623976,Strada Provinciale del Monte Amiata,Castiglione d'Orcia,53023
43.020565,11.623887,Strada Provinciale del Monte Amiata,Castiglione d'Orcia,53023
43.020528,11.624218,Strada Provinciale del Monte Amiata,Castiglione d'Orcia,53023
43.021683,11.62466,Strada Provinciale del Monte Amiata,Castiglione d'Orcia,53023
43.023161,11.626135,Strada Provinciale del Monte Amiata,Castiglione d'Orcia,53023
43.024112,11.626311,Strada Provinciale del Monte Amiata,Castiglione d'Orcia,53023
43.024861,11.625868,Strada Provinciale del Monte Amiata,Castiglione d'Orcia,53023
43.0253,11.626313,Strada Provinciale del Monte Amiata,Castiglione d'Orcia,53023
43.026256,11.626669,Strada Provinciale del Monte Amiata,Castiglione d'Orcia,53023
43.026321,11.626918,Strada Provinciale del Monte Amiata,Castiglione d'Orcia,53023
43.025865,11.627967,Strada Provinciale del Monte Amiata,Castiglione d'Orcia,53023
43.027277,11.627628,Strada Provinciale del Monte Amiata,Castiglione d'Orcia,53023
43.027651,11.62683,Via Cassia,Castiglione d'Orcia,53027
43.027632,11.626055,Via Cassia,Castiglione d'Orcia,53027
43.028351,11.625304,Via Cassia,Castiglione d'Orcia,53027
43.02891,11.625824,Via Cassia,Castiglione d'Orcia,53027
43.029975,11.626367,Via Cassia,Castiglione d'Orcia,53027
43.033316,11.627382,Strada Provinciale di Val d'Orcia,Bagno Vignoni,53027
43.033457,11.627914,Strada Provinciale di Val d'Orcia,Bagno Vignoni,53027
43.033342,11.630345,Strada Provinciale di Val d'Orcia,Bagno Vignoni,53027
43.033614,11.633435,Strada Provinciale di Val d'Orcia,Bagno Vignoni,53027
43.033444,11.635687,Strada Provinciale di Val d'Orcia,Bagno Vignoni,53027
43.033555,11.637823,Strada Provinciale di Val d'Orcia,Bagno Vignoni,53027
43.03495,11.645218,Strada Provinciale di Val d'Orcia,Bagno Vignoni,53027
43.035985,11.646361,Strada Provinciale di Val d'Orcia,Bagno Vignoni,53027
43.037074,11.646918,Strada Provinciale di Val d'Orcia,Bagno Vignoni,53027
43.038671,11.648158,Strada Provinciale di Val d'Orcia,Bagno Vignoni,53027
43.03967,11.648359,Strada Provinciale di Val d'Orcia,Pienza,53027
43.041494,11.647918,Strada Provinciale di Val d'Orcia,Pienza,53027
43.042805,11.648646,Strada Provinciale di Val d'Orcia,Pienza,53027
43.043215,11.649174,Strada Provinciale di Val d'Orcia,Pienza,53027
43.044338,11.651578,Strada Provinciale di Val d'Orcia,Pienza,53026
43.044958,11.652072,Strada Provinciale di Val d'Orcia,Pienza,53026
43.046192,11.654493,Strada Provinciale di Val d'Orcia,Pienza,53026
43.046487,11.654697,Strada Provinciale di Val d'Orcia,Pienza,53026
43.047773,11.654629,Strada Provinciale di Val d'Orcia,Pienza,53026
43.050179,11.656975,Strada Vicinale di Spedaletto,Pienza,53026
43.051175,11.656825,Strada Vicinale di Spedaletto,Pienza,53026
43.052036,11.657108,Strada Vicinale di Spedaletto,Pienza,53026
43.053043,11.657973,Strada Vicinale di Spedaletto,Pienza,53026
43.054435,11.660729,Strada Vicinale di Spedaletto,Pienza,53026
43.055361,11.661328,Strada Vicinale di Spedaletto,Pienza,53026
43.056661,11.661606,Strada Vicinale di Spedaletto,Pienza,53026
43.056934,11.661804,Strada Vicinale di Spedaletto,Pienza,53026
43.0603,11.66637,Strada di Terrapille,Pienza,53026
43.061139,11.669296,Strada di Terrapille,Pienza,53026
43.061832,11.669939,Strada di Terrapille,Pienza,53026
43.065082,11.672153,Strada di Terrapille,Pienza,53026
43.06533,11.672195,Strada di Terrapille,Pienza,53026
43.065781,11.671867,Strada di Terrapille,Pienza,53026
43.066123,11.672032,Strada di Terrapille,Pienza,53026
43.066676,11.672724,Strada di Terrapille,Pienza,53026
43.066481,11.673499,Strada di Terrapille,Pienza,53026
43.066831,11.67465,Strada di Terrapille,Pienza,53026
43.067849,11.675248,Strada di Terrapille,Pienza,53026
43.069045,11.676835,Strada Provinciale del Monte Amiata,Pienza,53026
43.069015,11.677242,Strada Provinciale del Monte Amiata,Pienza,53026
43.068458,11.67847,Strada Provinciale del Monte Amiata,Pienza,53026
43.068463,11.679652,Strada Provinciale del Monte Amiata,Pienza,53026
43.068604,11.679912,Strada Provinciale del Monte Amiata,Pienza,53026
43.068957,11.67979,Strada Provinciale del Monte Amiata,Pienza,53026
43.069158,11.67916,Strada Provinciale del Monte Amiata,Pienza,53026
43.069492,11.678853,Strada Provinciale del Monte Amiata,Pienza,53026
43.07189,11.678576,Strada Provinciale del Monte Amiata,Pienza,53026
43.072209,11.678764,Strada Provinciale del Monte Amiata,Pienza,53026
43.071961,11.679967,Strada Provinciale del Monte Amiata,Pienza,53026
43.072043,11.680178,Strada Provinciale del Monte Amiata,Pienza,53026
43.072266,11.680208,Strada Provinciale del Monte Amiata,Pienza,53026
43.073546,11.678103,Strada Provinciale del Monte Amiata,Pienza,53026
43.074657,11.675356,Strada Provinciale del Monte Amiata,Pienza,53026
43.076198,11.674181,Strada Provinciale del Monte Amiata,Pienza,53026
43.076839,11.673218,Strada Provinciale del Monte Amiata,Pienza,53026
43.076973,11.67422,Strada Provinciale del Monte Amiata,Pienza,53026
43.076129,11.677121,Strada Provinciale del Monte Amiata,Pienza,53026
43.075932,11.678308,Strada Provinciale del Monte Amiata,Pienza,53026
43.076068,11.67972,Viale di Circonvallazione,Pienza,53026
43.07596,11.680681,Viale di Circonvallazione,Pienza,53026
43.076135,11.681551,Viale di Circonvallazione,Pienza,53026
43.076396,11.681829,Viale di Circonvallazione,Pienza,53026
43.076992,11.681676,Viale di Circonvallazione,Pienza,53026
43.077221,11.680532,Viale di Circonvallazione,Pienza,53026
43.076493,11.679942,Viale di Circonvallazione,Pienza,53026
43.076622,11.678932,Viale di Circonvallazione,Pienza,53026
