Latitude,Longitude,Street,City,PostalCode
43.318931,11.330955,Via di Città,Siena,53100
43.3188,11.330767,Via di Città,Siena,53100
43.319023,11.330409,Via di Città,Siena,53100
43.31944,11.330897,Via di Città,Siena,53100
43.32049,11.330545,Via di Città,Siena,53100
43.320973,11.330066,Via di Città,Siena,53100
43.321132,11.330452,Via di Città,Siena,53100
43.322462,11.328843,Via di Città,Siena,53100
43.323584,11.328069,Vicolo dello Sportello,Siena,53100
43.32469,11.3277,Vicolo dello Sportello,Siena,53100
43.325017,11.328043,Vicolo dello Sportello,Siena,53100
43.32618,11.327627,Vicolo dello Sportello,Siena,53100
43.326593,11.326652,Vicolo dello Sportello,Siena,53100
43.326836,11.326383,Vicolo dello Sportello,Siena,53100
43.327082,11.326358,Vicolo dello Sportello,Siena,53100
43.327718,11.325245,Piazza Guido Chigi Saracini,Siena,53100
43.329245,11.320892,Piazza Guido Chigi Saracini,Siena,53100
43.331915,11.315272,Viale Camillo Benso di Cavour,Siena,53100
43.332545,11.311697,Viale Camillo Benso di Cavour,Siena,53100
43.334366,11.309476,Via Fiorentina,Siena,53100
43.33706,11.30745,Via Fiorentina,Siena,53100
43.338321,11.306862,Via Fiorentina,Siena,53100
43.339015,11.305906,Via Fiorentina,Siena,53100
43.342813,11.305945,Via Fiorentina,Siena,53100
43.34334,11.305808,Via Fiorentina,Siena,53100
43.343523,11.305516,Via Cassia Nord,Siena,53035
43.344429,11.301081,Via Cassia Nord,Siena,53035
43.344583,11.298988,Via Cassia Nord,Monteriggioni,53035
43.344803,11.298476,Via Cassia Nord,Monteriggioni,53035
43.345493,11.294691,Via Cassia Nord,Monteriggioni,53035
43.345361,11.293305,Via Cassia Nord,Monteriggioni,53035
43.343947,11.288189,Strada Cassia Nord,Monteriggioni,53035
43.343894,11.287456,Strada Cassia Nord,Monteriggioni,53035
43.34417,11.285855,Strada Cassia Nord,Monteriggioni,53035
43.34414,11.284444,Strada Cassia Nord,Monteriggioni,53035
43.343639,11.282571,Strada Cassia Nord,Monteriggioni,53035
43.343677,11.281796,Strada Cassia Nord,Siena,53035
43.344062,11.281161,Strada Cassia Nord,Siena,53035
43.345508,11.279976,Strada Cassia Nord,Siena,53035
43.346233,11.279858,Strada Cassia Nord,Siena,53035
43.347016,11.279117,Strada Cassia Nord,Siena,53035
43.350491,11.273181,Via della Quercia,Monteriggioni,53035
43.351105,11.271346,Via della Quercia,Monteriggioni,53035
43.351438,11.271346,Via della Quercia,Monteriggioni,53035
43.35188,11.270803,Via della Quercia,Monteriggioni,53035
43.351864,11.270157,Via della Quercia,Monteriggioni,53035
43.352064,11.269717,Via della Quercia,Monteriggioni,53035
43.351919,11.268358,Via della Quercia,Monteriggioni,53035
43.352734,11.265303,Strada Cassia Nord,Siena,53035
43.35345,11.263745,Strada Cassia Nord,Siena,53035
43.354675,11.262773,Strada Cassia Nord,Siena,53035
43.356417,11.262346,Strada Cassia Nord,Siena,53035
43.357086,11.261976,Via Cassia Nord,Monteriggioni,53035
43.35921,11.25946,Via Cassia Nord,Monteriggioni,53035
43.360577,11.258765,Via Cassia Nord,Monteriggioni,53035
43.361603,11.257473,Via Cassia Nord,Monteriggioni,53035
43.362616,11.255437,Via Cassia Nord,Monteriggioni,53035
43.363984,11.255526,Via Cassia Nord,Monteriggioni,53035
43.365179,11.25445,Via Cassia Nord,Monteriggioni,53035
43.365372,11.251033,Strada dell'Uccellatoio,Monteriggioni,53035
43.36658,11.247,Strada dell'Uccellatoio,Monteriggioni,53035
43.366925,11.246556,Strada dell'Uccellatoio,Monteriggioni,53035
43.368142,11.245773,Strada dell'Uccellatoio,Monteriggioni,53035
43.369242,11.244069,Strada dell'Uccellatoio,Monteriggioni,53035
43.36979,11.24266,Strada dell'Uccellatoio,Monteriggioni,53035
43.37066,11.241233,Strada dell'Uccellatoio,Monteriggioni,53035
43.371071,11.239647,Strada di Bracciano,Monteriggioni,53035
43.372405,11.236701,Strada di Bracciano,Monteriggioni,53035
43.373801,11.235268,Strada di Bracciano,Monteriggioni,53035
43.374134,11.235048,Strada di Bracciano,Monteriggioni,53035
43.374734,11.235166,Strada di Bracciano,Monteriggioni,53035
43.375232,11.234693,Strada di Bracciano,Monteriggioni,53035
43.375609,11.234588,Strada di Bracciano,Monteriggioni,53035
43.376418,11.235252,Strada di Bracciano,Monteriggioni,53035
43.376664,11.236424,Strada di Bracciano,Monteriggioni,53035
43.377362,11.235952,Strada di Bracciano,Monteriggioni,53035
43.37756,11.236026,Strada di Bracciano,Monteriggioni,53035
43.378657,11.238389,Strada di Bracciano,Monteriggioni,53035
43.379326,11.238978,Strada di Bracciano,Monteriggioni,53035
43.38076,11.23972,Strada di Bracciano,Monteriggioni,53035
43.381913,11.240649,Strada di Bracciano,Monteriggioni,53035
43.382271,11.241898,Strada di Bracciano,Monteriggioni,53035
43.383067,11.239717,Via Cassia Nord,Monteriggioni,53035
43.385813,11.237274,Via Cassia Nord,Monteriggioni,53035
43.386246,11.236566,Via Cassia Nord,Monteriggioni,53035
43.385005,11.232128,Via Cassia Nord,Monteriggioni,Keine PLZ
43.385167,11.229191,Via Cassia Nord,Monteriggioni,Keine PLZ
43.385689,11.225969,Via Cassia Nord,Monteriggioni,Keine PLZ
43.387716,11.225086,Via Cassia Nord,Monteriggioni,Keine PLZ
43.388589,11.224244,Via Cassia Nord,Monteriggioni,Keine PLZ
43.389075,11.224967,Via Cassia Nord,Monteriggioni,Keine PLZ
43.389266,11.224888,Via Cassia Nord,Monteriggioni,Keine PLZ
43.389449,11.224368,Via Cassia Nord,Monteriggioni,Keine PLZ
43.389772,11.224481,Via Cassia Nord,Monteriggioni,Keine PLZ
43.389899,11.223987,Via Cassia Nord,Monteriggioni,Keine PLZ
43.389773,11.223728,Via Cassia Nord,Monteriggioni,Keine PLZ
43.389897,11.223368,Piazza Dante Alighieri,Monteriggioni,Keine PLZ
43.39002,11.223412,Piazza Dante Alighieri,Monteriggioni,Keine PLZ
43.389964,11.223211,Piazza Dante Alighieri,Monteriggioni,Keine PLZ
43.390242,11.222471,Piazza Dante Alighieri,Monteriggioni,Keine PLZ
43.39052,11.222238,Piazza Dante Alighieri,Monteriggioni,Keine PLZ
43.39039,11.220568,Piazza Dante Alighieri,Monteriggioni,Keine PLZ
43.391169,11.220728,Piazza Dante Alighieri,Monteriggioni,Keine PLZ
43.391071,11.219991,Piazza Dante Alighieri,Monteriggioni,Keine PLZ
43.39177,11.219404,Piazza Dante Alighieri,Monteriggioni,Keine PLZ
43.392381,11.219329,Piazza Dante Alighieri,Monteriggioni,Keine PLZ
43.392631,11.219129,Piazza Dante Alighieri,Monteriggioni,Keine PLZ
43.39266,11.218467,Strada Colligiana,Monteriggioni,Keine PLZ
43.392236,11.217802,Strada Colligiana,Monteriggioni,Keine PLZ
43.39078,11.21618,Strada Colligiana,Monteriggioni,Keine PLZ
43.390108,11.215744,Strada Colligiana,Monteriggioni,Keine PLZ
43.389209,11.21446,Via Cassia Nord,Monteriggioni,Keine PLZ
43.388824,11.212998,Via Cassia Nord,Monteriggioni,Keine PLZ
43.387508,11.211806,Via Cassia Nord,Monteriggioni,Keine PLZ
43.387097,11.211596,Via Cassia Nord,Monteriggioni,Keine PLZ
43.386384,11.211601,Via Cassia Nord,Monteriggioni,Keine PLZ
43.385895,11.211894,Via Cassia Nord,Monteriggioni,Keine PLZ
43.385065,11.212084,Via Cassia Nord,Monteriggioni,Keine PLZ
43.383761,11.212949,Strada di Valmaggiore,Monteriggioni,Keine PLZ
43.383422,11.212821,Strada di Valmaggiore,Monteriggioni,Keine PLZ
43.384233,11.205839,Strada di Valmaggiore,Monteriggioni,Keine PLZ
43.387747,11.199197,Strada di Valmaggiore,Monteriggioni,Keine PLZ
43.388085,11.19865,Strada di Valmaggiore,Monteriggioni,Keine PLZ
43.38847,11.198538,Strada di Valmaggiore,Monteriggioni,Keine PLZ
43.388698,11.198248,Strada di Valmaggiore,Monteriggioni,Keine PLZ
43.389197,11.19677,Strada di Valmaggiore,Monteriggioni,Keine PLZ
43.388269,11.195084,Strada di Valmaggiore,Monteriggioni,Keine PLZ
43.387614,11.194284,Strada di Valmaggiore,Monteriggioni,Keine PLZ
43.387144,11.194095,Strada di Valmaggiore,Monteriggioni,Keine PLZ
43.385996,11.192448,Strada del Giubileo,Monteriggioni,53035
43.385676,11.191491,Strada del Giubileo,Monteriggioni,53035
43.385855,11.190409,Strada del Giubileo,Monteriggioni,53035
43.385322,11.1868,Strada del Giubileo,Monteriggioni,53035
43.383379,11.183104,Strada di Strove,Strove,Keine PLZ
43.3832,11.182174,Strada di Strove,Strove,Keine PLZ
43.38234,11.181755,Strada di Strove,Strove,Keine PLZ
43.381766,11.181801,Strada di Strove,Strove,Keine PLZ
43.380642,11.181592,Strada di Strove,Strove,Keine PLZ
43.380266,11.181101,Strada di Strove,Strove,Keine PLZ
43.380012,11.181118,Strada di Strove,Strove,Keine PLZ
43.380093,11.180772,Strada di Strove,Strove,Keine PLZ
43.379851,11.179711,Strada di Strove,Strove,Keine PLZ
43.379018,11.178274,Unbekannte Straße,Strove,Keine PLZ
43.379261,11.177245,Unbekannte Straße,Strove,Keine PLZ
43.378831,11.175936,Unbekannte Straße,Strove,Keine PLZ
43.378997,11.174274,Unbekannte Straße,Strove,Keine PLZ
43.378464,11.172837,Unbekannte Straße,Strove,Keine PLZ
43.378447,11.171879,Via Diciassette Marzo,Strove,Keine PLZ
43.379239,11.17189,Via Diciassette Marzo,Strove,Keine PLZ
43.379335,11.172158,Via Diciassette Marzo,Strove,Keine PLZ
43.379749,11.17228,Via Diciassette Marzo,Strove,Keine PLZ
43.380176,11.172171,Via Diciassette Marzo,Strove,Keine PLZ
43.380491,11.171315,Via Diciassette Marzo,Strove,Keine PLZ
43.381659,11.170849,Via Diciassette Marzo,Strove,Keine PLZ
43.382653,11.170144,Via Diciassette Marzo,Strove,Keine PLZ
43.38354,11.168757,Strada di Acquaviva,Strove,Keine PLZ
43.384382,11.167803,Strada di Acquaviva,Strove,Keine PLZ
43.385086,11.167487,Strada di Acquaviva,Strove,Keine PLZ
43.385813,11.167437,Strada di Acquaviva,Strove,Keine PLZ
43.386461,11.166477,Strada di Acquaviva,Strove,Keine PLZ
43.391522,11.16416,Unbekannte Straße,Strove,53034
43.391253,11.162623,Unbekannte Straße,Strove,53034
43.391736,11.162271,Unbekannte Straße,Strove,53034
43.39198,11.162313,Unbekannte Straße,Strove,53034
43.392555,11.16322,Unbekannte Straße,Strove,53034
43.393084,11.163633,Unbekannte Straße,Strove,53034
43.393344,11.163534,Unbekannte Straße,Strove,53034
43.393939,11.162294,Unbekannte Straße,Strove,53034
43.39389,11.161477,Unbekannte Straße,Strove,53034
43.394201,11.161109,Unbekannte Straße,Strove,53034
43.395054,11.158744,Unbekannte Straße,Colle di Val d'Elsa,53034
43.396396,11.156263,Unbekannte Straße,Colle di Val d'Elsa,53034
43.396816,11.152271,Strada di Ponelle,Colle di Val d'Elsa,53034
43.398125,11.148471,Strada di Ponelle,Colle di Val d'Elsa,53034
43.399426,11.146924,Strada di Ponelle,Colle di Val d'Elsa,53034
43.400149,11.143119,Strada di Ponelle,Colle di Val d'Elsa,53034
43.4008,11.141383,Strada di Ponelle,Colle di Val d'Elsa,53034
43.401216,11.139415,Strada di Ponelle,Colle di Val d'Elsa,53034
43.400906,11.138383,Strada di Ponelle,Colle di Val d'Elsa,53034
43.401424,11.138533,Strada di Ponelle,Colle di Val d'Elsa,53034
43.4018,11.139004,Strada di Ponelle,Colle di Val d'Elsa,53034
43.402074,11.13888,Strada di Ponelle,Colle di Val d'Elsa,53034
43.403379,11.134578,Strada di Ponelle,Colle di Val d'Elsa,53034
43.404089,11.134227,Viale dei Mille,Colle di Val d'Elsa,53034
43.403897,11.133699,Viale dei Mille,Colle di Val d'Elsa,53034
43.404854,11.13352,Viale dei Mille,Colle di Val d'Elsa,53034
43.404047,11.133661,Viale dei Mille,Colle di Val d'Elsa,53034
43.404149,11.133086,Viale dei Mille,Colle di Val d'Elsa,53034
43.403992,11.132002,Viale dei Mille,Colle di Val d'Elsa,53034
43.403456,11.131984,Viale dei Mille,Colle di Val d'Elsa,53034
43.403487,11.130769,Viale dei Mille,Colle di Val d'Elsa,53034
43.402725,11.129912,Viale dei Mille,Colle di Val d'Elsa,53034
43.402677,11.129566,Viale dei Mille,Colle di Val d'Elsa,53034
43.402974,11.128288,Viale dei Mille,Colle di Val d'Elsa,53034
43.403827,11.127032,Via di Querciolaia,Colle di Val d'Elsa,53034
43.404438,11.126893,Via di Querciolaia,Colle di Val d'Elsa,53034
43.404998,11.125214,Via di Querciolaia,Colle di Val d'Elsa,53034
43.405402,11.124803,Via di Querciolaia,Colle di Val d'Elsa,53034
43.406344,11.122258,Via di Querciolaia,Colle di Val d'Elsa,53034
43.407201,11.118991,Strada di Boscona e dell'Agresto,Colle di Val d'Elsa,53034
43.407935,11.117356,Strada di Boscona e dell'Agresto,Colle di Val d'Elsa,53034
43.408471,11.116628,Strada di Boscona e dell'Agresto,Colle di Val d'Elsa,53034
43.40836,11.115788,Strada di Boscona e dell'Agresto,Colle di Val d'Elsa,53034
43.407025,11.112546,Strada di Boscona e dell'Agresto,Colle di Val d'Elsa,53034
43.406554,11.110218,Strada di Boscona e dell'Agresto,Colle di Val d'Elsa,53034
43.406831,11.106332,Strada di Boscona e dell'Agresto,Colle di Val d'Elsa,53034
43.408092,11.104479,Strada di Boscona e dell'Agresto,Colle di Val d'Elsa,53034
43.408632,11.102318,Strada di Boscona e dell'Agresto,Colle di Val d'Elsa,53034
43.408942,11.099133,Strada vicinale delle Casacce,Colle di Val d'Elsa,53034
43.408522,11.098263,Strada vicinale delle Casacce,Colle di Val d'Elsa,53034
43.408213,11.09572,Strada vicinale delle Casacce,Colle di Val d'Elsa,53034
43.407923,11.094855,Strada vicinale delle Casacce,Colle di Val d'Elsa,53034
43.407046,11.093222,Strada vicinale delle Casacce,Colle di Val d'Elsa,53034
43.406967,11.091891,Strada vicinale delle Casacce,Colle di Val d'Elsa,53034
43.406694,11.091602,Strada vicinale delle Casacce,Colle di Val d'Elsa,53034
43.406613,11.088462,Strada vicinale delle Casacce,Colle di Val d'Elsa,53034
43.406261,11.087947,Strada vicinale delle Casacce,Colle di Val d'Elsa,53034
43.405476,11.085158,Strada comunale del Bottino,Colle di Val d'Elsa,53034
43.408783,11.082486,Strada comunale del Bottino,Colle di Val d'Elsa,53034
43.40973,11.081393,Unbekannte Straße,Colle di Val d'Elsa,53034
43.410788,11.08095,Unbekannte Straße,Colle di Val d'Elsa,53034
43.412371,11.080733,Unbekannte Straße,Colle di Val d'Elsa,53034
43.412567,11.079988,Unbekannte Straße,Colle di Val d'Elsa,53034
43.413905,11.079509,Unbekannte Straße,Colle di Val d'Elsa,53034
43.413756,11.077296,Via Simone Martini,Colle di Val d'Elsa,53034
43.414062,11.076163,Via Simone Martini,Colle di Val d'Elsa,53034
43.41383,11.075143,Via Simone Martini,Colle di Val d'Elsa,53034
43.414472,11.074213,Via Simone Martini,Colle di Val d'Elsa,53034
43.415058,11.07387,Via Simone Martini,Colle di Val d'Elsa,53034
43.414829,11.073767,Via Simone Martini,Colle di Val d'Elsa,53034
43.414028,11.074224,Via Simone Martini,Colle di Val d'Elsa,53034
43.413342,11.07497,Via Simone Martini,Colle di Val d'Elsa,53034
43.412883,11.074236,Via Simone Martini,Colle di Val d'Elsa,53034
43.411966,11.074394,Via Simone Martini,Colle di Val d'Elsa,53034
43.412003,11.074161,Via Simone Martini,Colle di Val d'Elsa,53034
43.413055,11.073108,Via Simone Martini,Colle di Val d'Elsa,53034
43.413177,11.071008,Strada Statale di Val Cecina,Colle di Val d'Elsa,Keine PLZ
43.413978,11.070589,Strada Statale di Val Cecina,Colle di Val d'Elsa,Keine PLZ
43.41555,11.070108,Strada Statale di Val Cecina,Colle di Val d'Elsa,Keine PLZ
43.416315,11.069951,Strada Statale di Val Cecina,Colle di Val d'Elsa,Keine PLZ
43.416922,11.0701,Strada Statale di Val Cecina,Colle di Val d'Elsa,Keine PLZ
43.417851,11.070004,Strada Statale di Val Cecina,Colle di Val d'Elsa,53034
43.419052,11.070658,Strada Statale di Val Cecina,Colle di Val d'Elsa,53034
43.419381,11.071105,Strada Statale di Val Cecina,Colle di Val d'Elsa,53034
43.421433,11.072645,Strada Statale di Val Cecina,Colle di Val d'Elsa,53034
43.422438,11.071547,Strada di Aiano,Colle di Val d'Elsa,53034
43.423353,11.070827,Strada di Aiano,Colle di Val d'Elsa,53034
43.425739,11.070541,Strada di Aiano,Colle di Val d'Elsa,53034
43.427666,11.069892,Strada di Aiano,Colle di Val d'Elsa,53034
43.427839,11.069177,Strada di Aiano,Colle di Val d'Elsa,53034
43.42848,11.0686,Strada di Aiano,Colle di Val d'Elsa,53034
43.428635,11.067835,Strada di Aiano,Colle di Val d'Elsa,53034
43.429182,11.066738,Strada di Aiano,Colle di Val d'Elsa,53034
43.429617,11.066658,Strada di Aiano,Colle di Val d'Elsa,53034
43.430866,11.068412,Strada di Aiano,Colle di Val d'Elsa,53034
43.431894,11.067562,Strada di Aiano,Colle di Val d'Elsa,53034
43.432182,11.067694,Strada di Aiano,Colle di Val d'Elsa,53034
43.432378,11.068426,Strada di Aiano,Colle di Val d'Elsa,53034
43.433557,11.069635,Strada di Aiano,Colle di Val d'Elsa,53034
43.43393,11.07042,Strada di Aiano,Colle di Val d'Elsa,53034
43.434859,11.07351,Unbekannte Straße,San Gimignano,53037
43.435755,11.077612,Unbekannte Straße,San Gimignano,53037
43.436822,11.080313,Unbekannte Straße,San Gimignano,53037
43.439455,11.082945,Unbekannte Straße,San Gimignano,53037
43.441105,11.083655,Unbekannte Straße,San Gimignano,53037
43.441648,11.084481,Unbekannte Straße,San Gimignano,53037
43.442957,11.085758,Unbekannte Straße,San Gimignano,53037
43.443444,11.085983,Unbekannte Straße,San Gimignano,53037
43.444945,11.084889,Unbekannte Straße,San Gimignano,53037
43.446481,11.084813,Unbekannte Straße,San Gimignano,53037
43.447872,11.084387,Unbekannte Straße,San Gimignano,53037
43.448976,11.083043,Unbekannte Straße,San Gimignano,53037
43.451291,11.082998,Unbekannte Straße,San Gimignano,53038
43.45298,11.082324,Unbekannte Straße,San Gimignano,53038
43.452934,11.083226,Unbekannte Straße,San Gimignano,53038
43.453297,11.084422,Unbekannte Straße,San Gimignano,53038
43.455568,11.087542,Strada Provinciale di San Gimignano,San Gimignano,53038
43.458636,11.092801,Strada Provinciale di San Gimignano,San Gimignano,53038
43.458806,11.092738,Strada Provinciale di San Gimignano,San Gimignano,53038
43.458746,11.090615,Strada Provinciale di San Gimignano,San Gimignano,53038
43.459384,11.088127,Strada Provinciale di San Gimignano,San Gimignano,53038
43.45946,11.087236,Strada Provinciale di San Gimignano,San Gimignano,53038
43.459691,11.086711,Strada Provinciale di San Gimignano,San Gimignano,53038
43.460321,11.086843,Strada Provinciale di San Gimignano,San Gimignano,53038
43.460445,11.086647,Strada Provinciale di San Gimignano,San Gimignano,53038
43.460314,11.08609,Strada Provinciale di San Gimignano,San Gimignano,53038
43.460047,11.085811,Strada Provinciale di San Gimignano,San Gimignano,53038
43.459436,11.085708,Strada Provinciale di San Gimignano,San Gimignano,53038
43.459075,11.085939,Strada Provinciale di San Gimignano,San Gimignano,53038
43.459326,11.085415,Strada Provinciale di San Gimignano,San Gimignano,53038
43.45943,11.083083,Strada Provinciale di San Gimignano,San Gimignano,53038
43.460307,11.081057,Strada Provinciale di San Gimignano,San Gimignano,53038
43.459842,11.080148,Strada Provinciale di San Gimignano,San Gimignano,53038
43.459129,11.077058,Strada Provinciale di San Gimignano,San Gimignano,53038
43.459201,11.076504,Strada Provinciale di San Gimignano,San Gimignano,53038
43.460032,11.075438,Strada Provinciale di San Gimignano,San Gimignano,53038
43.461532,11.074997,Strada Provinciale di San Gimignano,San Gimignano,53038
43.461865,11.074622,Strada Provinciale di San Gimignano,San Gimignano,53038
43.462634,11.073047,Strada Provinciale di San Gimignano,San Gimignano,53038
43.463188,11.070267,Strada Provinciale di San Gimignano,San Gimignano,53038
43.463803,11.068953,Via Casale,San Gimignano,53038
43.464133,11.068537,Via Casale,San Gimignano,53038
43.464771,11.068425,Via Casale,San Gimignano,53038
43.465732,11.067657,Via Casale,San Gimignano,53038
43.466461,11.066168,Via Casale,San Gimignano,53038
43.466844,11.064442,Via Casale,San Gimignano,53038
43.467905,11.064519,Via Casale,San Gimignano,53038
43.469542,11.061874,Via Casale,San Gimignano,53038
43.470483,11.060721,Via Casale,San Gimignano,53038
43.470901,11.059841,Via Casale,San Gimignano,53038
43.473404,11.056809,Via Casale,San Gimignano,53038
43.474896,11.05593,Via Casale,San Gimignano,53038
43.476106,11.052999,Via Casale,San Gimignano,53038
43.478413,11.049823,Via Casale,San Gimignano,53038
43.478704,11.049214,Via Casale,San Gimignano,53038
43.478539,11.047992,Via Casale,San Gimignano,53038
43.478865,11.045288,Via Casale,San Gimignano,53038
43.478195,11.04483,Via Casale,San Gimignano,53038
43.477001,11.043188,SP127,San Gimignano,53038
43.476391,11.042673,SP127,San Gimignano,53038
43.474051,11.041455,SP127,San Gimignano,53038
43.472676,11.040542,SP127,San Gimignano,53038
43.471705,11.040165,SP127,San Gimignano,53038
43.471398,11.039185,SP127,San Gimignano,53038
