Latitude,Longitude,Street,City,PostalCode
52.7038,7.272835,Zur Waldbühne,Meppen,49716
52.704815,7.273556,Zur Waldbühne,Meppen,49716
52.704884,7.273862,Zur Waldbühne,Meppen,49716
52.704132,7.275548,Zur Waldbühne,Meppen,49716
52.702568,7.281067,Berghamsweg,Meppen,49716
52.700165,7.282916,Berghamsweg,Meppen,49716
52.699417,7.28374,Berghamsweg,Meppen,49716
52.69899,7.28387,Berghamsweg,Meppen,49716
52.698635,7.28351,Berghamsweg,Meppen,49716
52.696903,7.284684,Esterfelder Stiege,Meppen,49716
52.69524,7.284774,Esterfelder Stiege,Meppen,49716
52.693886,7.285921,Esterfelder Stiege,Meppen,49716
52.694092,7.288197,Esterfelder Stiege,Meppen,49716
52.693733,7.289375,Esterfelder Stiege,Meppen,49716
52.69339,7.291544,Emsstraße,Meppen,49716
52.693493,7.291862,Emsstraße,Meppen,49716
52.695293,7.294161,Emsstraße,Meppen,49716
52.696976,7.295171,Emsstraße,Meppen,49716
52.697727,7.296176,Herzog-Arenberg-Straße,Meppen,49716
52.697926,7.297155,Herzog-Arenberg-Straße,Meppen,49716
52.697853,7.298612,Herzog-Arenberg-Straße,Meppen,49716
52.698002,7.299331,Herzog-Arenberg-Straße,Meppen,49716
52.702236,7.306883,Haselünner Straße,Meppen,49716
52.703896,7.313835,Haselünner Straße,Meppen,49716
52.705067,7.317091,Haselünner Straße,Meppen,49716
52.705517,7.317659,Haselünner Straße,Meppen,49716
52.705868,7.317678,Haselünner Straße,Meppen,49716
52.705753,7.319118,Haselünner Straße,Meppen,49716
52.706181,7.321938,Am Schlagbaum,Meppen,49716
52.706505,7.327842,Am Schlagbaum,Meppen,49716
52.70739,7.354578,Am Geelen,Meppen,49716
52.707298,7.356352,Am Geelen,Meppen,49716
52.707878,7.357047,Am Geelen,Meppen,49716
52.707657,7.356755,Am Geelen,Meppen,49716
52.708763,7.359098,Am Geelen,Meppen,49716
52.709942,7.360772,Bokeloher Feld,Meppen,49716
52.717415,7.370429,Bokeloher Feld,Meppen,49716
52.728088,7.380587,Apeldorner Hauptstraße,Meppen,49716
52.729111,7.382363,Apeldorner Hauptstraße,Meppen,49716
52.734077,7.392694,Apeldorner Hauptstraße,Meppen,49716
52.734924,7.394026,Apeldorner Hauptstraße,Meppen,49716
52.735512,7.394557,Apeldorner Hauptstraße,Meppen,49716
52.737518,7.395679,Apeldorner Hauptstraße,Meppen,49716
52.738365,7.395787,Apeldorner Hauptstraße,Meppen,49716
52.739929,7.395419,Apeldorner Hauptstraße,Meppen,49716
52.740418,7.395563,Apeldorner Hauptstraße,Meppen,49716
52.740845,7.395914,Apeldorner Hauptstraße,Meppen,49716
52.743851,7.39969,Apeldorner Hauptstraße,Meppen,49716
52.744289,7.399957,Apeldorner Hauptstraße,Meppen,49716
52.747124,7.400749,Apeldorner Hauptstraße,Meppen,49716
52.748211,7.401511,Apeldorner Hauptstraße,Meppen,49716
52.748642,7.402102,Apeldorner Hauptstraße,Meppen,49716
52.749725,7.407289,Apeldorner Hauptstraße,Meppen,49716
52.755325,7.424403,Berßener Straße,Meppen,49716
52.75679,7.427208,Berßener Straße,Meppen,49716
52.760239,7.431728,Apeldorner Straße,Wolkenburg,49777
52.761425,7.434164,Apeldorner Straße,Wolkenburg,49777
52.761658,7.43593,Apeldorner Straße,Wolkenburg,49777
52.761601,7.44621,Apeldorner Straße,Wolkenburg,49777
52.76276,7.453774,Apeldorner Straße,Wolkenburg,49777
52.763618,7.456122,Apeldorner Straße,Wolkenburg,49777
52.764782,7.458075,Apeldorner Straße,Wolkenburg,49777
52.766251,7.458601,Haselünner Straße,Wolkenburg,49777
52.767097,7.458403,Haselünner Straße,Wolkenburg,49777
52.768215,7.458816,Haselünner Straße,Wolkenburg,49777
52.768253,7.462023,Haselünner Straße,Wolkenburg,49777
52.768726,7.464507,Haselünner Straße,Wolkenburg,49777
52.769402,7.466756,Kirchstraße,Wolkenburg,49777
52.770042,7.470216,Kirchstraße,Wolkenburg,49777
52.771252,7.47525,Klein Berßener Straße,Groß Berßen,49777
52.774818,7.488961,Nordallee,Groß Berßen,49777
52.775242,7.490079,Nordallee,Groß Berßen,49777
52.777386,7.494083,Nordallee,Groß Berßen,49777
52.777554,7.494639,Nordallee,Groß Berßen,49777
52.777969,7.495113,Hüvener Straße,Groß Berßen,49777
52.780499,7.50004,Hüvener Straße,Groß Berßen,49777
52.781258,7.502026,Hüvener Straße,Groß Berßen,49777
52.781425,7.503995,Hüvener Straße,Groß Berßen,49777
52.78083,7.515253,Hüvener Straße,Groß Berßen,49777
52.78091,7.523191,Hüvener Straße,Groß Berßen,49777
52.781124,7.525827,Hüvener Straße,Groß Berßen,49777
52.781643,7.52952,Hüvener Straße,Groß Berßen,49777
52.783596,7.53782,Berßener Straße,Hüven,49751
52.784431,7.543118,Berßener Straße,Hüven,49751
52.78516,7.546299,Berßener Straße,Hüven,49751
52.786301,7.55444,Lahner Straße,Hüven,49751
52.78643,7.557086,Lahner Straße,Hüven,49751
52.786819,7.560261,Lahner Straße,Hüven,49751
52.787106,7.561567,Lahner Straße,Hüven,49751
52.799278,7.584134,Lahner Straße,Hüven,49751
52.806881,7.594535,Hüvener Straße,Lahn,49757
52.810638,7.599965,Hüvener Straße,Lahn,49757
52.814728,7.610393,Hüvener Straße,Lahn,49757
52.816139,7.615868,Hüvener Straße,Lahn,49757
52.817135,7.617026,Dorfstraße,Lahn,49757
52.818592,7.616828,Dorfstraße,Lahn,49757
52.818932,7.623696,Dorfstraße,Lahn,49757
52.819332,7.626817,Wehmer Straße,Lahn,49757
52.81987,7.628101,Wehmer Straße,Lahn,49757
52.820988,7.629589,Wehmer Straße,Lahn,49757
52.82201,7.631472,Wehmer Straße,Lahn,49757
52.824047,7.635952,Wehmer Straße,Lahn,49757
52.825886,7.642044,Wehmer Straße,Lahn,49757
52.82777,7.64677,Nordholz,Werlte,49757
52.830383,7.656245,Nordholz,Werlte,49757
52.830433,7.657219,Nordholz,Werlte,49757
52.829159,7.663484,Nordholz,Werlte,49757
52.82925,7.665557,Nordholz,Werlte,49757
52.829369,7.665635,Nordholz,Werlte,49757
52.830586,7.665247,Nordholz,Werlte,49757
52.831657,7.66543,Nordholz,Werlte,49757
52.833775,7.667054,Wehmer Straße,Werlte,49757
52.834549,7.668288,Wehmer Straße,Werlte,49757
52.838226,7.669875,Wehmer Straße,Werlte,49757
52.840813,7.671351,Wehmer Straße,Werlte,49757
52.841133,7.67172,Wehmer Straße,Werlte,49757
52.841686,7.671814,Wehmer Straße,Werlte,49757
52.84412,7.673258,Wehmer Straße,Werlte,49757
52.847393,7.674276,Wehmer Straße,Werlte,49757
52.847824,7.67468,Wehmer Straße,Werlte,49757
52.848858,7.676352,Poststraße,Werlte,49757
52.849678,7.677222,Poststraße,Werlte,49757
52.849945,7.677404,Poststraße,Werlte,49757
52.851013,7.677454,Poststraße,Werlte,49757
52.851131,7.678496,Poststraße,Werlte,49757
52.851673,7.678823,Poststraße,Werlte,49757
52.852325,7.679584,Poststraße,Werlte,49757
52.853767,7.680059,Kirchstraße,Werlte,49757
52.854416,7.680506,Kirchstraße,Werlte,49757
52.856598,7.685716,Kirchstraße,Werlte,49757
52.860592,7.697389,Bockholter Straße,Werlte,49757
52.868698,7.714137,Bockholter Straße,Werlte,49757
52.86932,7.7176,Bockholter Straße,Werlte,49757
52.869568,7.718184,Bockholter Straße,Werlte,49757
52.870396,7.718948,Bockholter Straße,Werlte,49757
52.870724,7.71962,Bockholter Straße,Werlte,49757
52.872429,7.725935,Ackerfeld,Werlte,49757
52.883503,7.759842,Werlter Straße,Vrees,49757
52.883644,7.760945,Werlter Straße,Vrees,49757
52.883232,7.764358,Werlter Straße,Vrees,49757
52.883549,7.769793,Werlter Straße,Vrees,49757
52.883881,7.770387,Werlter Straße,Vrees,49757
52.887329,7.774247,Peheimer Straße,Vrees,49757
52.887566,7.774678,Peheimer Straße,Vrees,49757
52.888065,7.777756,Peheimer Straße,Vrees,49757
52.888706,7.779733,Peheimer Straße,Vrees,49757
52.898769,7.808419,Bischofsbrücker Weg,Vrees,49757
52.897343,7.820006,Zum Hünengrab,Molbergen,49696
52.900814,7.822271,Zum Hünengrab,Molbergen,49696
52.904751,7.82657,Grenzstraße,Molbergen,49696
52.904842,7.826988,Grenzstraße,Molbergen,49696
52.904484,7.829135,Grenzstraße,Molbergen,49696
52.904575,7.829516,Grenzstraße,Molbergen,49696
52.912647,7.833273,Olden Streek,Friesoythe,26169
52.911873,7.833039,Olden Streek,Friesoythe,26169
52.912087,7.838557,Olden Streek,Friesoythe,26169
52.912529,7.841858,Töpkes Höhe,Friesoythe,26169
52.911922,7.847434,Töpkes Höhe,Friesoythe,26169
52.911987,7.848339,Töpkes Höhe,Friesoythe,26169
52.920902,7.873549,Dorfstraße,Friesoythe,26169
52.924835,7.887356,Dorfstraße,Friesoythe,26169
52.926262,7.891501,Dorfstraße,Friesoythe,26169
52.926758,7.892001,Dorfstraße,Friesoythe,26169
52.935188,7.895559,Dorfstraße,Friesoythe,26169
52.93581,7.895541,Dorfstraße,Friesoythe,26169
52.937813,7.894762,Dorfstraße,Friesoythe,26169
52.938702,7.894784,Dorfstraße,Friesoythe,26169
52.942066,7.895405,Zum Herrensand,Friesoythe,26169
52.949078,7.897836,Am Augustendorfer Weg,Friesoythe,26169
52.95702,7.904593,Am Augustendorfer Weg,Friesoythe,26169
52.958752,7.906138,Am Augustendorfer Weg,Friesoythe,26169
52.96032,7.907926,Am Augustendorfer Weg,Friesoythe,26169
52.960693,7.908659,Am Augustendorfer Weg,Friesoythe,26169
52.96098,7.909751,Kurfürstendamm,Friesoythe,26169
52.961037,7.911273,Kurfürstendamm,Friesoythe,26169
52.96059,7.914204,Kurfürstendamm,Friesoythe,26169
52.96067,7.91699,Kurfürstendamm,Friesoythe,26169
52.961315,7.924467,Thüler Straße,Friesoythe,26169
52.961632,7.925148,Thüler Straße,Friesoythe,26169
52.962784,7.932065,Glaßdorfer Straße,Friesoythe,26169
52.96323,7.933336,Glaßdorfer Straße,Friesoythe,26169
52.963886,7.934337,Glaßdorfer Straße,Friesoythe,26169
52.965492,7.935688,Glaßdorfer Straße,Friesoythe,26169
52.974587,7.942047,Glaßdorfer Straße,Friesoythe,26169
52.985176,7.949076,Thüler Straße,Bösel,26219
52.988567,7.951499,Thüler Straße,Bösel,26219
52.989407,7.951808,Thüler Straße,Bösel,26219
52.996826,7.953068,Thüler Straße,Bösel,26219
52.997604,7.953444,Thüler Straße,Bösel,26219
52.998219,7.954095,Thüler Straße,Bösel,26219
52.99889,7.955549,Thüler Straße,Bösel,26219
52.999542,7.958884,Thüler Straße,Bösel,26219
53.000809,7.961063,Jägerstraße,Bösel,26219
53.00264,7.963676,Jägerstraße,Bösel,26219
53.004791,7.96435,Jägerstraße,Bösel,26219
53.004063,7.974577,Garreler Straße,Bösel,26219
53.00853,7.976877,Korsorsstraße,Bösel,26219
53.009419,7.977768,Korsorsstraße,Bösel,26219
53.009941,7.978892,Korsorsstraße,Bösel,26219
53.011173,7.984916,Korsorsstraße,Bösel,26219
53.011879,7.987279,Korsorsstraße,Bösel,26219
53.012409,7.988665,Korsorsstraße,Bösel,26219
53.014065,7.991725,Korsorsstraße,Bösel,26219
53.033569,8.022745,Korsorsstraße,Bösel,26219
53.053093,8.054178,Korsorsstraße,Bösel,26219
53.0616,8.067487,Korsorsstraße,Wardenburg,26203
53.074963,8.10073,Korsorsstraße,Wardenburg,26203
53.075489,8.101513,Korsorsstraße,Wardenburg,26203
53.077927,8.103823,Korsorsstraße,Wardenburg,26203
53.078465,8.104553,Korsorsstraße,Wardenburg,26203
53.082466,8.113143,Korsorsstraße,Wardenburg,26203
53.085808,8.118616,Korsorsstraße,Wardenburg,26203
53.088554,8.126631,Korsorsstraße,Wardenburg,26203
53.091038,8.131168,Korsorsstraße,Wardenburg,26203
53.091923,8.131898,Korsorsstraße,Wardenburg,26203
53.09296,8.131937,Korsorsstraße,Wardenburg,26203
53.106438,8.1307,Korsorsstraße,Wardenburg,26203
53.107311,8.129681,Korsorsstraße,Wardenburg,26203
53.107918,8.1296,Korsorsstraße,Wardenburg,26203
53.108158,8.129839,Korsorsstraße,Wardenburg,26203
53.108131,8.135345,Korsorsstraße,Wardenburg,26203
53.109356,8.17279,Nordmoslesfehner Straße,Oldenburg,26131
53.109779,8.175891,Nordmoslesfehner Straße,Oldenburg,26131
53.11198,8.185653,Nordmoslesfehner Straße,Oldenburg,26131
53.112835,8.18836,Nordmoslesfehner Straße,Oldenburg,26131
53.113274,8.189239,Nordmoslesfehner Straße,Oldenburg,26131
53.113815,8.190021,Nordmoslesfehner Straße,Oldenburg,26131
53.115059,8.191022,Nordmoslesfehner Straße,Oldenburg,26131
53.114788,8.192981,Hundsmühler Straße,Oldenburg,26131
53.115471,8.195236,Hundsmühler Straße,Oldenburg,26131
53.116371,8.197455,Hundsmühler Straße,Oldenburg,26131
53.120735,8.204756,Westfalendamm,Oldenburg,26131
53.121719,8.20619,Westfalendamm,Oldenburg,26131
53.122864,8.207103,Westfalendamm,Oldenburg,26131
53.125038,8.209624,Westfalendamm,Oldenburg,26131
53.125614,8.209828,Westfalendamm,Oldenburg,26131
53.126671,8.209242,Westfalendamm,Oldenburg,26131
53.126938,8.209405,Westfalendamm,Oldenburg,26131
53.127125,8.210408,Westfalendamm,Oldenburg,26131
53.127022,8.211758,Westfalendamm,Oldenburg,26131
53.12532,8.216496,Westfalendamm,Oldenburg,26131
53.125729,8.2165,Westfalendamm,Oldenburg,26131
53.127861,8.217529,Emilie-Oltmanns-Straße,Oldenburg,26135
53.129631,8.218113,Emilie-Oltmanns-Straße,Oldenburg,26135
53.13118,8.219031,Emilie-Oltmanns-Straße,Oldenburg,26135
53.13242,8.219552,Hermann-Ehlers-Straße,Oldenburg,26135
53.132809,8.220112,Hermann-Ehlers-Straße,Oldenburg,26135
53.132736,8.220568,Hermann-Ehlers-Straße,Oldenburg,26135
53.133125,8.221697,Hermann-Ehlers-Straße,Oldenburg,26135
53.134094,8.222404,Hermann-Ehlers-Straße,Oldenburg,26135
53.134735,8.223667,Hermann-Ehlers-Straße,Oldenburg,26135
53.135067,8.224648,Hermann-Ehlers-Straße,Oldenburg,26135
53.135475,8.226874,Hermannstraße,Oldenburg,26135
53.135448,8.228407,Hermannstraße,Oldenburg,26135
53.135918,8.229657,Hermannstraße,Oldenburg,26135
53.138279,8.238605,Stedinger Straße,Oldenburg,26135
53.138592,8.240485,Stedinger Straße,Oldenburg,26135
53.138931,8.244817,Stedinger Straße,Oldenburg,26135
53.138958,8.250302,Holler Landstraße,Oldenburg,26135
53.138367,8.253719,Holler Landstraße,Oldenburg,26135
53.138283,8.2551,Holler Landstraße,Oldenburg,26135
53.138363,8.256468,Holler Landstraße,Oldenburg,26135
53.139015,8.259949,Holler Landstraße,Oldenburg,26135
53.140579,8.259954,Holler Landstraße,Oldenburg,26135
53.142338,8.260675,Holler Landstraße,Oldenburg,26135
53.142712,8.261263,Holler Landstraße,Oldenburg,26135
53.143208,8.263117,Klosterholzweg,Oldenburg,26135
53.144413,8.264682,Klosterholzweg,Oldenburg,26135
53.145283,8.265522,Klosterholzweg,Oldenburg,26135
53.145981,8.265457,Klosterholzweg,Oldenburg,26135
53.146755,8.266233,Klosterholzweg,Oldenburg,26135
53.147408,8.266376,Klosterholzweg,Oldenburg,26135
53.14785,8.266741,Klosterholzweg,Oldenburg,26135
53.148602,8.269451,Klosterholzweg,Oldenburg,26135
53.14896,8.272455,Klosterholzweg,Oldenburg,26135
53.149345,8.273869,Klosterholzweg,Oldenburg,26135
53.149464,8.273979,Klosterholzweg,Oldenburg,26135
53.151032,8.273764,Klosterholzweg,Oldenburg,26135
53.151344,8.273922,Klosterholzweg,Oldenburg,26135
53.151558,8.27431,Klosterholzweg,Oldenburg,26135
53.151672,8.275233,Klosterholzweg,Oldenburg,26135
53.151447,8.27594,Klosterholzweg,Oldenburg,26135
53.149982,8.276303,Klosterholzweg,Oldenburg,26135
53.149792,8.276486,Klosterholzweg,Oldenburg,26135
53.149948,8.278132,Klosterholzweg,Oldenburg,26135
53.149597,8.280451,Klosterholzweg,Oldenburg,26135
53.148785,8.281794,Klostermark,Oldenburg,26135
53.149204,8.285164,Klostermark,Oldenburg,26135
53.150124,8.287801,Klostermark,Oldenburg,26135
53.149559,8.299218,Iprumper Weg,Oldenburg,26135
53.149735,8.300519,Iprumper Weg,Oldenburg,26135
53.149681,8.302009,Iprumper Weg,Oldenburg,26135
53.149422,8.304874,Iprumper Weg,Oldenburg,26135
53.14912,8.306324,Iprumper Weg,Oldenburg,26135
53.150291,8.309289,Hollersiel,Hude (Oldenburg),27798
53.15258,8.313438,Hollersiel,Hude (Oldenburg),27798
53.152973,8.315988,Hollersiel,Hude (Oldenburg),27798
53.153366,8.316998,Hollersiel,Hude (Oldenburg),27798
53.153931,8.317776,Hollersiel,Hude (Oldenburg),27798
53.153728,8.320744,Hollersiel,Hude (Oldenburg),27798
53.153835,8.323759,Hollersiel,Hude (Oldenburg),27798
53.156208,8.337026,Hollersiel,Hude (Oldenburg),27798
53.156647,8.337834,Hollersiel,Hude (Oldenburg),27798
53.157314,8.338279,Hollersiel,Hude (Oldenburg),27798
53.15794,8.338253,Hollersiel,Hude (Oldenburg),27798
53.159409,8.337533,Hollersiel,Hude (Oldenburg),27798
53.159946,8.337682,Hollersiel,Hude (Oldenburg),27798
53.160355,8.338094,Hollersiel,Hude (Oldenburg),27798
53.161415,8.34049,Hollersiel,Hude (Oldenburg),27798
53.16486,8.351444,Hollersiel,Hude (Oldenburg),27798
53.165108,8.352925,Hollersiel,Hude (Oldenburg),27798
53.16518,8.354847,Hollersiel,Hude (Oldenburg),27798
53.165047,8.357233,Hollersiel,Hude (Oldenburg),27798
53.164768,8.358809,Hollersiel,Hude (Oldenburg),27798
53.164646,8.361224,Hollersiel,Hude (Oldenburg),27798
53.164734,8.362778,Hollersiel,Hude (Oldenburg),27798
53.164459,8.367549,Hollersiel,Hude (Oldenburg),27798
53.164154,8.368894,Hörneweg,Hude (Oldenburg),27798
53.1646,8.372438,Hörneweg,Hude (Oldenburg),27798
53.165035,8.374204,Hörneweg,Hude (Oldenburg),27798
53.165653,8.375864,Hörneweg,Hude (Oldenburg),27798
53.166573,8.377543,Hörneweg,Hude (Oldenburg),27798
53.167461,8.378636,Hörneweg,Hude (Oldenburg),27798
53.167622,8.379132,Hörneweg,Hude (Oldenburg),27798
53.167477,8.384594,Hörneweg,Hude (Oldenburg),27798
53.167694,8.386104,Hörneweg,Hude (Oldenburg),27798
53.168308,8.387301,Hörneweg,Hude (Oldenburg),27798
53.169434,8.388557,Hörneweg,Hude (Oldenburg),27798
53.169766,8.390663,Hörneweg,Hude (Oldenburg),27798
53.170196,8.392135,Hörneweg,Hude (Oldenburg),27798
53.175255,8.402252,Hörneweg,Berne,27804
53.175411,8.403202,Hörneweg,Berne,27804
53.175182,8.405867,Hörneweg,Berne,27804
53.174515,8.40861,Hörneweg,Berne,27804
53.174454,8.410377,Hörneweg,Berne,27804
53.174725,8.41116,Hörneweg,Berne,27804
53.175648,8.412095,Hörneweg,Berne,27804
53.176453,8.415166,Hörneweg,Berne,27804
53.176918,8.415917,Hörneweg,Berne,27804
53.177265,8.417041,Hörneweg,Berne,27804
53.178509,8.423147,Hörneweg,Berne,27804
53.178585,8.426438,Hörneweg,Berne,27804
53.178764,8.427267,Hörneweg,Berne,27804
53.178986,8.427514,Hörneweg,Berne,27804
53.179775,8.427531,Hörneweg,Berne,27804
53.183735,8.424749,Neuenhuntorfer Straße,Berne,27804
53.18734,8.422776,Neuenhuntorfer Straße,Berne,27804
53.187645,8.422769,Neuenhuntorfer Straße,Berne,27804
53.189308,8.429462,Neuenhuntorfer Straße,Berne,27804
53.191093,8.428679,Neuenhuntorfer Straße,Berne,27804
53.191715,8.429379,Neuenhuntorfer Straße,Berne,27804
53.19249,8.437091,Huntebrücker Straße,Berne,27804
53.19347,8.440112,Huntebrücker Straße,Berne,27804
53.194054,8.441121,Huntebrücker Straße,Berne,27804
53.195904,8.443563,Huntebrücker Straße,Berne,27804
53.196236,8.443643,Huntebrücker Straße,Berne,27804
53.196835,8.443281,Huntebrücker Straße,Berne,27804
53.197144,8.443276,Huntebrücker Straße,Berne,27804
53.198101,8.444092,Huntebrücker Straße,Berne,27804
53.197739,8.448123,Huntebrücker Straße,Berne,27804
53.199333,8.447518,Huntebrücker Straße,Berne,27804
53.199505,8.447954,Huntebrücker Straße,Berne,27804
53.199699,8.448034,B 212,Berne,27804
53.199368,8.447494,B 212,Berne,27804
53.198952,8.447712,B 212,Berne,27804
53.198914,8.448544,B 212,Berne,27804
53.19912,8.448957,B 212,Berne,27804
53.198772,8.449044,B 212,Berne,27804
53.197235,8.450547,B 212,Berne,27804
53.196751,8.454863,Schlüter Straße,Berne,27804
53.195095,8.461408,Schlüter Straße,Berne,27804
53.194466,8.463112,Schlüter Straße,Berne,27804
53.192242,8.466809,Schlüter Straße,Berne,27804
53.189716,8.474049,Schlüter Straße,Berne,27804
53.189014,8.474966,Schlüter Straße,Berne,27804
53.185143,8.477528,Weserstraße,Berne,27804
53.186123,8.480958,Weserstraße,Berne,27804
53.187679,8.487898,Weserstraße,Berne,27804
53.188786,8.491613,Weserstraße,Berne,27804
53.190022,8.497161,Unbekannte Straße,Berne,27804
53.193069,8.50331,Deichstraße,Berne,27804
53.191738,8.504938,Deichstraße,Berne,27804
53.191399,8.50557,Deichstraße,Berne,27804
53.191132,8.507298,Deichstraße,Berne,27804
53.190231,8.509897,Deichstraße,Berne,27804
53.189964,8.511847,Deichstraße,Berne,27804
53.18906,8.514594,Deichstraße,Berne,27804
53.188259,8.515859,Deichstraße,Berne,27804
53.187565,8.517799,Deichstraße,Berne,27804
53.18613,8.518796,Deichstraße,Berne,27804
53.185303,8.520007,Deichstraße,Berne,27804
53.184551,8.521435,Deichstraße,Berne,27804
53.183559,8.524004,Deichstraße,Berne,27804
53.183193,8.525847,Deichstraße,Berne,27804
53.183552,8.529034,Deichstraße,Berne,27804
53.183529,8.530028,Deichstraße,Berne,27804
53.182304,8.533513,Deichstraße,Berne,27804
53.181408,8.537317,Deichstraße,Berne,27804
53.181065,8.539405,Deichstraße,Berne,27804
53.181076,8.540606,Deichstraße,Berne,27804
53.18045,8.544533,Deichstraße,Berne,27804
53.180294,8.54749,Deichstraße,Berne,27804
53.17886,8.550788,Deichstraße,Berne,27804
53.178978,8.553341,Deichstraße,Berne,27804
53.178829,8.555489,Deichstraße,Berne,27804
53.178219,8.557758,Deichstraße,Berne,27804
53.178124,8.559391,Deichstraße,Berne,27804
53.177647,8.560879,Motzener Dorfstraße,Berne,27804
53.176636,8.562778,Motzener Dorfstraße,Berne,27804
53.176407,8.564358,Motzener Dorfstraße,Berne,27804
53.175785,8.565301,Motzener Dorfstraße,Berne,27804
53.17564,8.566287,Motzener Dorfstraße,Berne,27804
53.175838,8.566611,Motzener Dorfstraße,Berne,27804
53.175777,8.567186,Motzener Dorfstraße,Berne,27804
53.174774,8.571936,Am Deich,Berne,27804
53.17374,8.572798,Am Deich,Berne,27804
53.172974,8.573131,Am Deich,Berne,27804
53.171738,8.574095,Am Deich,Berne,27804
53.170284,8.576054,Deichstraße,Berne,27804
53.16972,8.576593,Deichstraße,Berne,27804
53.169399,8.577266,Deichstraße,Berne,27804
53.168457,8.578295,Deichstraße,Berne,27804
53.167583,8.58114,Deichstraße,Berne,27804
53.167519,8.584734,Unbekannte Straße,Lemwerder,27809
53.167122,8.586416,Unbekannte Straße,Lemwerder,27809
53.168049,8.589853,Unbekannte Straße,Lemwerder,27809
53.168587,8.593371,Industriestraße,Lemwerder,27809
53.168827,8.596818,Industriestraße,Lemwerder,27809
53.168552,8.599773,Industriestraße,Lemwerder,27809
53.168743,8.602187,Industriestraße,Lemwerder,27809
53.168312,8.60613,Industriestraße,Lemwerder,27809
53.167896,8.608154,Industriestraße,Lemwerder,27809
53.165089,8.617387,An der Fähre,Lemwerder,27809
53.165775,8.618419,An der Fähre,Lemwerder,27809
53.166538,8.618212,An der Fähre,Lemwerder,27809
53.166882,8.618267,An der Fähre,Lemwerder,27809
53.167313,8.618512,An der Fähre,Lemwerder,27809
53.167904,8.619281,An der Fähre,Lemwerder,27809
53.168404,8.62184,An der Fähre,Lemwerder,27809
53.16893,8.62316,Zur Vegesacker Fähre,Bremen,28757
53.16878,8.623512,Zur Vegesacker Fähre,Bremen,28757
53.168564,8.623453,Zur Vegesacker Fähre,Bremen,28757
53.168415,8.62316,Zur Vegesacker Fähre,Bremen,28757
53.168114,8.623377,Zur Vegesacker Fähre,Bremen,28757
53.168228,8.624678,Zur Vegesacker Fähre,Bremen,28757
53.168419,8.624871,Zur Vegesacker Fähre,Bremen,28757
53.168663,8.624032,Zur Vegesacker Fähre,Bremen,28757
53.169296,8.624589,Zur Vegesacker Fähre,Bremen,28757
53.169601,8.625184,Zur Vegesacker Fähre,Bremen,28757
53.169483,8.62618,Zur Vegesacker Fähre,Bremen,28757
53.169632,8.626909,Zur Vegesacker Fähre,Bremen,28757
53.169186,8.627867,Zur Vegesacker Fähre,Bremen,28757
53.167194,8.629847,Zur Vegesacker Fähre,Bremen,28757
53.167027,8.631183,Grohner Markt,Bremen,28759
53.166496,8.630278,Grohner Markt,Bremen,28759
53.165745,8.629897,Grohner Markt,Bremen,28759
53.164429,8.631907,Grohner Markt,Bremen,28759
53.163929,8.633553,Grohner Markt,Bremen,28759
53.163391,8.63451,Grohner Markt,Bremen,28759
53.16293,8.63662,Am Wasser,Bremen,28759
53.162338,8.640767,Am Wasser,Bremen,28759
53.161888,8.646353,Am Wasser,Bremen,28759
53.161457,8.646779,Am Wasser,Bremen,28759
53.159382,8.64718,Am Wasser,Bremen,28759
53.159611,8.649212,Am Wasser,Bremen,28759
53.159847,8.649994,Am Wasser,Bremen,28759
53.159824,8.650668,Am Wasser,Bremen,28759
53.159279,8.6537,Walerjan-Wrobel-Weg,Bremen,28719
53.158665,8.655039,Walerjan-Wrobel-Weg,Bremen,28719
53.158119,8.657446,Walerjan-Wrobel-Weg,Bremen,28719
53.158291,8.659186,Walerjan-Wrobel-Weg,Bremen,28719
53.158123,8.660226,Walerjan-Wrobel-Weg,Bremen,28719
53.158638,8.665284,Walerjan-Wrobel-Weg,Bremen,28719
53.158577,8.666508,Walerjan-Wrobel-Weg,Bremen,28719
53.159248,8.671804,Walerjan-Wrobel-Weg,Bremen,28719
53.15955,8.672771,Walerjan-Wrobel-Weg,Bremen,28719
53.160328,8.674117,Walerjan-Wrobel-Weg,Bremen,28719
53.160976,8.680756,Walerjan-Wrobel-Weg,Bremen,28719
53.160996,8.682658,Walerjan-Wrobel-Weg,Bremen,28719
53.162582,8.689428,Lesumbroker Landstraße,Bremen,28719
53.161877,8.692706,Lesumbroker Landstraße,Bremen,28719
53.160229,8.695479,Lesumbroker Landstraße,Bremen,28719
53.159683,8.696958,Lesumbroker Landstraße,Bremen,28719
53.157028,8.700973,Lesumbroker Landstraße,Bremen,28719
53.156063,8.703819,Lesumbroker Landstraße,Bremen,28719
53.15625,8.706523,Lesumbroker Landstraße,Bremen,28719
53.15826,8.709896,Lesumbroker Landstraße,Bremen,28719
53.161091,8.709639,Am Lesumdeich,Bremen,28719
53.16164,8.709868,Am Lesumdeich,Bremen,28719
53.162113,8.710567,Am Lesumdeich,Bremen,28719
53.162514,8.713298,Am Lesumdeich,Bremen,28719
53.162682,8.716026,Am Lesumdeich,Bremen,28719
53.162678,8.717687,Am Lesumdeich,Bremen,28719
53.162392,8.719747,Am Lesumdeich,Bremen,28719
53.162178,8.720327,Am Lesumdeich,Bremen,28719
53.161842,8.720716,Am Lesumdeich,Bremen,28719
53.159145,8.721817,Am Lesumdeich,Bremen,28719
53.158772,8.722196,Grambkermoorer Landstraße,Bremen,28719
53.159,8.722498,Grambkermoorer Landstraße,Bremen,28719
53.159271,8.722493,Grambkermoorer Landstraße,Bremen,28719
53.160656,8.723282,Grambkermoorer Landstraße,Bremen,28719
53.161224,8.72464,Grambkermoorer Landstraße,Bremen,28719
53.162357,8.72567,Grambkermoorer Landstraße,Bremen,28719
53.162891,8.727143,Wasserhorst,Bremen,28719
53.163322,8.727825,Wasserhorst,Bremen,28719
53.163513,8.728814,Wasserhorst,Bremen,28719
53.165737,8.731058,Wasserhorst,Bremen,28719
53.165947,8.731812,Wasserhorst,Bremen,28719
53.16552,8.733656,Wasserhorst,Bremen,28719
53.165417,8.734876,Wasserhorst,Bremen,28719
53.164024,8.738865,Wasserhorst,Bremen,28719
53.163918,8.740355,Wasserhorst,Bremen,28719
53.163261,8.7421,Wasserhorst,Bremen,28719
53.16346,8.743875,Wasserhorst,Bremen,28719
53.163174,8.745192,Wasserhorst,Bremen,28719
53.163231,8.746195,Wasserhorst,Bremen,28719
53.163471,8.746559,Wasserhorst,Bremen,28719
53.164413,8.746957,Wasserhorst,Bremen,28719
53.164558,8.748153,Wasserhorst,Bremen,28719
53.164124,8.751378,Wasserhorst,Bremen,28719
53.162666,8.753233,Wasserhorst,Bremen,28719
53.162483,8.753796,Wasserhorst,Bremen,28719
53.162724,8.755355,Wasserhorst,Bremen,28719
53.162483,8.756682,Wasserhorst,Bremen,28719
53.162579,8.758052,Wasserhorst,Bremen,28719
53.162331,8.759236,Wummensiede,Bremen,28719
53.162277,8.760633,Wummensiede,Bremen,28719
53.162434,8.76154,Wummensiede,Bremen,28719
53.162239,8.763644,Wummensiede,Bremen,28719
53.16198,8.764792,Wummensiede,Bremen,28719
53.16111,8.766847,Wummensiede,Bremen,28719
53.159218,8.770163,Wummensiede,Bremen,28719
53.158585,8.773719,Wummensiede,Bremen,28719
53.158222,8.775038,Wummensiede,Bremen,28719
53.157772,8.775685,Wummensiede,Bremen,28719
53.157654,8.776211,Wummensiede,Bremen,28719
53.157986,8.777519,Wummensiede,Bremen,28719
53.158642,8.778114,Wummensiede,Bremen,28719
53.159103,8.778938,Wummensiede,Bremen,28719
53.16016,8.780229,Wummensiede,Bremen,28719
53.160923,8.780779,Niederblockland,Bremen,28357
53.161854,8.781073,Niederblockland,Bremen,28357
53.162872,8.781948,Niederblockland,Bremen,28357
53.162975,8.782398,Niederblockland,Bremen,28357
53.162739,8.784149,Niederblockland,Bremen,28357
53.162819,8.78546,Niederblockland,Bremen,28357
53.162705,8.78596,Niederblockland,Bremen,28357
53.162506,8.786198,Niederblockland,Bremen,28357
53.161297,8.786729,Niederblockland,Bremen,28357
53.160393,8.787575,Niederblockland,Bremen,28357
53.16011,8.788197,Niederblockland,Bremen,28357
53.160015,8.789075,Niederblockland,Bremen,28357
53.16011,8.789685,Niederblockland,Bremen,28357
53.160854,8.791402,Niederblockland,Bremen,28357
53.161102,8.792386,Niederblockland,Bremen,28357
53.161205,8.793323,Niederblockland,Bremen,28357
53.161087,8.794243,Niederblockland,Bremen,28357
53.161343,8.796235,Niederblockland,Bremen,28357
53.160431,8.798662,Niederblockland,Bremen,28357
53.160973,8.803575,Niederblockland,Bremen,28357
53.160728,8.804932,Niederblockland,Bremen,28357
53.160057,8.806183,Niederblockland,Bremen,28357
53.159996,8.807106,Niederblockland,Bremen,28357
53.1605,8.808834,Niederblockland,Bremen,28357
53.160858,8.812346,Niederblockland,Bremen,28357
53.160774,8.813818,Niederblockland,Bremen,28357
53.161427,8.814688,Niederblockland,Bremen,28357
53.161716,8.816704,Niederblockland,Bremen,28357
53.161686,8.817539,Niederblockland,Bremen,28357
53.161308,8.818472,Niederblockland,Bremen,28357
53.161289,8.819015,Niederblockland,Bremen,28357
53.161892,8.819923,Niederblockland,Bremen,28357
53.162312,8.822304,Niederblockland,Bremen,28357
53.161469,8.825899,Niederblockland,Bremen,28357
53.160461,8.827386,Niederblockland,Bremen,28357
53.159863,8.829141,Niederblockland,Bremen,28357
53.159325,8.829945,Niederblockland,Bremen,28357
53.158543,8.831917,Niederblockland,Bremen,28357
53.157665,8.833196,Niederblockland,Bremen,28357
53.156769,8.834101,Niederblockland,Bremen,28357
53.156555,8.835197,Niederblockland,Bremen,28357
53.155899,8.836974,Niederblockland,Bremen,28357
53.154991,8.83814,Niederblockland,Bremen,28357
53.154495,8.839088,Niederblockland,Bremen,28357
53.154232,8.839284,Niederblockland,Bremen,28357
53.152523,8.839462,Niederblockland,Bremen,28357
53.151737,8.839719,Niederblockland,Bremen,28357
53.151127,8.840141,Niederblockland,Bremen,28357
53.150848,8.83999,Niederblockland,Bremen,28357
53.150425,8.839264,Niederblockland,Bremen,28357
53.14967,8.839264,Niederblockland,Bremen,28357
53.148731,8.840073,Niederblockland,Bremen,28357
53.147652,8.840537,Niederblockland,Bremen,28357
53.146736,8.841947,Niederblockland,Bremen,28357
53.145889,8.842387,Niederblockland,Bremen,28357
53.145035,8.843661,Niederblockland,Bremen,28357
53.144104,8.844305,Niederblockland,Bremen,28357
53.143417,8.845898,Niederblockland,Bremen,28357
53.143082,8.847599,Niederblockland,Bremen,28357
53.142483,8.848353,Niederblockland,Bremen,28357
53.142098,8.849714,Niederblockland,Bremen,28357
53.141941,8.851097,Niederblockland,Bremen,28357
53.14135,8.851455,Niederblockland,Bremen,28357
53.140923,8.852428,Oberblockland,Bremen,28357
53.140228,8.853202,Oberblockland,Bremen,28357
53.139751,8.854327,Oberblockland,Bremen,28357
53.138187,8.85568,Oberblockland,Bremen,28357
53.136208,8.858283,Oberblockland,Bremen,28357
53.13427,8.859227,Oberblockland,Bremen,28357
53.133022,8.860801,Oberblockland,Bremen,28357
53.132236,8.86086,Oberblockland,Bremen,28357
53.131752,8.861133,Oberblockland,Bremen,28357
53.129147,8.866135,Oberblockland,Bremen,28357
53.12817,8.869749,Am Lehester Deich,Bremen,28357
53.128242,8.870069,Am Lehester Deich,Bremen,28357
53.128681,8.870498,Am Lehester Deich,Bremen,28357
53.131672,8.871812,Am Lehester Deich,Bremen,28357
53.1329,8.874085,Kreuzdeich,Bremen,28357
53.133175,8.875209,Kreuzdeich,Bremen,28357
53.132992,8.87727,Kreuzdeich,Bremen,28357
53.132038,8.882682,Borgfelder Deich,Bremen,28357
53.132439,8.889833,Borgfelder Deich,Bremen,28357
53.132339,8.890984,Borgfelder Deich,Bremen,28357
53.13047,8.89683,Borgfelder Deich,Bremen,28357
53.130257,8.898515,Borgfelder Deich,Bremen,28357
53.130142,8.898709,Borgfelder Deich,Bremen,28357
53.129726,8.89881,Borgfelder Deich,Bremen,28357
53.129726,8.899555,Borgfelder Deich,Bremen,28357
53.129181,8.900978,Borgfelder Deich,Bremen,28357
53.128544,8.901727,Borgfelder Deich,Bremen,28357
53.127983,8.901843,Borgfelder Deich,Bremen,28357
53.127575,8.902313,Borgfelder Deich,Bremen,28357
53.126812,8.902722,Borgfelder Deich,Bremen,28357
53.126438,8.907391,Borgfelder Landstraße,Bremen,28357
53.126785,8.908237,Borgfelder Landstraße,Bremen,28357
53.128426,8.909764,Borgfelder Landstraße,Bremen,28357
53.130878,8.911572,Am Großen Moordamm,Bremen,28357
53.131134,8.918786,Am Großen Moordamm,Bremen,28357
53.134853,8.934273,Am Großen Moordamm,Bremen,28357
53.135124,8.934931,Am Großen Moordamm,Bremen,28357
53.134991,8.934621,Am Großen Moordamm,Bremen,28357
53.135235,8.933782,Am Großen Moordamm,Bremen,28357
53.136951,8.931596,Am Großen Moordamm,Bremen,28357
53.140442,8.928494,An den Kämpen,Bremen,28357
53.143276,8.933062,An den Kämpen,Bremen,28357
53.143292,8.933702,An den Kämpen,Bremen,28357
53.142521,8.938058,Timmersloher Landstraße,Bremen,28357
53.141865,8.94005,Timmersloher Landstraße,Bremen,28357
53.141266,8.943195,Timmersloher Landstraße,Bremen,28357
53.142277,8.945979,Timmersloher Landstraße,Bremen,28357
53.142838,8.948071,Timmersloher Landstraße,Bremen,28357
53.142921,8.950316,Timmersloher Landstraße,Bremen,28357
53.143818,8.953357,Meiermoorweg,Bremen,28357
53.143703,8.953364,Meiermoorweg,Bremen,28357
53.142994,8.956507,Meiermoorweg,Bremen,28357
53.142605,8.957586,Meiermoorweg,Bremen,28357
53.142857,8.960046,Meiermoorweg,Bremen,28357
53.142742,8.965293,Timmersloher Straße,Lilienthal,28865
53.14325,8.967427,Timmersloher Straße,Lilienthal,28865
53.143448,8.969985,Timmersloher Straße,Lilienthal,28865
53.143806,8.970573,Timmersloher Straße,Lilienthal,28865
53.144661,8.969542,Timmersloher Straße,Lilienthal,28865
53.146965,8.967892,Heidberger Straße,Lilienthal,28865
53.148006,8.966784,Heidberger Straße,Lilienthal,28865
53.149494,8.976537,Heidberger Schweiz,Lilienthal,28865
53.149509,8.980032,Heidberger Schweiz,Lilienthal,28865
53.150272,8.981634,Heidberger Schweiz,Lilienthal,28865
53.150906,8.983719,Heidberger Schweiz,Lilienthal,28865
53.151073,8.983766,Heidberger Schweiz,Lilienthal,28865
53.151913,8.982222,Heidberger Schweiz,Lilienthal,28865
53.152889,8.979828,Heidberger Schweiz,Lilienthal,28865
53.156036,8.981362,Grasdorfer Damm,Lilienthal,28865
53.158909,8.984245,Grasdorfer Damm,Lilienthal,28865
53.160595,8.988653,Grasdorfer Straße,Grasberg,28879
53.168282,9.012817,Grasdorfer Straße,Grasberg,28879
53.168438,9.012853,Grasdorfer Straße,Grasberg,28879
53.169251,9.012245,Grasdorfer Straße,Grasberg,28879
53.16938,9.012412,Grasdorfer Straße,Grasberg,28879
53.169712,9.012233,Grasdorfer Straße,Grasberg,28879
53.169926,9.012352,Grasdorfer Straße,Grasberg,28879
53.169746,9.012532,Grasdorfer Straße,Grasberg,28879
53.16991,9.012484,Grasdorfer Straße,Grasberg,28879
53.169827,9.012932,Grasdorfer Straße,Grasberg,28879
53.17104,9.014884,Grasdorfer Straße,Grasberg,28879
53.172066,9.016042,Grasdorfer Straße,Grasberg,28879
53.179302,9.026228,Achterdamm,Grasberg,28879
53.18528,9.035001,K 42,Grasberg,28879
53.185989,9.036259,K 42,Grasberg,28879
53.186756,9.039096,K 42,Grasberg,28879
53.188515,9.048639,K 150,Wilstedt,27412
53.188755,9.051037,K 150,Wilstedt,27412
53.188572,9.053099,K 150,Wilstedt,27412
53.186359,9.065543,K 150,Wilstedt,27412
53.186272,9.067518,K 150,Wilstedt,27412
53.186413,9.068764,K 150,Wilstedt,27412
53.187069,9.070877,K 150,Wilstedt,27412
53.189983,9.077587,K 150,Wilstedt,27412
53.191502,9.080101,K 150,Wilstedt,27412
53.194202,9.085923,Bahnhofstraße,Wilstedt,27412
53.195579,9.088301,Bahnhofstraße,Wilstedt,27412
53.196819,9.08923,Bahnhofstraße,Wilstedt,27412
53.197582,9.086836,Bahnhofstraße,Wilstedt,27412
53.198692,9.086272,Tarmstedter Straße,Wilstedt,27412
53.199512,9.084977,Tarmstedter Straße,Wilstedt,27412
53.203651,9.082172,Tarmstedter Straße,Wilstedt,27412
53.204735,9.08202,Tarmstedter Straße,Wilstedt,27412
53.204987,9.082579,Tarmstedter Straße,Wilstedt,27412
53.205231,9.082071,Tarmstedter Straße,Wilstedt,27412
53.210075,9.084085,K 113,Tarmstedt,27412
53.211098,9.084365,K 113,Tarmstedt,27412
53.213272,9.084461,K 113,Tarmstedt,27412
53.216675,9.082646,Wilstedter Straße,Tarmstedt,27412
53.219604,9.081339,Wilstedter Straße,Tarmstedt,27412
53.220047,9.080851,Wilstedter Straße,Tarmstedt,27412
53.222019,9.079881,Wilstedter Straße,Tarmstedt,27412
53.223423,9.078113,Wilstedter Straße,Tarmstedt,27412
53.224167,9.077432,Wilstedter Straße,Tarmstedt,27412
53.225521,9.076957,Wilstedter Straße,Tarmstedt,27412
53.226162,9.077426,Wilstedter Straße,Tarmstedt,27412
53.226597,9.078025,Hauptstraße,Tarmstedt,27412
53.226807,9.07957,Hauptstraße,Tarmstedt,27412
53.226616,9.087885,Ostentor,Tarmstedt,27412
53.226944,9.09133,Ostentor,Tarmstedt,27412
53.234169,9.124761,Am Falkenlager,Westertimke,27412
53.246094,9.145001,Hauptstraße,Westertimke,27412
53.249371,9.149149,Hauptstraße,Westertimke,27412
53.25042,9.150063,Hauptstraße,Kirchtimke,27412
53.250847,9.150825,Hauptstraße,Kirchtimke,27412
53.251122,9.151977,Hauptstraße,Kirchtimke,27412
53.251308,9.152131,Hauptstraße,Kirchtimke,27412
53.252571,9.15235,Hauptstraße,Kirchtimke,27412
53.253105,9.152753,Hauptstraße,Kirchtimke,27412
53.254608,9.155319,Hauptstraße,Kirchtimke,27412
53.255444,9.15762,Hauptstraße,Kirchtimke,27412
53.255737,9.159031,Hauptstraße,Kirchtimke,27412
53.255856,9.161011,Hauptstraße,Kirchtimke,27412
53.255795,9.166615,Neue Landstraße,Ostertimke,27412
53.256565,9.175919,Neue Landstraße,Ostertimke,27412
53.257267,9.179204,Neue Landstraße,Ostertimke,27412
53.2579,9.183527,Hemeler Straße,Ostertimke,27412
53.258625,9.18454,Hemeler Straße,Ostertimke,27412
53.259125,9.184737,Hemeler Straße,Ostertimke,27412
53.260212,9.184812,Hemeler Straße,Ostertimke,27412
53.261097,9.185543,Hemeler Straße,Ostertimke,27412
53.261936,9.187059,Neue Landstraße,Ostertimke,27412
53.263596,9.189064,Neue Landstraße,Ostertimke,27412
53.265167,9.191896,Neue Landstraße,Ostertimke,27412
53.272182,9.202953,Tarmstedter Straße,Zeven,27404
53.27261,9.203324,Tarmstedter Straße,Zeven,27404
53.273685,9.203614,Tarmstedter Straße,Zeven,27404
53.274246,9.204027,Tarmstedter Straße,Zeven,27404
53.278713,9.213182,Tarmstedter Straße,Zeven,27404
53.281143,9.217209,Tarmstedter Straße,Zeven,27404
53.285454,9.221975,Tarmstedter Straße,Zeven,27404
53.286053,9.222805,Tarmstedter Straße,Zeven,27404
53.28669,9.22428,Tarmstedter Straße,Zeven,27404
53.288689,9.234698,L 133,Zeven,27404
53.290596,9.238375,L 133,Zeven,27404
53.291634,9.23956,L 133,Zeven,27404
53.291935,9.243312,L 122,Zeven,27404
53.293682,9.257045,Unbekannte Straße,Zeven,27404
53.293915,9.25799,Unbekannte Straße,Zeven,27404
53.295746,9.271821,Bremer Straße,Zeven,27404
53.295643,9.273493,Bremer Straße,Zeven,27404
53.295868,9.274822,Bremer Straße,Zeven,27404
53.29541,9.276502,Bremer Straße,Zeven,27404
53.295364,9.277398,Bremer Straße,Zeven,27404
53.296539,9.284641,Bäckerstraße,Zeven,27404
53.299412,9.293504,L 124,Zeven,27404
53.301228,9.299771,L 124,Zeven,27404
53.306499,9.32008,L 124,Wiersdorf,27404
53.307014,9.321602,L 124,Wiersdorf,27404
53.312588,9.331532,Bremer Straße,Heeslingen,27404
53.313793,9.333978,Bremer Straße,Heeslingen,27404
53.31448,9.334755,Bremer Straße,Heeslingen,27404
53.317055,9.336263,Marktstraße,Heeslingen,27404
53.328812,9.357385,Stader Straße,Boitzen,27404
53.331451,9.361258,Stader Straße,Boitzen,27404
53.334698,9.371963,Dorfstraße,Boitzen,27404
53.335754,9.373105,Dorfstraße,Boitzen,27404
53.33662,9.373631,Dorfstraße,Boitzen,27404
53.337662,9.375538,Dorfstraße,Boitzen,27404
53.340576,9.384831,Boitzener Trift,Boitzen,27404
53.345676,9.396841,Steddorfer Straße,Steddorf,27404
53.346573,9.399388,Steddorfer Straße,Steddorf,27404
53.347153,9.399991,Steddorfer Straße,Steddorf,27404
53.348656,9.400256,Steddorfer Straße,Steddorf,27404
53.350456,9.401179,Steddorfer Straße,Steddorf,27404
53.35397,9.404166,Steddorfer Straße,Steddorf,27404
53.354595,9.405086,L 124,Steddorf,27404
53.35532,9.406684,L 124,Steddorf,27404
53.35643,9.41148,L 124,Steddorf,27404
53.357403,9.413818,L 124,Steddorf,21702
53.358475,9.415264,L 124,Steddorf,21702
53.363609,9.420696,Dorfstraße,Wangersen,21702
53.365368,9.427064,Dorfstraße,Wangersen,21702
53.367172,9.429832,Dorfstraße,Wangersen,21702
53.368862,9.432052,Dorfstraße,Wangersen,21702
53.368938,9.433586,Dorfstraße,Wangersen,21702
53.372833,9.446778,L 127,Bokel,21702
53.375011,9.453547,L 127,Bokel,21702
53.377842,9.464001,Landstraße,Ahrenswohlde,21702
53.379246,9.468149,Landstraße,Ahrenswohlde,21702
53.381023,9.47114,Brümmerweg,Ahrenswohlde,21702
53.388348,9.478642,Kampshorn,Ahrensmoor West,21702
53.392887,9.485226,Weststraße,Ahrensmoor West,21702
53.393726,9.486127,Weststraße,Ahrensmoor West,21702
53.400539,9.491616,L 127,Ahrensmoor West,21702
53.402981,9.495115,L 127,Ahrensmoor West,21702
53.403641,9.49756,Nordstraße,Ahrensmoor Nord,21702
53.404491,9.505972,Nordstraße,Ahrensmoor Nord,21702
53.404808,9.507668,Nordstraße,Ahrensmoor Nord,21702
53.405956,9.510847,Nordstraße,Ahrensmoor Nord,21702
53.40712,9.513411,L 127,Harsefeld,21698
53.407555,9.514861,L 127,Harsefeld,21698
53.412128,9.541856,L 127,Revenahe,21644
53.415512,9.552464,Apenser Straße,Kammerbusch,21644
53.416218,9.553864,Apenser Straße,Kammerbusch,21644
53.417751,9.555907,Apenser Straße,Kammerbusch,21644
53.418362,9.557226,Apenser Straße,Kammerbusch,21644
53.428722,9.588337,L 127,Apensen,21641
53.429482,9.591731,L 127,Apensen,21641
53.433159,9.613988,Beckdorfer Straße,Apensen,21641
53.433987,9.61447,Beckdorfer Straße,Apensen,21641
53.434254,9.616314,Beckdorfer Straße,Apensen,21641
53.434807,9.617748,Beckdorfer Straße,Apensen,21641
53.443382,9.631961,Buxtehuder Straße,Apensen,21641
53.444004,9.633328,Buxtehuder Straße,Apensen,21641
53.444443,9.633734,Buxtehuder Straße,Apensen,21641
53.446674,9.637374,Buxtehuder Straße,Apensen,21641
53.456921,9.654477,Föhrenweg,Buxtehude,21614
53.460247,9.659644,Apensener Straße,Buxtehude,21614
53.462967,9.664351,Apensener Straße,Buxtehude,21614
53.465,9.670352,Apensener Straße,Buxtehude,21614
53.466873,9.679969,Apensener Straße,Buxtehude,21614
53.468025,9.682404,Apensener Straße,Buxtehude,21614
53.468662,9.684757,Apensener Straße,Buxtehude,21614
53.469128,9.687369,Stader Straße,Buxtehude,21614
53.469929,9.68964,Stader Straße,Buxtehude,21614
53.470009,9.690794,Stader Straße,Buxtehude,21614
53.469528,9.694271,Stader Straße,Buxtehude,21614
53.468739,9.695938,K 39,Buxtehude,21614
53.468685,9.696541,K 39,Buxtehude,21614
53.469154,9.697039,K 39,Buxtehude,21614
53.470104,9.697288,K 39,Buxtehude,21614
53.470226,9.697539,K 39,Buxtehude,21614
53.47134,9.697002,K 39,Buxtehude,21614
53.472286,9.697248,K 39,Buxtehude,21614
53.472736,9.697778,K 39,Buxtehude,21614
53.473831,9.700501,Hansestraße,Buxtehude,21614
53.474602,9.701677,Hansestraße,Buxtehude,21614
53.476238,9.703235,Hansestraße,Buxtehude,21614
53.476738,9.703339,Hansestraße,Buxtehude,21614
53.477501,9.702976,Hansestraße,Buxtehude,21614
53.477638,9.703142,Hansestraße,Buxtehude,21614
53.477821,9.70446,Harburger Straße,Buxtehude,21614
53.477753,9.705511,Harburger Straße,Buxtehude,21614
53.476738,9.709224,Harburger Straße,Buxtehude,21614
53.473618,9.715698,Rübker Straße,Buxtehude,21614
53.474125,9.717178,Rübker Straße,Buxtehude,21614
53.475323,9.718776,Rübker Straße,Buxtehude,21614
53.476543,9.721287,Rübker Straße,Buxtehude,21614
53.479816,9.725036,Rübker Straße,Buxtehude,21614
53.482471,9.728601,Rübker Straße,Buxtehude,21614
53.483212,9.737906,Rübker Straße,Buxtehude,21614
53.482883,9.743338,Rübker Straße,Buxtehude,21614
53.482838,9.745372,Rübker Straße,Buxtehude,21614
53.482986,9.74615,Rübker Straße,Buxtehude,21614
53.483231,9.746336,Rübker Straße,Buxtehude,21614
53.484653,9.746684,Rübker Straße,Buxtehude,21614
53.488762,9.747251,Weide,Buxtehude,21614
53.490414,9.748583,Weide,Buxtehude,21614
53.49057,9.751882,Weide,Buxtehude,21614
53.490562,9.757779,Buxtehuder Straße,Neu Wulmstorf,21629
53.490017,9.766771,Buxtehuder Straße,Neu Wulmstorf,21629
53.491455,9.775888,Buxtehuder Straße,Neu Wulmstorf,21629
53.491943,9.777722,Buxtehuder Straße,Neu Wulmstorf,21629
53.49234,9.77849,Buxtehuder Straße,Neu Wulmstorf,21629
53.492397,9.77933,Buxtehuder Straße,Neu Wulmstorf,21629
53.492882,9.779597,Buxtehuder Straße,Neu Wulmstorf,21629
53.496681,9.780294,Nincoper Deich,Neu Wulmstorf,21629
53.499126,9.781024,Nincoper Deich,Neu Wulmstorf,21629
53.499653,9.781513,Nincoper Deich,Neu Wulmstorf,21629
53.500385,9.782922,Nincoper Deich,Neu Wulmstorf,21629
53.501198,9.783459,Nincoper Deich,Hamburg,21129
53.501762,9.784139,Nincoper Deich,Hamburg,21129
53.502647,9.784644,Nincoper Deich,Hamburg,21129
53.503613,9.785537,Nincoper Deich,Hamburg,21129
53.504154,9.786297,Nincoper Deich,Hamburg,21129
53.505371,9.78641,Nincoper Deich,Hamburg,21129
53.506615,9.787391,Nincoper Deich,Hamburg,21129
53.508026,9.787026,Nincoper Deich,Hamburg,21129
53.50853,9.787698,Nincoper Deich,Hamburg,21129
53.50922,9.789396,Nincoper Deich,Hamburg,21129
53.509968,9.790312,Nincoper Deich,Hamburg,21129
53.511276,9.791121,Nincoper Deich,Hamburg,21129
53.514542,9.792624,Nincoper Deich,Hamburg,21129
53.515141,9.793145,Nincoper Deich,Hamburg,21129
53.514717,9.795824,Nincoper Deich,Hamburg,21129
53.517277,9.797426,Nincoper Deich,Hamburg,21129
53.519245,9.798958,Marschkamper Deich,Hamburg,21129
53.521076,9.799867,Marschkamper Deich,Hamburg,21129
53.521404,9.800224,Marschkamper Deich,Hamburg,21129
53.521687,9.802387,Marschkamper Deich,Hamburg,21129
53.522858,9.804108,Hasselwerder Straße,Hamburg,21129
53.523037,9.804676,Hasselwerder Straße,Hamburg,21129
53.522762,9.805895,Hasselwerder Straße,Hamburg,21129
53.52206,9.806253,Hasselwerder Straße,Hamburg,21129
53.521526,9.80743,Hasselwerder Straße,Hamburg,21129
53.52153,9.810062,Hasselwerder Straße,Hamburg,21129
53.52179,9.809519,Hasselwerder Straße,Hamburg,21129
53.522488,9.809484,Hasselwerder Straße,Hamburg,21129
53.523819,9.809951,Hasselwerder Straße,Hamburg,21129
53.524013,9.810275,Hasselwerder Straße,Hamburg,21129
53.523632,9.811304,Hasselwerder Straße,Hamburg,21129
53.523586,9.812079,Am Rosengarten,Hamburg,21129
53.524639,9.817433,Am Rosengarten,Hamburg,21129
53.526203,9.820868,Am Rosengarten,Hamburg,21129
53.526436,9.82242,Am Rosengarten,Hamburg,21129
53.527493,9.823524,Am Rosengarten,Hamburg,21129
53.530205,9.829311,Neßdeich,Hamburg,21129
53.530655,9.830737,Neßdeich,Hamburg,21129
53.53064,9.832958,Neßdeich,Hamburg,21129
53.529102,9.838833,Neßdeich,Hamburg,21129
53.529087,9.840232,Neßdeich,Hamburg,21129
53.529297,9.841281,Neßdeich,Hamburg,21129
53.529972,9.842648,Neßdeich,Hamburg,21129
53.530972,9.843354,Neßdeich,Hamburg,21129
53.531654,9.843369,Neßdeich,Hamburg,21129
53.535969,9.842432,Neßdeich,Hamburg,21129
53.536423,9.842631,Neßdeich,Hamburg,21129
53.536694,9.843162,Neßdeich,Hamburg,21129
53.53677,9.848172,Neßdeich,Hamburg,21129
53.536591,9.852204,Reetputt,Hamburg,21129
53.534878,9.864059,Kneienblick,Hamburg,21129
53.534424,9.873281,Finkenwerder Norderdeich,Hamburg,21129
53.534656,9.8735,Finkenwerder Norderdeich,Hamburg,21129
53.534588,9.875868,Finkenwerder Norderdeich,Hamburg,21129
53.535809,9.87472,Finkenwerder Norderdeich,Hamburg,21129
53.536194,9.875694,Finkenwerder Norderdeich,Hamburg,21129
53.535469,9.876972,Finkenwerder Norderdeich,Hamburg,21129
53.536385,9.878846,Finkenwerder Norderdeich,Hamburg,21129
53.537312,9.877876,Finkenwerder Norderdeich,Hamburg,21129
53.53978,9.874502,Köhlfleet Hauptdeich,Hamburg,21129
53.541061,9.872441,Köhlfleet Hauptdeich,Hamburg,21129
53.541485,9.871453,Köhlfleet Hauptdeich,Hamburg,21129
53.542118,9.867549,Hein-Saß-Weg,Hamburg,21129
53.541656,9.863473,Hein-Saß-Weg,Hamburg,21129
53.541763,9.862921,Hein-Saß-Weg,Hamburg,21129
53.541966,9.862747,Hein-Saß-Weg,Hamburg,21129
53.545067,9.86367,Hein-Saß-Weg,Hamburg,21129
53.545818,9.863474,Hein-Saß-Weg,Hamburg,21129
53.546535,9.8628,Elbuferweg,Hamburg,22609
53.547058,9.862824,Elbuferweg,Hamburg,22609
53.547222,9.862953,Elbuferweg,Hamburg,22609
53.54731,9.863657,Elbuferweg,Hamburg,22609
53.547676,9.864491,Elbuferweg,Hamburg,22609
53.548683,9.864082,Elbuferweg,Hamburg,22609
53.550377,9.863947,Elbuferweg,Hamburg,22609
53.552406,9.864587,Baron-Voght-Straße,Hamburg,22609
53.553741,9.865187,Baron-Voght-Straße,Hamburg,22609
53.554302,9.865057,Baron-Voght-Straße,Hamburg,22609
53.555267,9.865203,Baron-Voght-Straße,Hamburg,22609
53.557945,9.865015,Wilhelmistraße,Hamburg,22605
53.559067,9.864652,Wilhelmistraße,Hamburg,22605
53.559284,9.865187,Wilhelmistraße,Hamburg,22605
53.560078,9.865727,Wilhelmistraße,Hamburg,22605
53.561554,9.868058,Wilhelmistraße,Hamburg,22605
53.562267,9.868825,Baron-Voght-Straße,Hamburg,22607
53.561775,9.868298,Baron-Voght-Straße,Hamburg,22607
53.561634,9.868316,Baron-Voght-Straße,Hamburg,22607
53.561504,9.869863,Baron-Voght-Straße,Hamburg,22607
53.561611,9.873366,Baron-Voght-Straße,Hamburg,22607
53.5625,9.882566,Müllenhoffweg,Hamburg,22607
53.56237,9.883283,Müllenhoffweg,Hamburg,22607
53.562588,9.883802,Müllenhoffweg,Hamburg,22607
53.56237,9.887039,Müllenhoffweg,Hamburg,22607
53.562618,9.888304,Müllenhoffweg,Hamburg,22607
53.563477,9.890425,Cranachstraße,Hamburg,22607
53.564014,9.892354,Cranachstraße,Hamburg,22607
53.564308,9.894562,Cranachstraße,Hamburg,22607
53.564365,9.89706,Cranachstraße,Hamburg,22607
53.565296,9.897232,Cranachstraße,Hamburg,22607
53.565617,9.897598,Osdorfer Weg,Hamburg,22607
53.564976,9.900969,Osdorfer Weg,Hamburg,22607
53.565064,9.903018,Osdorfer Weg,Hamburg,22607
53.565762,9.907392,Von-Sauer-Straße,Hamburg,22761
53.565701,9.910978,Von-Sauer-Straße,Hamburg,22761
53.565304,9.912713,Von-Sauer-Straße,Hamburg,22761
53.56538,9.912862,Von-Sauer-Straße,Hamburg,22761
53.565826,9.911635,Von-Sauer-Straße,Hamburg,22761
53.566895,9.912811,Von-Sauer-Straße,Hamburg,22761
53.567589,9.91783,Boschstraße,Hamburg,22761
53.569874,9.917625,Boschstraße,Hamburg,22761
53.571327,9.918166,Boschstraße,Hamburg,22761
53.570854,9.918209,Boschstraße,Hamburg,22761
53.570698,9.918961,Boschstraße,Hamburg,22761
53.570881,9.923257,Holstenkamp,Hamburg,22761
53.573746,9.932476,Holstenkamp,Hamburg,22525
53.573696,9.933704,Holstenkamp,Hamburg,22525
53.573051,9.936151,Holstenkamp,Hamburg,22525
53.575871,9.938532,Holstenkamp,Hamburg,22525
53.576557,9.938166,Holstenkamp,Hamburg,22525
53.577942,9.941681,Methfesselstraße,Hamburg,20257
53.578758,9.944777,Methfesselstraße,Hamburg,20257
53.580769,9.947394,Methfesselstraße,Hamburg,20257
53.582348,9.947892,Unbekannte Straße,Hamburg,20255
53.582958,9.947573,Unbekannte Straße,Hamburg,20255
53.584145,9.947964,Unbekannte Straße,Hamburg,20255
53.586178,9.947634,Unbekannte Straße,Hamburg,20255
53.588081,9.948156,Lenzweg,Hamburg,22527
53.588749,9.947973,Lenzweg,Hamburg,22527
53.590469,9.946986,Lenzweg,Hamburg,22527
53.591,9.948739,Lenzweg,Hamburg,22527
53.591949,9.950623,Lenzweg,Hamburg,22527
53.592457,9.950281,Max-Tau-Straße,Hamburg,22529
53.593544,9.950266,Max-Tau-Straße,Hamburg,22529
53.594219,9.951239,Max-Tau-Straße,Hamburg,22529
53.594059,9.951636,Max-Tau-Straße,Hamburg,22529
