Latitude,Longitude,Street,City,PostalCode
46.499575,11.356825,Rathausplatz,Bozen,39100
46.498958,11.35688,Rathausplatz,Bozen,39100
46.49841,11.356332,Rathausplatz,Bozen,39100
46.498147,11.35486,Rathausplatz,Bozen,39100
46.4979,11.354505,Rathausplatz,Bozen,39100
46.497612,11.35486,Rathausplatz,Bozen,39100
46.497177,11.355023,Rathausplatz,Bozen,39100
46.495445,11.355173,Rathausplatz,Bozen,39100
46.49491,11.35543,Giuseppe-Garibaldi-Straße,Bozen,39100
46.495475,11.352693,Giuseppe-Garibaldi-Straße,Bozen,39100
46.494835,11.34876,Drususallee,Bozen,39100
46.494705,11.346265,Drususallee,Bozen,39100
46.49477,11.341785,Drususallee,Bozen,39100
46.495097,11.33922,Drususallee,Bozen,39100
46.495292,11.335462,Drususallee,Bozen,39100
46.494137,11.314595,Drususallee,Bozen,39100
46.493857,11.314032,Drususallee,Bozen,39100
46.493907,11.312192,Drususallee,Bozen,39100
46.49378,11.311203,Drususallee,Bozen,39100
46.493568,11.310878,Drususallee,Bozen,39100
46.49361,11.310408,Drususallee,Bozen,39100
46.492413,11.30768,Sigmundskroner Straße,Bozen,39100
46.489343,11.303792,Sigmundskroner Straße,Bozen,39100
46.488732,11.302558,Sigmundskroner Straße,Bozen,39100
46.488078,11.302262,Sigmundskroner Straße,Bozen,39100
46.486505,11.300468,Sigmundskroner Straße,Bozen,39100
46.485025,11.299617,Sigmundskroner Straße,Bozen,39100
46.484925,11.299193,Sigmundskroner Straße,Bozen,39100
46.486558,11.294273,Radweg Meran-Bozen,Bozen,39100
46.488557,11.288938,Radweg Meran-Bozen,Bozen,39100
46.489153,11.2882,Radweg Meran-Bozen,Bozen,39100
46.489905,11.287597,Radweg Meran-Bozen,Bozen,39100
46.492082,11.286793,Radweg Meran-Bozen,Bozen,39100
46.493407,11.285815,Radweg Meran-Bozen,Bozen,39100
46.494252,11.284628,Radweg Meran-Bozen,Bozen,39100
46.49718,11.279513,Radweg Meran-Bozen,Bozen,39100
46.498132,11.276737,Radweg Meran-Bozen,Bozen,39100
46.49858,11.272415,Radweg Meran-Bozen,Siebeneich,39018
46.49913,11.270958,Radweg Meran-Bozen,Siebeneich,39018
46.499635,11.270095,Radweg Meran-Bozen,Siebeneich,39018
46.50065,11.269197,Radweg Meran-Bozen,Siebeneich,39018
46.50902,11.264402,Radweg Meran-Bozen,Siebeneich,39018
46.510182,11.263452,Radweg Meran-Bozen,Siebeneich,39018
46.511283,11.261813,Radweg Meran-Bozen,Siebeneich,39018
46.5151,11.253433,Radweg Meran-Bozen,Siebeneich,39018
46.516963,11.251555,Radweg Meran-Bozen,Siebeneich,39018
46.518908,11.24872,Radweg Meran-Bozen,Siebeneich,39018
46.520213,11.247377,Radweg Meran-Bozen,Siebeneich,39018
46.532128,11.240267,Radweg Bozen - Meran,Vilpian,39018
46.533878,11.238792,Radweg Bozen - Meran,Vilpian,39018
46.535973,11.236537,Radweg Bozen - Meran,Vilpian,39018
46.538113,11.235002,Radweg Bozen - Meran,Vilpian,39018
46.539315,11.23438,Radweg Bozen - Meran,Vilpian,39018
46.540782,11.233133,Radweg Bozen - Meran,Vilpian,39018
46.541815,11.231552,Radweg Bozen - Meran,Vilpian,39018
46.543677,11.226565,Radweg Bozen - Meran,Vilpian,39018
46.544402,11.225428,Radweg Bozen - Meran,Vilpian,39018
46.54519,11.224983,Radweg Bozen - Meran,Vilpian,39018
46.548155,11.22441,Radweg Bozen - Meran,Vilpian,39010
46.54916,11.223935,Radweg Bozen - Meran,Vilpian,39010
46.550512,11.22278,Radweg Bozen - Meran,Vilpian,39010
46.551767,11.22088,Radweg Bozen - Meran,Vilpian,39010
46.552395,11.220188,Radweg Meran-Bozen,Vilpian,39018
46.553078,11.219747,Radweg Meran-Bozen,Vilpian,39018
46.555265,11.218892,Radweg Meran-Bozen,Vilpian,39018
46.556698,11.21771,Radweg Meran-Bozen,Terlan,39018
46.557818,11.217603,Radweg Meran-Bozen,Terlan,39018
46.55959,11.218607,Radweg Meran-Bozen,Terlan,39018
46.560657,11.218733,Radweg Meran-Bozen,Terlan,39018
46.561492,11.218472,Radweg Meran-Bozen,Terlan,39018
46.562435,11.217812,Radweg Meran-Bozen,Terlan,39018
46.567232,11.212552,Radweg Meran-Bozen,Gargazon,39010
46.568012,11.211487,Radweg Meran-Bozen,Gargazon,39010
46.569225,11.209095,Radweg Meran-Bozen,Gargazon,39010
46.572247,11.202083,Radweg Meran-Bozen,Gargazon,39010
46.573338,11.200387,Radweg Meran-Bozen,Gargazon,39010
46.580748,11.19211,Radweg Meran-Bozen,Gargazon,39010
46.582273,11.190828,Radweg Meran-Bozen,Gargazon,39010
46.583872,11.189888,Radweg Meran-Bozen,Gargazon,39010
46.583648,11.189973,Radweg Meran-Bozen,Gargazon,39010
46.58353,11.189788,Radweg Meran-Bozen,Gargazon,39010
46.58381,11.189927,Radweg Meran-Bozen,Gargazon,39010
46.58656,11.188713,Radweg Meran-Bozen,Gargazon,39010
46.58892,11.188023,Radweg Meran-Bozen,Gargazon,39010
46.591867,11.187562,Radweg Meran-Bozen,Burgstall,39014
46.595367,11.18734,Radweg Meran-Bozen,Burgstall,39014
46.597778,11.18679,Radweg Meran-Bozen,Burgstall,39014
46.604428,11.184515,Radweg Meran-Bozen,Burgstall,39014
46.609373,11.181358,Radweg Meran-Bozen,Burgstall,39014
46.610345,11.181112,Radweg Meran-Bozen,Burgstall,39014
46.611285,11.181238,Radweg Meran-Bozen,Burgstall,39014
46.612042,11.181547,Radweg Meran-Bozen,Burgstall,39014
46.614213,11.183632,Radweg Meran-Bozen,Burgstall,39014
46.615942,11.18454,Radweg Meran-Bozen,Burgstall,39014
46.618823,11.184845,Radweg Meran-Bozen,Burgstall,39014
46.620355,11.184563,Radweg Meran-Bozen,Burgstall,39014
46.621767,11.183873,Radweg Meran-Bozen,Burgstall,39014
46.629495,11.179332,Radweg Meran-Bozen,Meran,39012
46.630828,11.178,Radweg Meran-Bozen,Meran,39012
46.634068,11.173495,Sinichbachstraße,Meran,39012
46.63495,11.17284,Sinichbachstraße,Meran,39012
46.635535,11.17314,Sinichbachstraße,Meran,39012
46.637683,11.172038,Sinichbachstraße,Meran,39012
46.640375,11.172125,Rennstallweg,Meran,39012
46.642038,11.172638,Rennstallweg,Meran,39012
46.642975,11.173172,Rennstallweg,Meran,39012
46.647732,11.176758,Reichstraße,Meran,39012
46.647943,11.176607,Reichstraße,Meran,39012
46.648368,11.17699,Reichstraße,Meran,39012
46.648925,11.17695,Reichstraße,Meran,39012
46.649817,11.176372,Reichstraße,Meran,39012
46.650992,11.175147,Reichstraße,Meran,39012
46.652838,11.174773,Romstraße,Meran,39012
46.65325,11.174022,Romstraße,Meran,39012
46.654222,11.171232,Romstraße,Meran,39012
46.6567,11.168113,Romstraße,Meran,39012
46.658097,11.166538,Romstraße,Meran,39012
46.658848,11.165933,Romstraße,Meran,39012
46.65948,11.165507,Romstraße,Meran,39012
46.660825,11.165162,Romstraße,Meran,39012
46.662282,11.16385,Romstraße,Meran,39012
46.66329,11.164655,Romstraße,Meran,39012
46.663512,11.165803,Romstraße,Meran,39012
46.664275,11.166793,Romstraße,Meran,39012
46.66494,11.16898,Schafferstraße,Meran,39012
46.665312,11.16933,Schafferstraße,Meran,39012
46.66571,11.170128,Schafferstraße,Meran,39012
46.66626,11.169775,Schafferstraße,Meran,39012
46.667145,11.169542,Schafferstraße,Meran,39012
46.668825,11.168288,Schafferstraße,Meran,39012
46.669397,11.169052,Schafferstraße,Meran,39012
46.67011,11.169285,St.-Georgen-Straße,Meran,39012
46.670562,11.16965,St.-Georgen-Straße,Meran,39012
46.671222,11.17071,St.-Georgen-Straße,Meran,39012
46.672068,11.170942,St.-Georgen-Straße,Meran,39012
46.672978,11.172487,St.-Georgen-Straße,Meran,39012
46.673587,11.17294,St.-Georgen-Straße,Meran,39012
46.674977,11.172862,Jaufenstraße,Tirol,39019
46.676315,11.171804,Jaufenstraße,Tirol,39019
46.677827,11.171125,Jaufenstraße,Tirol,39019
46.678272,11.171087,Jaufenstraße,Tirol,39019
46.679707,11.171605,Purenweg,Tirol,39019
46.680557,11.171408,Purenweg,Tirol,39019
46.684993,11.173588,Purenweg,Tirol,39019
46.685805,11.173662,Purenweg,Tirol,39019
46.68678,11.173997,Purenweg,Tirol,39019
46.688157,11.175077,Purenweg,Tirol,39019
46.68897,11.175512,Purenweg,Tirol,39019
46.689765,11.174308,Purenweg,Tirol,39019
46.690462,11.173878,Purenweg,Tirol,39019
46.692665,11.172998,Purenweg,Tirol,39019
46.692737,11.174007,Purenweg,Tirol,39019
46.692403,11.174802,Purenweg,Tirol,39019
46.692398,11.175418,Purenweg,Tirol,39019
46.692963,11.175483,Purenweg,Tirol,39019
46.694418,11.176257,Braiterweg,Kuens,39010
46.695155,11.176083,Braiterweg,Kuens,39010
46.6963,11.176605,Braiterweg,Kuens,39010
46.69707,11.176483,Braiterweg,Kuens,39010
46.697882,11.176627,Braiterweg,Kuens,39010
46.699535,11.178497,Jaufenstraße,Riffian,39010
46.701068,11.179693,Jaufenstraße,Riffian,39010
46.70163,11.180375,Jaufenstraße,Riffian,39010
46.702248,11.180732,Jaufenstraße,Riffian,39010
46.702862,11.180728,Jaufenstraße,Riffian,39010
46.703218,11.18089,Jaufenstraße,Riffian,39010
46.704477,11.183457,Jaufenstraße,Riffian,39010
46.705137,11.184382,Jaufenstraße,Riffian,39010
46.70675,11.185532,Jaufenstraße,Riffian,39010
46.707427,11.185692,Jaufenstraße,Riffian,39010
46.708005,11.185295,Jaufenstraße,Riffian,39010
46.70824,11.185335,Jaufenstraße,Riffian,39010
46.708347,11.185975,Jaufenstraße,Riffian,39010
46.707988,11.187093,Jaufenstraße,Riffian,39010
46.70818,11.187448,Jaufenstraße,Riffian,39010
46.709567,11.187675,Jaufenstraße,Riffian,39010
46.710418,11.187443,Jaufenstraße,Riffian,39010
46.711345,11.18766,Jaufenstraße,Riffian,39010
46.712213,11.188258,Jaufenstraße,Riffian,39010
46.713302,11.188335,Jaufenstraße,Riffian,39010
46.713773,11.189167,Jaufenstraße,Riffian,39010
46.71447,11.189372,Jaufenstraße,Riffian,39010
46.715057,11.189058,Jaufenstraße,Riffian,39010
46.715632,11.190315,Jaufenstraße,Riffian,39010
46.716322,11.189992,Jaufenstraße,Riffian,39010
46.71682,11.190407,Jaufenstraße,Riffian,39010
46.717695,11.190363,Jaufenstraße,Riffian,39010
46.718337,11.190892,Jaufenstraße,Riffian,39010
46.719037,11.191033,Jaufenstraße,Riffian,39010
46.71983,11.191568,Jaufenstraße,Riffian,39010
46.721067,11.191278,Jaufenstraße,Riffian,39010
46.722175,11.191808,SS44,Riffian,39010
46.723857,11.193725,SS44,Riffian,39010
46.72483,11.194142,SS44,Riffian,39010
46.725345,11.195888,SS44,Riffian,39010
46.725893,11.196552,SS44,Riffian,39010
46.726358,11.197717,SS44,Riffian,39010
46.727238,11.19923,SS44,Riffian,39010
46.727918,11.199743,SS44,Riffian,39010
46.728435,11.19948,SS44,Riffian,39010
46.728743,11.199522,SS44,Riffian,39010
46.729607,11.200658,Passeirer Straße,Saltaus,39010
46.730432,11.200582,Passeirer Straße,Saltaus,39010
46.731225,11.19951,Passeirer Straße,Saltaus,39010
46.73209,11.199097,Passeirer Straße,Saltaus,39010
46.737105,11.199743,Passeirer Straße,Saltaus,39010
46.739432,11.201422,Passeirer Straße,Saltaus,39010
46.741928,11.204342,Passeirer Straße,Quellenhof,39010
46.743027,11.204895,Passeirer Straße,Quellenhof,39010
46.745493,11.204725,Passeirer Straße,Quellenhof,39010
46.74616,11.20509,Passeirer Straße,Quellenhof,39010
46.74639,11.205273,SS44,Quellenhof,39010
46.747705,11.207937,SS44,Quellenhof,39010
46.748052,11.208122,SS44,Quellenhof,39010
46.748453,11.208028,SS44,Quellenhof,39010
46.748968,11.207075,SS44,Quellenhof,39010
46.749645,11.206487,SS44,Quellenhof,39010
46.751085,11.205988,Passeirer Straße,Quellenhof,39010
46.751215,11.206047,Passeirer Straße,Quellenhof,39010
46.751195,11.206287,Passeirer Straße,Quellenhof,39010
46.75114,11.206077,Passeirer Straße,Quellenhof,39010
46.751513,11.205943,Passeirer Straße,Quellenhof,39010
46.754205,11.206307,Passeirer Straße,Quellenhof,39010
46.755485,11.20701,Passeirer Straße,Quellenhof,39010
46.757555,11.206983,Passeirer Straße,Quellenhof,39010
46.758222,11.207195,Passeirer Straße,Quellenhof,39010
46.763322,11.21066,Passeirer Straße,Quellenhof,39010
46.764725,11.212402,Passeirer Straße,Quellenhof,39010
46.7655,11.214548,Passeirer Straße,Quellenhof,39010
46.76682,11.214543,Passeirer Straße,Quellenhof,39010
46.76784,11.215023,Passeirer Straße,St. Martin in Passeier,39010
46.769197,11.216758,Passeirer Straße,St. Martin in Passeier,39010
46.770383,11.217183,Passeirer Straße,St. Martin in Passeier,39010
46.771452,11.217023,Passeirer Straße,St. Martin in Passeier,39010
46.771957,11.21711,Passeirer Straße,St. Martin in Passeier,39010
46.772825,11.217642,Passeirer Straße,St. Martin in Passeier,39010
46.774868,11.218233,Passeirer Straße,St. Martin in Passeier,39010
46.775777,11.218723,Passeirer Straße,St. Martin in Passeier,39010
46.77615,11.21921,Passeirer Straße,St. Martin in Passeier,39010
46.776878,11.220962,Passeirer Straße,St. Martin in Passeier,39010
46.778185,11.222735,Passeirer Straße,St. Martin in Passeier,39010
46.778618,11.2245,Passeirer Straße,St. Martin in Passeier,39010
46.779188,11.225377,Passeirer Straße,St. Martin in Passeier,39010
46.780522,11.226762,Jaufenstraße,St. Martin in Passeier,39010
46.785243,11.229805,Jaufenstraße,St. Martin in Passeier,39010
46.786357,11.230742,Jaufenstraße,St. Martin in Passeier,39010
46.787303,11.231155,Jaufenstraße,St. Martin in Passeier,39010
46.788297,11.231203,Jaufenstraße,St. Martin in Passeier,39010
46.789945,11.230553,Jaufenstraße,St. Martin in Passeier,39010
46.791252,11.230917,Jaufenstraße,St. Martin in Passeier,39010
46.792335,11.230178,Jaufenstraße,St. Martin in Passeier,39010
46.792805,11.230232,Jaufenstraße,St. Martin in Passeier,39010
46.794482,11.232243,Jaufenstraße,St. Martin in Passeier,39010
46.795315,11.232952,Jaufenstraße,St. Martin in Passeier,39010
46.796427,11.233262,Jaufenstraße,St. Martin in Passeier,39010
46.79782,11.234362,Jaufenstraße,St. Martin in Passeier,39010
46.798382,11.235655,SS44,St. Leonhard in Passeier,39015
46.799237,11.236532,SS44,St. Leonhard in Passeier,39015
46.799732,11.237448,SS44,St. Leonhard in Passeier,39015
46.800268,11.237937,SS44,St. Leonhard in Passeier,39015
46.801063,11.238175,SS44,St. Leonhard in Passeier,39015
46.802065,11.238937,SS44,St. Leonhard in Passeier,39015
46.802622,11.239692,SS44,St. Leonhard in Passeier,39015
46.803727,11.24199,SS44,St. Leonhard in Passeier,39015
46.804987,11.242762,SS44,St. Leonhard in Passeier,39015
46.8073,11.245188,SS44,St. Leonhard in Passeier,39015
46.808088,11.245475,SS44,St. Leonhard in Passeier,39015
46.80876,11.245355,SS44,St. Leonhard in Passeier,39015
46.809477,11.244753,SS44,St. Leonhard in Passeier,39015
46.81008,11.243848,SS44,St. Leonhard in Passeier,39015
46.810333,11.243753,SS44,St. Leonhard in Passeier,39015
46.810465,11.244778,SS44,St. Leonhard in Passeier,39015
46.811202,11.246387,SS44,St. Leonhard in Passeier,39015
46.81115,11.246547,SS44,St. Leonhard in Passeier,39015
46.811245,11.246257,SS44,St. Leonhard in Passeier,39015
46.811005,11.246532,SS44,St. Leonhard in Passeier,39015
46.811132,11.246338,SS44,St. Leonhard in Passeier,39015
46.811258,11.24672,SS44,St. Leonhard in Passeier,39015
46.811127,11.246933,SS44,St. Leonhard in Passeier,39015
46.81132,11.246943,SS44,St. Leonhard in Passeier,39015
46.811225,11.246487,SS44,St. Leonhard in Passeier,39015
46.811157,11.246575,SS44,St. Leonhard in Passeier,39015
46.811542,11.246755,SS44,St. Leonhard in Passeier,39015
46.81193,11.247252,Gerberweg,St. Leonhard in Passeier,39015
46.812332,11.246958,Gerberweg,St. Leonhard in Passeier,39015
46.812905,11.246087,Gerberweg,St. Leonhard in Passeier,39015
46.81334,11.24428,Gerberweg,St. Leonhard in Passeier,39015
46.814833,11.24471,Gerberweg,St. Leonhard in Passeier,39015
46.815755,11.245188,Gerberweg,St. Leonhard in Passeier,39015
46.816903,11.244363,Jaufenstraße,St. Leonhard in Passeier,39015
46.817413,11.244333,Jaufenstraße,St. Leonhard in Passeier,39015
46.817945,11.243542,Jaufenstraße,St. Leonhard in Passeier,39015
46.81831,11.242403,Jaufenstraße,St. Leonhard in Passeier,39015
46.818543,11.238712,Jaufenstraße,St. Leonhard in Passeier,39015
46.818817,11.241715,Jaufenstraße,St. Leonhard in Passeier,39015
46.819253,11.242273,Jaufenstraße,St. Leonhard in Passeier,39015
46.819168,11.242975,Jaufenstraße,St. Leonhard in Passeier,39015
46.818778,11.243597,Jaufenstraße,St. Leonhard in Passeier,39015
46.818895,11.244577,Jaufenstraße,St. Leonhard in Passeier,39015
46.818385,11.24452,Jaufenstraße,St. Leonhard in Passeier,39015
46.818217,11.2447,Jaufenstraße,St. Leonhard in Passeier,39015
46.818132,11.245872,Jaufenstraße,St. Leonhard in Passeier,39015
46.81741,11.248782,Jaufenstraße,St. Leonhard in Passeier,39015
46.816953,11.248763,Jaufenstraße,St. Leonhard in Passeier,39015
46.816717,11.24904,Jaufenstraße,St. Leonhard in Passeier,39015
46.816832,11.250138,Jaufenstraße,St. Leonhard in Passeier,39015
46.81657,11.251113,Jaufenstraße,St. Leonhard in Passeier,39015
46.817113,11.251518,Jaufenstraße,St. Leonhard in Passeier,39015
46.817235,11.252827,Jaufenstraße,St. Leonhard in Passeier,39015
46.817377,11.252948,Jaufenstraße,St. Leonhard in Passeier,39015
46.817378,11.25126,Jaufenstraße,St. Leonhard in Passeier,39015
46.817213,11.250822,Jaufenstraße,St. Leonhard in Passeier,39015
46.817457,11.249905,Jaufenstraße,St. Leonhard in Passeier,39015
46.817948,11.249443,Jaufenstraße,St. Leonhard in Passeier,39015
46.81961,11.245833,Jaufenstraße,St. Leonhard in Passeier,39015
46.818728,11.248647,Jaufenstraße,St. Leonhard in Passeier,39015
46.818368,11.250758,Jaufenstraße,St. Leonhard in Passeier,39015
46.818752,11.253367,Jaufenstraße,St. Leonhard in Passeier,39015
46.819662,11.25685,Jaufenstraße,St. Leonhard in Passeier,39015
46.819812,11.258025,Jaufenstraße,St. Leonhard in Passeier,39015
46.819947,11.258132,Jaufenstraße,St. Leonhard in Passeier,39015
46.819323,11.252715,Jaufenstraße,St. Leonhard in Passeier,39015
46.819707,11.249758,Jaufenstraße,St. Leonhard in Passeier,39015
46.821075,11.246597,Jaufenstraße,St. Leonhard in Passeier,39015
46.819965,11.250308,Jaufenstraße,St. Leonhard in Passeier,39015
46.819998,11.251967,Jaufenstraße,St. Leonhard in Passeier,39015
46.820272,11.253603,Jaufenstraße,Walten,39015
46.820888,11.255887,Jaufenstraße,Walten,39015
46.821733,11.257668,Jaufenstraße,Walten,39015
46.822473,11.261065,Jaufenstraße,Walten,39015
46.82356,11.264088,Jaufenstraße,Walten,39015
46.824528,11.269012,Jaufenstraße,Walten,39015
46.826019,11.271228,Jaufenstraße,Walten,39015
46.826253,11.272042,Jaufenstraße,Walten,39015
46.825852,11.273058,Jaufenstraße,Walten,39015
46.826027,11.273805,Jaufenstraße,Walten,39015
46.825493,11.2748,Jaufenstraße,Walten,39015
46.825925,11.275742,Jaufenstraße,Walten,39015
46.825305,11.276293,Jaufenstraße,Walten,39015
46.825327,11.27711,Jaufenstraße,Walten,39015
46.824925,11.277917,Jaufenstraße,Walten,39015
46.824573,11.278093,Jaufenstraße,Walten,39015
46.82454,11.27927,Jaufenstraße,Walten,39015
46.82493,11.281417,Jaufenstraße,Walten,39015
46.82574,11.28325,Jaufenstraße,Walten,39015
46.826158,11.283798,Jaufenstraße,Walten,39015
46.826052,11.28436,Jaufenstraße,Walten,39015
46.826768,11.287087,Jaufenstraße,Walten,39015
46.826325,11.287825,Jaufenstraße,Walten,39015
46.826293,11.28862,Jaufenstraße,Walten,39015
46.827058,11.292938,Jaufenstraße,Walten,39015
46.826947,11.29372,Jaufenstraße,Walten,39015
46.827187,11.295517,Jaufenstraße,Walten,39015
46.826895,11.298973,Jaufenstraße,Walten,39015
46.827338,11.301723,Waltner Rundweg,Walten,39015
46.827042,11.3024,Waltner Rundweg,Walten,39015
46.827297,11.303697,Waltner Rundweg,Walten,39015
46.827223,11.305015,Waltner Rundweg,Walten,39015
46.826605,11.30644,Waltner Rundweg,Walten,39015
46.82647,11.308137,Waltner Rundweg,Walten,39015
46.826018,11.310345,Jaufenstraße,Walten,39015
46.826198,11.310443,Jaufenstraße,Walten,39015
46.826578,11.308988,Jaufenstraße,Walten,39015
46.827945,11.30632,Jaufenstraße,Walten,39015
46.828107,11.306207,Jaufenstraße,Walten,39015
46.828408,11.306332,Jaufenstraße,Walten,39015
46.828573,11.306077,Jaufenstraße,Walten,39015
46.82869,11.303948,Jaufenstraße,Walten,39015
46.829192,11.30267,Jaufenstraße,Walten,39015
46.829405,11.301635,Jaufenstraße,Walten,39015
46.829347,11.300382,Jaufenstraße,Walten,39015
46.829098,11.29985,Jaufenstraße,Walten,39015
46.829117,11.299443,Jaufenstraße,Walten,39015
46.829758,11.298257,Jaufenstraße,Walten,39015
46.829817,11.299528,Jaufenstraße,Walten,39015
46.830312,11.30048,Jaufenstraße,Walten,39015
46.829993,11.302947,Jaufenstraße,Walten,39015
46.829607,11.303573,Jaufenstraße,Walten,39015
46.83021,11.306145,Jaufenstraße,Walten,39015
46.830192,11.30684,Jaufenstraße,Walten,39015
46.829992,11.307265,Jaufenstraße,Walten,39015
46.829818,11.307248,Jaufenstraße,Walten,39015
46.830018,11.30734,Jaufenstraße,Walten,39015
46.830132,11.30777,Jaufenstraße,Walten,39015
46.829922,11.308117,Jaufenstraße,Walten,39015
46.829297,11.308318,Jaufenstraße,Walten,39015
46.829115,11.308597,Jaufenstraße,Walten,39015
46.828723,11.310157,Jaufenstraße,Walten,39015
46.829025,11.310842,Jaufenstraße,Walten,39015
46.829112,11.311867,Jaufenstraße,Walten,39015
46.828992,11.312742,Jaufenstraße,Walten,39015
46.82845,11.313223,Jaufenstraße,Walten,39015
46.828047,11.313882,Jaufenstraße,Walten,39015
46.827998,11.31461,Jaufenstraße,Walten,39015
46.828135,11.314557,Jaufenstraße,Walten,39015
46.828185,11.313982,Jaufenstraße,Walten,39015
46.829138,11.313152,Jaufenstraße,Walten,39015
46.82962,11.312238,Jaufenstraße,Walten,39015
46.829698,11.310928,Jaufenstraße,Walten,39015
46.830292,11.310712,Jaufenstraße,Walten,39015
46.830443,11.310125,Jaufenstraße,Walten,39015
46.830698,11.309802,Jaufenstraße,Walten,39015
46.831128,11.309648,Jaufenstraße,Walten,39015
46.831468,11.309842,Jaufenstraße,Walten,39015
46.831682,11.309655,Jaufenstraße,Walten,39015
46.831753,11.309018,Jaufenstraße,Walten,39015
46.832142,11.30832,Jaufenstraße,Walten,39015
46.832365,11.305702,Jaufenstraße,Walten,39015
46.833307,11.305403,Jaufenstraße,Walten,39015
46.833722,11.30437,Jaufenstraße,Walten,39015
46.833398,11.302877,Jaufenstraße,Walten,39015
46.833495,11.302597,Jaufenstraße,Walten,39015
46.834222,11.304535,Jaufenstraße,Walten,39015
46.834387,11.305788,Jaufenstraße,Walten,39015
46.8342,11.306697,Jaufenstraße,Walten,39015
46.833683,11.306927,Jaufenstraße,Walten,39015
46.833573,11.3073,Jaufenstraße,Walten,39015
46.833925,11.308232,Jaufenstraße,Walten,39015
46.833688,11.309755,Jaufenstraße,Walten,39015
46.833985,11.311553,Jaufenstraße,Walten,39015
46.833943,11.312177,Jaufenstraße,Walten,39015
46.833782,11.312567,Jaufenstraße,Walten,39015
46.833218,11.31273,Jaufenstraße,Walten,39015
46.833027,11.312942,Jaufenstraße,Walten,39015
46.832815,11.313615,Jaufenstraße,Walten,39015
46.832455,11.313973,Jaufenstraße,Walten,39015
46.831963,11.314967,Jaufenstraße,Walten,39015
46.831762,11.315918,Jaufenstraße,Walten,39015
46.831907,11.315885,Jaufenstraße,Walten,39015
46.832207,11.314912,Jaufenstraße,Walten,39015
46.833105,11.313968,Jaufenstraße,Walten,39015
46.833652,11.313608,Jaufenstraße,Walten,39015
46.83498,11.313625,Jaufenstraße,Walten,39015
46.835627,11.313408,Jaufenstraße,Walten,39015
46.83658,11.31189,Jaufenstraße,Walten,39015
46.837152,11.311905,Jaufenstraße,Walten,39015
46.837475,11.311723,Jaufenstraße,Walten,39015
46.837987,11.310723,Jaufenstraße,Walten,39015
46.837902,11.309927,Jaufenstraße,Walten,39015
46.838292,11.309587,Jaufenstraße,Walten,39015
46.838468,11.309025,Jaufenstraße,Walten,39015
46.838515,11.30647,Jaufenstraße,Walten,39015
46.837917,11.302275,Jaufenstraße,Walten,39015
46.838105,11.301395,Jaufenstraße,Walten,39015
46.838173,11.29856,Jaufenstraße,Walten,39015
46.83851,11.301228,Jaufenstraße,Walten,39015
46.838363,11.302575,Jaufenstraße,Walten,39015
46.839077,11.304362,Jaufenstraße,Walten,39015
46.839218,11.306352,Jaufenstraße,Walten,39015
46.83958,11.307858,Jaufenstraße,Walten,39015
46.840287,11.308835,Jaufenstraße,Walten,39015
46.840462,11.31036,Jaufenstraße,Walten,39015
46.839915,11.312465,Jaufenstraße,Walten,39015
46.83926,11.313497,Jaufenstraße,Walten,39015
46.839048,11.314143,Jaufenstraße,Walten,39015
46.83986,11.31698,Jaufenstraße,Walten,39015
46.839997,11.31802,Jaufenstraße,Walten,39015
46.839848,11.3197,Jaufenstraße,Walten,39015
46.839472,11.320643,Jaufenstraße,Walten,39015
46.839358,11.320737,Jaufenstraße,Walten,39015
46.83927,11.32062,Jaufenstraße,Walten,39015
46.839902,11.32204,Jaufenstraße,Walten,39015
46.840108,11.32431,Jaufenstraße,Ratschings,39040
46.840467,11.324702,Jaufenstraße,Ratschings,39040
46.840665,11.325338,Jaufenstraße,Ratschings,39040
46.840793,11.325078,Jaufenstraße,Ratschings,39040
46.840532,11.323758,Jaufenstraße,Ratschings,39040
46.840565,11.323188,Jaufenstraße,Ratschings,39040
46.841175,11.322397,Jaufenstraße,Ratschings,39040
46.841498,11.321585,Jaufenstraße,Ratschings,39040
46.842128,11.321087,Jaufenstraße,Ratschings,39040
46.842962,11.326122,Jaufenstraße,Ratschings,39040
46.843435,11.326895,Jaufenstraße,Ratschings,39040
46.84364,11.32758,Jaufenstraße,Ratschings,39040
46.843737,11.327635,Jaufenstraße,Ratschings,39040
46.843785,11.32742,Jaufenstraße,Ratschings,39040
46.84353,11.32629,Jaufenstraße,Ratschings,39040
46.843635,11.326082,Jaufenstraße,Ratschings,39040
46.8441,11.327173,Jaufenstraße,Ratschings,39040
46.84472,11.328125,Jaufenstraße,Ratschings,39040
46.845218,11.3295,Jaufenstraße,Ratschings,39040
46.846402,11.330622,Jaufenstraße,Ratschings,39040
46.84729,11.332395,Jaufenstraße,Ratschings,39040
46.847562,11.332577,Jaufenstraße,Ratschings,39040
46.84851,11.332645,Jaufenstraße,Ratschings,39040
46.849225,11.333587,Jaufenstraße,Ratschings,39040
46.850925,11.334028,Jaufenstraße,Ratschings,39040
46.85156,11.334528,Jaufenstraße,Ratschings,39040
46.85168,11.334883,Jaufenstraße,Ratschings,39040
46.851523,11.335883,Jaufenstraße,Ratschings,39040
46.85167,11.337198,Jaufenstraße,Ratschings,39040
46.85251,11.339403,Jaufenstraße,Ratschings,39040
46.853305,11.340575,Jaufenstraße,Ratschings,39040
46.854492,11.341603,Jaufenstraße,Ratschings,39040
46.855337,11.3419,Jaufenstraße,Ratschings,39040
46.855952,11.341695,Jaufenstraße,Ratschings,39040
46.856193,11.341868,Jaufenstraße,Ratschings,39040
46.856593,11.344613,Jaufenstraße,Ratschings,39040
46.857333,11.346445,Jaufenstraße,Ratschings,39040
46.857633,11.34828,Jaufenstraße,Ratschings,39040
46.859092,11.351347,Jaufenstraße,Ratschings,39040
46.859555,11.354612,Jaufenstraße,Ratschings,39040
46.859595,11.356153,Jaufenstraße,Ratschings,39040
46.859598,11.35603,Jaufenstraße,Ratschings,39040
46.860262,11.358567,Jaufenstraße,Ratschings,39040
46.860673,11.359417,Jaufenstraße,Ratschings,39040
46.86061,11.359922,Jaufenstraße,Ratschings,39040
46.860165,11.36048,Jaufenstraße,Ratschings,39040
46.860185,11.360655,Jaufenstraße,Ratschings,39040
46.860923,11.360142,Jaufenstraße,Ratschings,39040
46.86119,11.359543,Jaufenstraße,Ratschings,39040
46.86077,11.356753,Jaufenstraße,Ratschings,39040
46.861143,11.354237,Jaufenstraße,Ratschings,39040
46.861103,11.352277,Jaufenstraße,Ratschings,39040
46.861612,11.350872,Jaufenstraße,Pardaun,39040
46.86161,11.350122,Jaufenstraße,Pardaun,39040
46.861785,11.350877,Jaufenstraße,Pardaun,39040
46.861697,11.3532,Jaufenstraße,Pardaun,39040
46.862163,11.353912,Jaufenstraße,Pardaun,39040
46.862912,11.354448,Jaufenstraße,Pardaun,39040
46.863835,11.356968,Jaufenstraße,Pardaun,39040
46.863917,11.357935,Jaufenstraße,Pardaun,39040
46.863735,11.359573,Jaufenstraße,Pardaun,39040
46.864163,11.361013,Jaufenstraße,Pardaun,39040
46.86387,11.361767,Jaufenstraße,Pardaun,39040
46.864103,11.362638,Jaufenstraße,Pardaun,39040
46.864085,11.36192,Jaufenstraße,Pardaun,39040
46.864642,11.361135,Jaufenstraße,Pardaun,39040
46.865372,11.357018,Jaufenstraße,Pardaun,39040
46.865182,11.354632,Jaufenstraße,Pardaun,39040
46.866382,11.355208,Jaufenstraße,Pardaun,39040
46.866798,11.357078,Jaufenstraße,Pardaun,39040
46.867292,11.35794,Jaufenstraße,Pardaun,39040
46.867552,11.358917,Jaufenstraße,Pardaun,39040
46.867107,11.359768,Jaufenstraße,Pardaun,39040
46.867018,11.36036,Jaufenstraße,Pardaun,39040
46.86722,11.36166,Jaufenstraße,Pardaun,39040
46.867562,11.36196,Jaufenstraße,Pardaun,39040
46.8682,11.36203,Jaufenstraße,Pardaun,39040
46.868342,11.362267,Jaufenstraße,Pardaun,39040
46.867923,11.363283,Jaufenstraße,Pardaun,39040
46.86783,11.36635,Jaufenstraße,Pardaun,39040
46.869162,11.367492,Jaufenstraße,Pardaun,39040
46.870182,11.36867,Jaufenstraße,Pardaun,39040
46.87118,11.370782,Jaufenstraße,Pardaun,39040
46.871312,11.3726,Jaufenstraße,Pardaun,39040
46.870508,11.375323,Jaufenstraße,Stange,39040
46.870518,11.37619,Jaufenstraße,Stange,39040
46.870697,11.376402,Jaufenstraße,Stange,39040
46.871177,11.376517,Jaufenstraße,Stange,39040
46.872015,11.376172,Jaufenstraße,Stange,39040
46.872318,11.376557,Jaufenstraße,Stange,39040
46.872697,11.379845,Jaufenstraße,Stange,39040
46.872303,11.380705,Jaufenstraße,Stange,39040
46.873535,11.382793,Jaufenstraße,Stange,39040
46.873795,11.38386,Jaufenstraße,Stange,39040
46.873568,11.386453,Jaufenstraße,Stange,39040
46.873863,11.3873,Jaufenstraße,Stange,39040
46.873883,11.388342,Jaufenstraße,Stange,39040
46.873628,11.389705,Jaufenstraße,Stange,39040
46.874235,11.390702,Jaufenstraße,Stange,39040
46.875063,11.394293,Jaufenstraße,Stange,39040
46.874853,11.392428,Jaufenstraße,Stange,39040
46.874958,11.390435,Jaufenstraße,Stange,39040
46.875323,11.389268,Jaufenstraße,Stange,39040
46.87539,11.387893,Jaufenstraße,Stange,39040
46.876387,11.383765,Jaufenstraße,Stange,39040
46.876745,11.379463,Jaufenstraße,Stange,39040
46.876873,11.379035,Jaufenstraße,Stange,39040
46.877035,11.379063,Jaufenstraße,Stange,39040
46.87685,11.379888,Jaufenstraße,Stange,39040
46.877325,11.381027,Jaufenstraße,Stange,39040
46.877408,11.383675,Jaufenstraße,Stange,39040
46.87775,11.386552,Jaufenstraße,Stange,39040
46.877695,11.387532,Jaufenstraße,Stange,39040
46.878,11.38915,Jaufenstraße,Stange,39040
46.878018,11.391463,Jaufenstraße,Stange,39040
46.878685,11.394882,Jaufenstraße,Stange,39040
46.878548,11.395947,Jaufenstraße,Stange,39040
46.879135,11.396832,Jaufenstraße,Stange,39040
46.879318,11.397888,Jaufenstraße,Stange,39040
46.879227,11.401198,Jaufenstraße,Stange,39040
46.879675,11.404227,Jaufenstraße,Stange,39040
46.880122,11.405428,Jaufenstraße,Gasteig,39040
46.881532,11.40711,Jaufenstraße,Gasteig,39040
46.883785,11.410435,Jaufenstraße,Gasteig,39040
46.885823,11.412982,Jaufenstraße,Gasteig,39040
46.886815,11.414733,Jaufenstraße,Gasteig,39040
46.887092,11.415872,Jaufenstraße,Sterzing,39049
46.886937,11.42464,Jaufenstraße,Sterzing,39049
46.887058,11.426945,Jaufenstraße,Sterzing,39049
46.887267,11.427748,Jaufenstraße,Sterzing,39049
46.88888,11.430543,Jaufenstraße,Sterzing,39049
46.88949,11.43086,Deutschhausstraße,Sterzing,39049
46.890593,11.430553,Deutschhausstraße,Sterzing,39049
46.89191,11.42956,Deutschhausstraße,Sterzing,39049
46.892604,11.428588,Deutschhausstraße,Sterzing,39049
46.893083,11.428345,Deutschhausstraße,Sterzing,39049
46.893427,11.428402,Deutschhausstraße,Sterzing,39049
46.894217,11.42887,Hochstraße,Sterzing,39049
46.895847,11.430347,Hochstraße,Sterzing,39049
46.896883,11.430988,Hochstraße,Sterzing,39049
46.897067,11.431872,Hochstraße,Sterzing,39049
46.897857,11.431575,Hochstraße,Sterzing,39049
46.89793,11.432805,Rathausgasse,Sterzing,39049
46.89812,11.433238,Rathausgasse,Sterzing,39049
46.895143,11.432508,Rathausgasse,Sterzing,39049
46.894937,11.432665,Rathausgasse,Sterzing,39049
46.894042,11.432678,Rathausgasse,Sterzing,39049
46.892288,11.433802,Deutschhausstraße,Sterzing,39049
46.891888,11.433832,Deutschhausstraße,Sterzing,39049
46.891348,11.43363,Deutschhausstraße,Sterzing,39049
46.890915,11.434158,Deutschhausstraße,Sterzing,39049
46.887075,11.435848,Brennerautobahn,Sterzing,39049
46.884997,11.437226,Brennerautobahn,Sterzing,39049
46.883495,11.437548,Brennerautobahn,Sterzing,39049
46.883225,11.43998,Brennerautobahn,Freienfeld,39040
46.882612,11.441158,Brennerautobahn,Freienfeld,39040
46.88178,11.441478,Brennerautobahn,Freienfeld,39040
46.8815,11.441903,Brennerautobahn,Freienfeld,39040
46.881443,11.442517,Brennerautobahn,Freienfeld,39040
46.881778,11.443488,Brennerautobahn,Freienfeld,39040
46.881752,11.444273,Brennerautobahn,Freienfeld,39040
46.88072,11.447073,GS/SC16.3,Freienfeld,39040
46.878046,11.445553,GS/SC16.3,Freienfeld,39040
46.877335,11.445748,GS/SC16.3,Freienfeld,39040
46.876688,11.44533,GS/SC16.3,Freienfeld,39040
46.875603,11.445423,Elzenbaum,Freienfeld,39040
46.874482,11.445055,Elzenbaum,Freienfeld,39040
46.874242,11.4454,Elzenbaum,Freienfeld,39040
46.873788,11.445432,Elzenbaum,Freienfeld,39040
46.873502,11.44593,Elzenbaum,Freienfeld,39040
46.873128,11.445505,Elzenbaum,Freienfeld,39040
46.872975,11.445567,Elzenbaum,Freienfeld,39040
46.872192,11.446705,Elzenbaum,Freienfeld,39040
46.871732,11.447688,Elzenbaum,Freienfeld,39040
46.871277,11.449982,SS508,Freienfeld,39040
46.87065,11.451082,SS508,Freienfeld,39040
46.869705,11.45366,SS508,Freienfeld,39040
46.868547,11.455358,SS508,Freienfeld,39040
46.86791,11.455005,SS508,Freienfeld,39040
46.867578,11.455105,SS508,Freienfeld,39040
46.86745,11.456357,SS508,Freienfeld,39040
46.866943,11.456412,SS508,Freienfeld,39040
46.866638,11.456678,SS508,Freienfeld,39040
46.866622,11.457223,SS508,Freienfeld,39040
46.865783,11.458942,SS508,Freienfeld,39040
46.86549,11.459382,SS508,Freienfeld,39040
46.864773,11.45962,Penserjochstraße,Freienfeld,39040
46.864493,11.46077,Penserjochstraße,Freienfeld,39040
46.863932,11.460993,Penserjochstraße,Freienfeld,39040
46.863408,11.461877,Penserjochstraße,Freienfeld,39040
46.863065,11.463892,Penserjochstraße,Freienfeld,39040
46.863162,11.46467,Penserjochstraße,Freienfeld,39040
46.862733,11.46581,SS508,Freienfeld,39040
46.86243,11.467633,SS508,Freienfeld,39040
46.86221,11.467728,SS508,Freienfeld,39040
46.861238,11.467523,SS508,Freienfeld,39040
46.8604,11.466987,SS508,Freienfeld,39040
46.859377,11.466637,SS508,Freienfeld,39040
46.858703,11.466867,SS508,Freienfeld,39040
46.858332,11.466767,SS508,Freienfeld,39040
46.858165,11.466965,SS508,Freienfeld,39040
46.858167,11.467207,SS508,Freienfeld,39040
46.858932,11.468253,SS508,Freienfeld,39040
46.859823,11.469978,SS508,Freienfeld,39040
46.86011,11.470672,SS508,Freienfeld,39040
46.860178,11.471387,SS508,Freienfeld,39040
46.860575,11.471963,SS508,Freienfeld,39040
46.860385,11.472652,SS508,Freienfeld,39040
46.860795,11.473828,SS508,Freienfeld,39040
46.860457,11.47561,SS508,Freienfeld,39040
46.859965,11.47637,SS508,Freienfeld,39040
46.859705,11.47721,SS508,Freienfeld,39040
46.858508,11.478717,SS508,Freienfeld,39040
46.858225,11.479295,SS508,Freienfeld,39040
46.856908,11.479757,SS508,Freienfeld,39040
46.856512,11.480055,SS508,Freienfeld,39040
46.856277,11.481967,SS508,Freienfeld,39040
46.855923,11.482685,SS508,Freienfeld,39040
46.855343,11.483213,SS508,Freienfeld,39040
46.855332,11.483953,SS508,Freienfeld,39040
46.855105,11.484688,SS508,Freienfeld,39040
46.85414,11.485865,SS508,Freienfeld,39040
46.853448,11.486377,SS508,Freienfeld,39040
46.853135,11.486848,SS508,Freienfeld,39040
46.852985,11.487553,SS508,Freienfeld,39040
46.85244,11.487738,SS508,Freienfeld,39040
46.851995,11.488585,SS508,Freienfeld,39040
46.851355,11.48881,SS508,Freienfeld,39040
46.85091,11.488423,SS508,Freienfeld,39040
46.850125,11.488167,SS508,Freienfeld,39040
46.849425,11.487578,SS508,Freienfeld,39040
46.847305,11.486473,SS508,Freienfeld,39040
46.847373,11.4862,SS508,Freienfeld,39040
46.847533,11.486465,SS508,Freienfeld,39040
46.84761,11.486318,SS508,Freienfeld,39040
46.848013,11.486463,SS508,Freienfeld,39040
46.848968,11.48626,SS508,Freienfeld,39040
46.849843,11.486525,SS508,Freienfeld,39040
46.850202,11.48633,SS508,Freienfeld,39040
46.850647,11.48637,SS508,Freienfeld,39040
46.850768,11.486075,SS508,Freienfeld,39040
46.850598,11.485815,SS508,Freienfeld,39040
46.849768,11.486028,SS508,Freienfeld,39040
46.849563,11.485935,SS508,Freienfeld,39040
46.8477,11.484477,SS508,Freienfeld,39040
46.847262,11.483767,SS508,Freienfeld,39040
46.846752,11.482135,SS508,Freienfeld,39040
46.845797,11.48062,SS508,Freienfeld,39040
46.845128,11.479938,SS508,Freienfeld,39040
46.844567,11.479733,SS508,Freienfeld,39040
46.844055,11.47978,SS508,Freienfeld,39040
46.843817,11.479528,SS508,Freienfeld,39040
46.84365,11.478642,SS508,Freienfeld,39040
46.843667,11.477125,SS508,Freienfeld,39040
46.842948,11.474885,SS508,Freienfeld,39040
46.842275,11.47368,SS508,Freienfeld,39040
46.842017,11.472593,SS508,Freienfeld,39040
46.841153,11.472145,SS508,Freienfeld,39040
46.840415,11.470595,SS508,Freienfeld,39040
46.840242,11.469857,SS508,Freienfeld,39040
46.83933,11.468325,SS508,Freienfeld,39040
46.83931,11.466347,SS508,Freienfeld,39040
46.839078,11.46505,SS508,Freienfeld,39040
46.839263,11.464393,SS508,Freienfeld,39040
46.838773,11.463635,SS508,Freienfeld,39040
46.838583,11.462847,SS508,Freienfeld,39040
46.838888,11.461668,SS508,Freienfeld,39040
46.838287,11.461435,SS508,Freienfeld,39040
46.838248,11.46075,SS508,Freienfeld,39040
46.837855,11.46052,SS508,Freienfeld,39040
46.83774,11.459953,SS508,Freienfeld,39040
46.836923,11.45847,SS508,Freienfeld,39040
46.836633,11.457622,SS508,Freienfeld,39040
46.836362,11.455923,SS508,Freienfeld,39040
46.835685,11.45535,SS508,Freienfeld,39040
46.83519,11.454588,SS508,Freienfeld,39040
46.83453,11.454087,SS508,Freienfeld,39040
46.834512,11.453928,SS508,Freienfeld,39040
46.834857,11.453978,SS508,Freienfeld,39040
46.835615,11.454592,SS508,Freienfeld,39040
46.836405,11.454755,SS508,Freienfeld,39040
46.836763,11.455025,SS508,Freienfeld,39040
46.839028,11.45882,SS508,Freienfeld,39040
46.83909,11.458658,SS508,Freienfeld,39040
46.838788,11.458105,SS508,Freienfeld,39040
46.838452,11.456805,SS508,Freienfeld,39040
46.836925,11.45379,SS508,Freienfeld,39040
46.836592,11.452325,SS508,Freienfeld,39040
46.83589,11.45159,SS508,Freienfeld,39040
46.835027,11.451462,SS508,Freienfeld,39040
46.834638,11.451645,SS508,Freienfeld,39040
46.834185,11.451152,SS508,Freienfeld,39040
46.833843,11.450285,SS508,Freienfeld,39040
46.833493,11.448335,SS508,Freienfeld,39040
46.83361,11.447383,SS508,Freienfeld,39040
46.833885,11.446655,SS508,Freienfeld,39040
46.833957,11.445458,SS508,Freienfeld,39040
46.833795,11.444805,SS508,Freienfeld,39040
46.83216,11.441555,SS508,Freienfeld,39040
46.830588,11.441147,SS508,Freienfeld,39040
46.830305,11.440002,SS508,Freienfeld,39040
46.829677,11.439415,SS508,Freienfeld,39040
46.829097,11.437557,SS508,Freienfeld,39040
46.828482,11.436815,SS508,Freienfeld,39040
46.828113,11.436615,SS508,Freienfeld,39040
46.826017,11.43651,SS508,Freienfeld,39040
46.824248,11.436057,SS508,Freienfeld,39040
46.823433,11.436525,SS508,Freienfeld,39040
46.822197,11.436582,SS508,Freienfeld,39040
46.8214,11.437285,SS508,Freienfeld,39040
46.820352,11.437822,SS508,Freienfeld,39040
46.819148,11.439595,SS508,Freienfeld,39040
46.818722,11.441183,SS508,Freienfeld,39040
46.81908,11.441695,SS508,Freienfeld,39040
46.81843,11.441495,SS508,Freienfeld,39040
46.818877,11.441408,SS508,Freienfeld,39040
46.818728,11.441463,SS508,Freienfeld,39040
46.819286,11.442058,SS508,Freienfeld,39040
46.818818,11.441337,SS508,Freienfeld,39040
46.818733,11.441797,SS508,Freienfeld,39040
46.819117,11.445805,SS508,Freienfeld,39040
46.819002,11.446782,SS508,Sarntal,39058
46.817325,11.449062,SS508,Sarntal,39058
46.81697,11.449283,SS508,Sarntal,39058
46.816565,11.44929,SS508,Sarntal,39058
46.815168,11.448323,SS508,Sarntal,39058
46.813998,11.44689,SS508,Sarntal,39058
46.812352,11.44528,SS508,Sarntal,39058
46.810652,11.442602,SS508,Sarntal,39058
46.809675,11.440123,SS508,Sarntal,39058
46.80906,11.43914,SS508,Sarntal,39058
46.808552,11.439193,SS508,Sarntal,39058
46.807912,11.44045,SS508,Sarntal,39058
46.80775,11.440442,SS508,Sarntal,39058
46.808448,11.438017,SS508,Sarntal,39058
46.808602,11.437738,SS508,Sarntal,39058
46.808942,11.437615,SS508,Sarntal,39058
46.810767,11.439007,SS508,Sarntal,39058
46.812195,11.441002,SS508,Sarntal,39058
46.813543,11.441805,SS508,Sarntal,39058
46.81375,11.441752,SS508,Sarntal,39058
46.813932,11.441395,SS508,Sarntal,39058
46.81289,11.438078,SS508,Sarntal,39058
46.810545,11.43296,SS508,Sarntal,39058
46.809863,11.430822,SS508,Sarntal,39058
46.809628,11.425107,SS508,Sarntal,39058
46.808718,11.422295,SS508,Sarntal,39058
46.808448,11.422203,SS508,Sarntal,39058
46.808217,11.42253,SS508,Sarntal,39058
46.808087,11.424352,SS508,Sarntal,39058
46.806858,11.427915,SS508,Sarntal,39058
46.804627,11.430807,SS508,Sarntal,39058
46.803457,11.433333,SS508,Sarntal,39058
46.801103,11.437407,SS508,Sarntal,39058
46.799947,11.438392,SS508,Sarntal,39058
46.798682,11.438532,SS508,Sarntal,39058
46.797147,11.437467,SS508,Sarntal,39058
46.795208,11.435633,SS508,Sarntal,39058
46.79171,11.431585,SS508,Sarntal,39058
46.790355,11.430298,SS508,Sarntal,39058
46.789817,11.430005,SS508,Sarntal,39058
46.788475,11.429748,SS508,Sarntal,39058
46.788152,11.429455,SS508,Sarntal,39058
46.787398,11.427057,SS508,Sarntal,39058
46.78652,11.425813,SS508,Sarntal,39058
46.785878,11.423818,SS508,Sarntal,39058
46.785203,11.423143,SS508,Sarntal,39058
46.784852,11.420968,SS508,Sarntal,39058
46.784443,11.419907,SS508,Sarntal,39058
46.784092,11.41942,SS508,Sarntal,39058
46.783138,11.418902,SS508,Sarntal,39058
46.782863,11.418567,SS508,Sarntal,39058
46.782675,11.415705,SS508,Sarntal,39058
46.782388,11.415313,SS508,Sarntal,39058
46.780838,11.414132,SS508,Sarntal,39058
46.780035,11.413118,SS508,Sarntal,39058
46.77909,11.406733,SS508,Sarntal,39058
46.778167,11.403373,SS508,Sarntal,39058
46.777782,11.402275,SS508,Sarntal,39058
46.776685,11.401133,SS508,Sarntal,39058
46.776385,11.400537,SS508,Sarntal,39058
46.77483,11.39393,SS508,Sarntal,39058
46.775677,11.391373,SS508,Sarntal,39058
46.775708,11.390693,SS508,Sarntal,39058
46.775167,11.38882,SS508,Sarntal,39058
46.77382,11.386353,SS508,Sarntal,39058
46.773577,11.383882,SS508,Sarntal,39058
46.772428,11.380935,SS508,Sarntal,39058
46.771555,11.373373,SS508,Sarntal,39058
46.772012,11.370753,SS508,Sarntal,39058
46.772025,11.36888,SS508,Sarntal,39058
46.771812,11.368413,SS508,Sarntal,39058
46.769438,11.366835,SS508,Sarntal,39058
46.765643,11.366062,SS508,Sarntal,39058
46.762667,11.364965,SS508,Sarntal,39058
46.761228,11.365062,SS508,Sarntal,39058
46.759787,11.364665,SS508,Sarntal,39058
46.758265,11.36515,SS508,Sarntal,39058
46.755738,11.36372,SS508,Sarntal,39058
46.755427,11.363857,SS508,Sarntal,39058
46.754727,11.364607,SS508,Sarntal,39058
46.753848,11.36451,SS508,Sarntal,39058
46.751523,11.361887,SS508,Sarntal,39058
46.74931,11.361612,SS508,Sarntal,39058
46.747587,11.359185,SS508,Sarntal,39058
46.744638,11.357572,SS508,Sarntal,39058
46.742623,11.356687,SS508,Sarntal,39058
46.739855,11.353765,SS508,Sarntal,39058
46.738668,11.35225,SS508,Sarntal,39058
46.735408,11.349992,SS508,Sarntal,39058
46.734528,11.348498,SS508,Sarntal,39058
46.732715,11.346438,SS508,Sarntal,39058
46.731827,11.34497,SS508,Sarntal,39058
46.730745,11.344417,SS508,Sarntal,39058
46.729718,11.343398,SS508,Sarntal,39058
46.725693,11.34041,SS508,Sarntal,39058
46.724672,11.339307,SS508,Sarntal,39058
46.724228,11.339185,SS508,Sarntal,39058
46.723063,11.339263,SS508,Sarntal,39058
46.722513,11.339005,SS508,Sarntal,39058
46.72207,11.338548,SS508,Sarntal,39058
46.721518,11.33733,SS508,Sarntal,39058
46.720713,11.336723,SS508,Sarntal,39058
46.719042,11.336395,SS508,Sarntal,39058
46.718435,11.33661,SS508,Sarntal,39058
46.717588,11.337387,SS508,Sarntal,39058
46.717112,11.337622,SS508,Sarntal,39058
46.71298,11.337385,SS508,Sarntal,39058
46.711088,11.338225,SS508,Sarntal,39058
46.709213,11.338158,SS508,Sarntal,39058
46.707225,11.339382,SS508,Sarntal,39058
46.704772,11.339003,SS508,Sarntal,39058
46.704272,11.339268,SS508,Sarntal,39058
46.70284,11.340822,SS508,Sarntal,39058
46.701185,11.34082,SS508,Sarntal,39058
46.700883,11.34117,SS508,Sarntal,39058
46.700225,11.342998,SS508,Sarntal,39058
46.699458,11.343632,SS508,Sarntal,39058
46.698385,11.344993,SS508,Sarntal,39058
46.696883,11.346083,SS508,Sarntal,39058
46.696177,11.347353,SS508,Sarntal,39058
46.695215,11.347805,SS508,Sarntal,39058
46.692983,11.34731,SS508,Sarntal,39058
46.691105,11.349105,SS508,Sarntal,39058
46.689975,11.349418,SS508,Sarntal,39058
46.688637,11.350287,SS508,Sarntal,39058
46.685803,11.350532,SS508,Sarntal,39058
46.683348,11.351895,SS508,Sarntal,39058
46.682962,11.3523,SS508,Sarntal,39058
46.681952,11.354443,SS508,Sarntal,39058
46.679558,11.355743,SS508,Sarntal,39058
46.676573,11.359177,SS508,Sarntal,39058
46.671792,11.363967,SS508,Sarntal,39058
46.669565,11.365105,SS508,Sarntal,39058
46.667145,11.36576,SS508,Sarntal,39058
46.666898,11.365752,SS508,Sarntal,39058
46.66507,11.364548,SS508,Sarntal,39058
46.661787,11.363165,SS508,Sarntal,39058
46.659283,11.361695,SS508,Sarntal,39058
46.65762,11.362055,SS508,Sarntal,39058
46.656542,11.362052,SS508,Sarntal,39058
46.654875,11.361068,SS508,Sarntal,39058
46.653402,11.36049,SS508,Sarntal,39058
46.653067,11.360538,SS508,Sarntal,39058
46.652148,11.361175,SS508,Sarntal,39058
46.650308,11.361115,SS508,Sarntal,39058
46.648753,11.360463,SS508,Sarntal,39058
46.647285,11.360443,SS508,Sarntal,39058
46.646132,11.360207,SS508,Sarntal,39058
46.645555,11.359873,SS508,Sarntal,39058
46.644327,11.360092,SS508,Sarntal,39058
46.64354,11.360008,SS508,Sarntal,39058
46.642978,11.359372,SS508,Sarntal,39058
46.641622,11.35898,SS508,Sarntal,39058
46.63978,11.35939,SS508,Sarntal,39058
46.637307,11.358605,SS508,Sarntal,39058
46.636127,11.359023,SS508,Sarntal,39058
46.633695,11.358332,SS508,Sarntal,39058
46.631758,11.358793,SS508,Sarntal,39058
46.629597,11.360495,SS508,Sarntal,39058
46.627143,11.364338,SS508,Sarntal,39058
46.623285,11.368737,SS508,Sarntal,39058
46.622137,11.371173,SS508,Sarntal,39058
46.62196,11.373925,SS508,Sarntal,39058
46.621553,11.374573,SS508,Sarntal,39058
46.621093,11.374967,SS508,Sarntal,39058
46.620033,11.37556,SS508,Sarntal,39058
46.619338,11.375497,SS508,Sarntal,39058
46.618448,11.375153,SS508,Sarntal,39058
46.617458,11.374035,SS508,Sarntal,39058
46.616227,11.373432,SS508,Sarntal,39058
46.615777,11.373373,SS508,Sarntal,39058
46.613738,11.374052,SS508,Sarntal,39058
46.612515,11.374663,SS508,Sarntal,39058
46.611783,11.375473,SS508,Sarntal,39058
46.611408,11.376603,SS508,Sarntal,39058
46.610569,11.377588,SS508,Sarntal,39058
46.610252,11.378455,SS508,Sarntal,39058
46.609342,11.379153,SS508,Sarntal,39058
46.608375,11.379527,SS508,Sarntal,39058
46.607102,11.380308,SS508,Sarntal,39058
46.60616,11.380523,SS508,Sarntal,39058
46.605338,11.380395,SS508,Sarntal,39058
46.605323,11.38012,SS508,Sarntal,39058
46.605858,11.37957,SS508,Sarntal,39058
46.60585,11.379362,SS508,Sarntal,39058
46.605632,11.379242,SS508,Sarntal,39058
46.602752,11.38066,SS508,Sarntal,39058
46.601012,11.38085,SS508,Sarntal,39058
46.600067,11.381812,SS508,Sarntal,39058
46.59944,11.381597,SS508,Sarntal,39058
46.598908,11.381145,SS508,Sarntal,39058
46.597943,11.381308,SS508,Sarntal,39058
46.59675,11.381035,SS508,Sarntal,39058
46.596038,11.381658,SS508,Sarntal,39058
46.594945,11.38184,SS508,Sarntal,39058
46.593737,11.38282,SS508,Sarntal,39058
46.591608,11.383593,SS508,Sarntal,39058
46.590482,11.383228,SS508,Sarntal,39058
46.589255,11.381802,SS508,Sarntal,39058
46.588088,11.381193,SS508,Sarntal,39058
46.58611,11.381268,SS508,Sarntal,39058
46.576352,11.375948,SS508,Jenesien,39050
46.572808,11.37504,SS508,Jenesien,39050
46.572205,11.374683,SS508,Jenesien,39050
46.568407,11.37148,SS508,Afing,39050
46.567648,11.3712,SS508,Afing,39050
46.567052,11.370415,SS508,Afing,39050
46.56628,11.369825,SS508,Afing,39050
46.559143,11.369238,Halbweg Sarntal,Afing,39050
46.558172,11.368538,Halbweg Sarntal,Afing,39050
46.557322,11.368577,Halbweg Sarntal,Afing,39050
46.551312,11.366565,SS508,Afing,39050
46.551133,11.366438,SS508,Afing,39050
46.551098,11.36591,SS508,Afing,39050
46.550702,11.365737,SS508,Afing,39050
46.531853,11.362883,SS508,Jenesien,39050
46.517395,11.356737,Sarntaler Straße,Bozen,39100
46.516137,11.35728,Sarntaler Straße,Bozen,39100
46.515603,11.357238,Sarntaler Straße,Bozen,39100
46.515082,11.356815,Sarntaler Straße,Bozen,39100
46.514767,11.3562,Sarntaler Straße,Bozen,39100
46.514153,11.352817,Sarntaler Straße,Bozen,39100
46.513367,11.351197,Rafensteiner Weg,Bozen,39100
46.5126,11.350533,Rafensteiner Weg,Bozen,39100
46.509397,11.34965,Rafensteiner Weg,Bozen,39100
46.506527,11.349225,Lungotalvera Gries - Grieser Wassermauer,Bozen,39100
46.505273,11.348648,Lungotalvera Gries - Grieser Wassermauer,Bozen,39100
46.503185,11.347293,Lungotalvera Gries - Grieser Wassermauer,Bozen,39100
46.5021,11.34678,Grieser Wassermauer,Bozen,39100
46.501078,11.346465,Grieser Wassermauer,Bozen,39100
46.499145,11.346325,Grieser Wassermauer,Bozen,39100
46.499122,11.347142,Grieser Wassermauer,Bozen,39100
46.498858,11.347577,Grieser Wassermauer,Bozen,39100
46.499038,11.348932,Grieser Wassermauer,Bozen,39100
46.49886,11.350915,Grieser Wassermauer,Bozen,39100
46.498787,11.351053,Grieser Wassermauer,Bozen,39100
46.497737,11.351237,Dominikanerplatz,Bozen,39100
46.497758,11.353715,Dominikanerplatz,Bozen,39100
46.498002,11.354675,Dominikanerplatz,Bozen,39100
46.498388,11.354745,Dominikanerplatz,Bozen,39100
46.498088,11.355073,Dominikanerplatz,Bozen,39100
46.498093,11.355722,Dominikanerplatz,Bozen,39100
46.498452,11.356872,Dominikanerplatz,Bozen,39100
46.49869,11.357012,Dominikanerplatz,Bozen,39100
46.499915,11.356737,Dominikanerplatz,Bozen,39100
