Name,Typ,Adresse,Latitude,Longitude
Bar Haidi Pizzeria Bistro,restaurant,"Via Renon - Rittner Straße, 33, 39100, Bolzano - Bozen",46.4991165,11.3625622
Cafè Exil,cafe,Adresse unbekannt,46.4993539,11.3553891
Vögele,restaurant,"Via Johann Wolfgang Von Goethe - Johann-Wolfgang-Von-Goethe-Straße, 3, 39100, Bolzano - Bozen",46.4990306,11.3525008
Forstbräu Central,restaurant,"Via Johann Wolfgang Von Goethe - Johann-Wolfgang-Von-Goethe-Straße, 6, 39100, Bolzano - Bozen",46.4990726,11.3523422
Hopfen & Co.,restaurant,"Piazza delle Erbe - Obstplatz, 17, 39100, Bolzano - Bozen",46.4993259,11.3525722
Batzenhäusl,restaurant,"Via Andreas Hofer - Andreas-Hofer-Straße, 30, 39100, Bolzano - Bozen",46.5013603,11.3574364
Kaiserkron,restaurant,Piazza della Mostra - Musterplatz,46.4983267,11.3534441
Caffé Mattei,cafe,"Piazza della Parrocchia - Pfarrplatz, 2, 39100, Bolzano - Bozen",46.4978694,11.3534714
Gasthaus Fink,restaurant,"Via della Mostra - Mustergasse, 9, 39100, Bolzano - Bozen",46.4984999,11.3529148
Sportler,cafe,Adresse unbekannt,46.4990567,11.3545159
Despar,supermarket,Adresse unbekannt,46.5000794,11.3569451
Despar,supermarket,"Via Museo - Museumstraße, 2, 39100, Bolzano - Bozen",46.4996609,11.3524034
Caffè Maschin,cafe,Adresse unbekannt,46.4983231,11.3568938
Nussbaumer,restaurant,Adresse unbekannt,46.5008164,11.3570139
Weißes Rössl - Cavallino Bianco,restaurant,"Via dei Bottai - Bindergasse, 6",46.5009217,11.3568029
Walther's,restaurant,"Piazza Walther - Waltherplatz, 6, 39100, Bolzano - Bozen",46.498326,11.3551986
Feichter,restaurant,Adresse unbekannt,46.4989757,11.3570282
Pizzeria La Torcia,restaurant,"Via dei Conciapelli - Gerbergasse, 25, 39100, Bolzano - Bozen",46.498948,11.357497
Il Tinello,restaurant,Adresse unbekannt,46.4990881,11.3581238
Ritter,restaurant,Adresse unbekannt,46.4990901,11.3537903
Paulaner Stuben,restaurant,"Via dei Portici - Laubengasse, 51, 39100, Bolzano - Bozen",46.4991012,11.3535054
Stadt Hotel Città,cafe,"Piazza Walther - Walther-Platz, 21, 39100, Bolzano - Bozen",46.4986841,11.3544499
Monika,cafe,Adresse unbekannt,46.4986456,11.3524765
Löwengrube,restaurant,"Piazza della Dogana - Zollstangenplatz, 3, 39100, Bolzano - Bozen",46.500345,11.3606238
Brennpunkt,cafe,Adresse unbekannt,46.5005706,11.3617572
FranziskanerStuben,restaurant,Adresse unbekannt,46.5003917,11.3535791
Casa al Torchio - Torgglhaus,restaurant,"Via Museo - Museumstraße, 2A, Bolzano - Bozen",46.499684,11.3522359
Marilyn,cafe,"Via della Posta - Postgasse, 8, 39100, Bolzano - Bozen",46.4979325,11.3527737
Café Riesen,cafe,Adresse unbekannt,46.4979403,11.3524366
Franziskaner,bakery,"Via Museo - Museumstraße, 10, 39100, Bolzano - Bozen",46.4997294,11.3517072
Drinking_water,drinking_water,Adresse unbekannt,46.4985326,11.3544075
Vögelino,cafe,Adresse unbekannt,46.4985664,11.3552099
Dragone d'Oro,restaurant,Adresse unbekannt,46.5003639,11.351603
Bar/Restaurant/Konditorei Aida,restaurant,"Piazza Walther - Waltherplatz, 1a, 39100, Bolzano - Bozen",46.4987095,11.355308
PizzaPazza Kebab,restaurant,"Via Alto Adige - Südtiroler Straße, 24, 39100, Bolzano - Bozen",46.4966585,11.3547138
Pizzeria Amade',restaurant,"Vicolo Ca' De Bezzi - Batzenhäuslgasse, 8, 39100",46.5016608,11.3578732
pims,restaurant,"Piazzetta Maria Delago - Maria-Delago-Platz, 6, 39100",46.5015012,11.3567072
Engl,bicycle,Adresse unbekannt,46.5014658,11.3599563
Hackhofer,bakery,Adresse unbekannt,46.4996638,11.3594467
Drinking_water,drinking_water,39100,46.49916,11.353233
Despar,supermarket,Adresse unbekannt,46.4983501,11.3561897
Humus,restaurant,Bolzano - Bozen,46.4991544,11.3533693
Frisbee Store,bicycle,"Via Dodiciville - Zwölfmalgreiner Straße, 7",46.4995052,11.361042
Ristorante Pizzeria Veruska,restaurant,"Via Andreas Hofer - Andreas-Hofer-Straße, 8, 39100, Bolzano - Bozen",46.5008322,11.3594785
Cafè Konditorei Pasticceria Klaus,bakery,"Piazzetta Maria Delago - Maria-Delago-Platz, 12, 39100, Bolzano - Bozen",46.5012756,11.3565948
Tivoli,cafe,"Galleria Vintler - Vintler Galerie, 1, 39100, Bolzano - Bozen",46.500568,11.3555528
Pepper Lounge,cafe,"Piazza Domenicani - Dominikanerplatz, 38, 39100, Bolzano - Bozen",46.4979483,11.3520464
Drinking_water,drinking_water,39190,46.499666,11.352589
Drinking_water,drinking_water,Adresse unbekannt,46.4997428,11.3518231
Drinking_water,drinking_water,39100,46.500163,11.354073
Franziskaner,bakery,"Via dei Grappoli - Weintraubengasse, 44, 39100, Bolzano - Bozen",46.4987351,11.3568057
forneria 38,restaurant,"Piazza delle Erbe - Obstplatz, 38, 39100, Bolzano - Bozen",46.5000261,11.3526718
Oberon,restaurant,"Via Dr. Josef Streiter - Dr.-Josef-Streiter-Gasse, 7b",46.5001483,11.3561913
Uva bianca - Weiße Traube,restaurant,"Via Museo - Museumstraße, 19",46.4992417,11.351193
Ristorante Pizzeria Teatro Nuovo,restaurant,Adresse unbekannt,46.495986,11.3537081
Hackhofer,bakery,Adresse unbekannt,46.4998284,11.3510554
Drinking_water,drinking_water,39100,46.499168,11.357927
Despar,supermarket,Adresse unbekannt,46.5010404,11.3612495
Al Duomo,restaurant,"Via dell'Isarco - Eisackstraße, 3, 39100",46.4965436,11.3535925
Italia & Amore,restaurant,Adresse unbekannt,46.49894,11.3541262
Eisenstecken,bakery,"Via Alto Adige - Südtiroler Straße, 4, 39100, Bolzano - Bozen",46.4974274,11.3548505
Drinking_water,drinking_water,39100,46.501106,11.352407
Bozner Brau,restaurant,"Piazza delle Erbe - Obstplatz, 17, 39100, Bolzano - Bozen",46.4993295,11.3525518
Lemayr,bakery,"Via Johann Wolfgang Von Goethe - Johann-Wolfgang-Von-Goethe-Straße, 17, 39100, Bolzano - Bozen",46.4984227,11.35245
Grandi,bakery,"Via dei Bottai - Bindergasse, 18, 39100, Bolzano - Bozen",46.5005135,11.3567391
Weinboutique Lisa,restaurant,"Via Dr. Josef Streiter - Dr.-Josef-Streiter-Gasse, 22a, 39100, Bolzano - Bozen",46.5001953,11.3544859
Bogen Bistro & Apartments,restaurant,"Via Dr. Josef Streiter - Dr.-Josef-Streiter-Gasse, 31, 39100, Bolzano - Bozen",46.5001011,11.354348
Tirol Pizzeria,restaurant,"Via dei Francescani - Franziskanergasse, 50, 39100, Bolzano - Bozen",46.5002752,11.3533404
Café Bistro Thaler arôme,cafe,"Via dei Portici - Laubengasse, 69, 39100, Bolzano - Bozen",46.499534,11.3527563
Lintner,cafe,"Via Leonardo da Vinci - Leonardo-da-Vinci-Straße, 8a, 39100, Bolzano - Bozen",46.4990313,11.3505763
Drinking_water,drinking_water,39100,46.498361,11.356352
Naturalis,supermarket,Adresse unbekannt,46.4982852,11.3565274
Bento Sushi,restaurant,"Via dei Grappoli - Weintraubengasse, 21, 39100, Bolzano - Bozen",46.4988293,11.35698
Cafe Niessing,cafe,Adresse unbekannt,46.4994646,11.3596389
Drinking_water,drinking_water,Adresse unbekannt,46.5001903,11.3556346
Nuovo Antalya Pizza Kebab,restaurant,"Via della Rena - Raingasse, 3/d, 39100, Bolzano - Bozen",46.498264,11.3564755
Da Cesare,restaurant,"Via Dr. Julius Perathoner - Dr.-Julius-Perathoner-Straße, 15, 39100, Bolzano - Bozen",46.4968042,11.3555559
Bar Miami,cafe,"Via Dr. Julius Perathoner - Dr.-Julius-Perathoner-Straße, 25, 39100, Bolzano - Bozen",46.4968566,11.3557729
Dips - French Tacos & Salads,restaurant,"Via Dr. Julius Perathoner - Dr.-Julius-Perathoner-Straße, 29, 39100, Bolzano - Bozen",46.4969097,11.3558006
El Cafetero,cafe,"Via Alto Adige - Südtiroler Straße, 36, 39100, Bolzano - Bozen",46.4964456,11.3548604
Cafe,cafe,Adresse unbekannt,46.496756,11.3551905
Bamboo,restaurant,"Via dell'Isarco - Eisackstraße, 3b, 39100, Bolzano - Bozen",46.4967222,11.3535815
Koi,restaurant,"Via Museo - Museumstraße, 29c, 39100, Bolzano - Bozen",46.4998327,11.3505913
BiTi Bar,cafe,"Via Giuseppe Garibaldi - Giuseppe-Garibaldi-Straße, 36, 39100, Bolzano - Bozen",46.4953919,11.355748
Relax Cafe,cafe,"Via Alto Adige - Südtiroler Straße, 39100, Bolzano - Bozen",46.497122,11.3551815
Römerkeller,restaurant,"Via dei Grappoli - Weintraubengasse, 9b, 39100, Bolzano - Bozen",46.4991347,11.3569879
La Piazza,restaurant,Adresse unbekannt,46.4981765,11.3552024
GUL Indiana Pakistana Sapori D'Oriente,restaurant,"Via Dr. Josef Streiter - Dr.-Josef-Streiter-Gasse, 2, 39100, Bolzano - Bozen",46.500208,11.3566066
Café Monaco,cafe,"Piazza Domenicani - Dominikanerplatz, 12, 39100, Bolzano - Bozen",46.4970641,11.3521494
Trattoria Toscana,restaurant,"Via dei Cappuccini - Kapuzinergasse, 8a, 39100, Bolzano - Bozen",46.4965534,11.3522162
Drinking_water,drinking_water,Adresse unbekannt,46.5003777,11.3528959
A.R.M.A.,restaurant,"Via Renon - Rittner Straße, 1",46.4973397,11.3590831
Jona Ristorante,restaurant,"Via Francesco Crispi - Francesco-Crispi-Straße, 38, 39100",46.4988105,11.3602469
Drinking_water,drinking_water,Adresse unbekannt,46.497325,11.353388
Tirol,restaurant,Adresse unbekannt,46.5002866,11.3533352
Anita,restaurant,"Piazza delle Erbe - Obstplatz, 5a",46.5001331,11.3532407
Franziskaner,bakery,Adresse unbekannt,46.5005259,11.3536686
ZenZero,restaurant,"Via Museo - Museumstraße, 15, 39100, Bolzano - Bozen",46.4994642,11.351454
Caffé Epulario,cafe,"Via della Rena - Raingasse, 1, 39100, Bolzano - Bozen",46.4984013,11.3567331
Ristorante Speckstube,restaurant,Adresse unbekannt,46.4983199,11.35233
Tree Brasserie,restaurant,"Via Piave - Piavestraße, 15, 39100, Bolzano - Bozen",46.5002,11.357481
Caffè Bavaria,cafe,"Galleria Stella - Sterngalerie, 8, 39100, Bolzano - Bozen",46.4999758,11.3560659
Bar Italico,cafe,Adresse unbekannt,46.4966867,11.3581979
Cafe unter den Lauben,cafe,"Via dei Portici - Laubengasse, Bolzano - Bozen",46.4995889,11.3545492
Top Ramen,restaurant,Adresse unbekannt,46.4974909,11.3552166
La Piazzetta,cafe,"Via Brennero - Brennerstraße, 1c, 39100, Bolzano - Bozen",46.5003784,11.3611435
PimpGarage,bicycle,"Via dei Conciapelli - Gerbergasse, 67b, 39100, Bolzano - Bozen",46.4995165,11.3584453
Novo,supermarket,Adresse unbekannt,46.5030519,11.3562984
Trattoria Filo d'olio,restaurant,"Vicolo della Parrocchia - Pfarrgasse, 2a, 39100, Bolzano - Bozen",46.4988703,11.3535519
Panella,cafe,"Piazza della Stazione - Bahnhofsplatz, 12, 39100, Bolzano - Bozen",46.4966841,11.3587579
CAPITOL Caffè - Bar,cafe,"Via Dr. Josef Streiter - Dr.-Josef-Streiter-Gasse, 8, 39100, Bolzano - Bozen",46.5002803,11.3560514
Solala - Ristorante asiatico,restaurant,"Via Alto Adige - Südtiroler Straße, 3/7, 39100, Bolzano - Bozen",46.4973925,11.3551037
Drinking_water,drinking_water,Adresse unbekannt,46.499718,11.361939
MPREIS,supermarket,"Via dei Grappoli - Weintraubengasse, 56, 39100, Bolzano - Bozen",46.4986109,11.3567355
Cooper,cafe,Adresse unbekannt,46.4998783,11.3569236
Bäckerei Franziskaner,bakery,Adresse unbekannt,46.5011293,11.3567688
Drinking_water,drinking_water,39100,46.501214,11.356374
Drinking_water,drinking_water,Adresse unbekannt,46.496875,11.355405
Drinking_water,drinking_water,Adresse unbekannt,46.501689,11.3553371
Capsula coffee & tea,cafe,Adresse unbekannt,46.5016426,11.3567615
Caffé Helma's,cafe,Adresse unbekannt,46.5003839,11.3610509
In Viaggio,restaurant,Adresse unbekannt,46.500087,11.357514
ENJOEY,cafe,Adresse unbekannt,46.4997172,11.3583857
Waag,cafe,Adresse unbekannt,46.4995139,11.3552043
Insushi,restaurant,Adresse unbekannt,46.4983092,11.3540464
Corte,restaurant,Adresse unbekannt,46.4981139,11.3538152
META,restaurant,Adresse unbekannt,46.4982361,11.354261
Coop,supermarket,"Piazza Walther - Waltherplatz, 13/7, Bolzano - Bozen",46.4982296,11.3541966
Restaurant,restaurant,Adresse unbekannt,46.4990968,11.353689
37,restaurant,Adresse unbekannt,46.4993122,11.3543699
Drinking_water,drinking_water,Adresse unbekannt,46.495881,11.353737
Hackhofer,bakery,"Via dei Grappoli - Weintraubengasse, 6a",46.4990863,11.356822
Trattoria Filo d‘Olio,restaurant,Adresse unbekannt,46.4989298,11.3535194
Drinking_water,drinking_water,Adresse unbekannt,46.497352,11.354607
Drinking_water,drinking_water,Adresse unbekannt,46.4983252,11.35476
Pur,supermarket,Adresse unbekannt,46.4985027,11.3537608
Loacker Moccaria,cafe,"Piazza Walther - Waltherplatz, 11, 39100, Bolzano - Bozen",46.498041,11.3543041
hurtig,bakery,"Via Dr. Josef Streiter - Dr.-Josef-Streiter-Gasse, 2, 39100, Bolzano - Bozen",46.500182,11.3566994
Kolpinghaus Bozen,restaurant,"Largo Adolph Kolping - Adolph-Kolping-Straße, 3, 39100, Bolzano - Bozen",46.4975013,11.3504741
Caffe Thaler,cafe,"Via Dante - Dantestraße, 17, 39100",46.4958884,11.3497678
Bar Stuzzicheria Casa di Gio',restaurant,Adresse unbekannt,46.4930216,11.3545635
Drinking_water,drinking_water,Adresse unbekannt,46.495261,11.349987
Grissino,restaurant,Adresse unbekannt,46.4932129,11.3610829
Pizza Call,restaurant,"Via Guglielmo Marconi - Guglielmo-Marconi-Straße, 21, 39100, Bozen",46.4950091,11.3505333
Electric bike Center,bicycle,"Piazza Giuseppe Verdi - Giuseppe-Verdi-Platz, 7, 39100, Bolzano - Bozen",46.4946713,11.3537619
Bar-Bistro Pizzeria Safran,restaurant,"Via Guglielmo Marconi - Guglielmo-Marconi-Straße, 1a, 39100, Bolzano - Bozen",46.4952769,11.3524559
Sushi Il Milione,restaurant,"Via Guglielmo Marconi - Guglielmo-Marconi-Straße, 13b, 39100, Bolzano - Bozen",46.4950754,11.3511434
Bar da Rolly,cafe,"Via del Macello - Schlachthofstraße, 63, 39100, Bolzano - Bozen",46.49432,11.3587394
Drinking_water,drinking_water,Adresse unbekannt,46.493329,11.351468
Drinking_water,drinking_water,Adresse unbekannt,46.492827,11.352643
Caffè Benetti,cafe,"Via Napoli - Neapelstraße, 9, 39100",46.4930242,11.3432497
Drinking_water,drinking_water,Adresse unbekannt,46.4917534,11.3445582
Drinking_water,drinking_water,Adresse unbekannt,46.498226,11.34634
Café Londra,cafe,"Via Dante - Dantestraße, 1, 39100, Bolzano - Bozen",46.4974656,11.3493947
Café Museion,restaurant,"Piazza Piero Siena - Piero-Siena-Platz, 3, 39100",46.4973958,11.34815
La Veneziana,restaurant,"Viale Venezia - Venediger Straße, 59a, 39100, Bolzano - Bozen",46.4952347,11.3456967
Ristorante indiano Maharaja,restaurant,"Viale Druso - Drususallee, 6, 39100",46.4948176,11.3460319
Eurac Cafe,cafe,"Viale Druso - Drususallee, 1a, 39100, Bolzano - Bozen",46.4939849,11.34752
Degustibus,cafe,Adresse unbekannt,46.4981812,11.3478966
Pizzeria Tortuga,restaurant,"Piazzetta Questore Renato Mazzoni - Polizeidirektor-Renato-Mazzoni-Platz, 9, 39100, Bolzano - Bozen",46.4951705,11.3470288
Turci,bicycle,"Via Firenze - Florenzstraße, 30, 39100, Bolzano - Bozen",46.4930988,11.3427714
Dom ristorante al bocciodromo,restaurant,Adresse unbekannt,46.4932276,11.3462056
Bocciodromo,cafe,"Viale Trieste - Triester Straße, 17, 39100, Bolzano - Bozen",46.4933361,11.3463188
Fujiya - China Town,restaurant,"Via Cassa di Risparmio - Sparkassenstraße, 20a, 39100, Bolzano - Bozen",46.4987697,11.3489718
Drinking_water,drinking_water,Adresse unbekannt,46.49669,11.347754
Caffè Gelateria Eisberg,cafe,"Via Firenze - Florenzstraße, 13, 39100, Bolzano - Bozen",46.4930559,11.3431316
Drinking_water,drinking_water,Adresse unbekannt,46.4988,11.347385
Premiere Bio pasticceria e pane,bakery,Adresse unbekannt,46.4937215,11.3431361
DOCTOR BIKE,bicycle,Adresse unbekannt,46.4944653,11.3432346
Maradona,restaurant,Adresse unbekannt,46.4954492,11.3456758
Zanolini,bicycle,Adresse unbekannt,46.4918568,11.3400657
MD,supermarket,Adresse unbekannt,46.4917412,11.3422122
Tapas Cafe,cafe,Adresse unbekannt,46.4907783,11.3424532
Cafè Sissy,cafe,"Via Roma - Romstraße, 83, 39100, Bolzano - Bozen",46.4907376,11.3422083
Pizzeria Angolo Moretti,restaurant,"Via Torino - Turinstraße, 1, 39100, Bolzano - Bozen",46.4917018,11.3413017
Zio Alfonso,restaurant,"Viale Druso - Drususallee, 50, 39100, Bolzano - Bozen",46.4954529,11.3356454
Pizza Vesuvio,restaurant,Adresse unbekannt,46.4911453,11.3435042
Eurospar,supermarket,Adresse unbekannt,46.4932955,11.3400983
Stella d'oro di Rocco e Patrizia,restaurant,Adresse unbekannt,46.4920941,11.3404337
Pizzeria Al Cantuccio,restaurant,"Via della Visitazione - Mariaheimweg, 4e, 39100, Bolzano - Bozen",46.4962259,11.3373872
Mr. Ye Asia World,restaurant,"Via Amba Alagi - Amba-Alagi-Straße, 26/b, 39100",46.4985744,11.341183
Paula,cafe,Adresse unbekannt,46.4986594,11.3410449
Marechiaro,restaurant,Adresse unbekannt,46.4939824,11.3415357
Hollywood,cafe,"Viale Trieste - Triester Straße, 62, 39100, Bolzano - Bozen",46.4908909,11.3432783
La stazione della bicicletta,bicycle,"Via della Visitazione - Mariaheimweg, 16b, 39100, Bolzano - Bozen",46.4957211,11.3360666
Diamound's,restaurant,"Via della Visitazione - Mariaheimweg, 4/g, 39100, Bolzano - Bozen",46.4963459,11.337624
Pizza Kebab Mamma Mia,restaurant,"Via Roma - Romstraße, 66, 39100, Bolzano - Bozen",46.4912655,11.3415015
Togiva,cafe,Adresse unbekannt,46.4929721,11.3412857
Susaki,restaurant,"Via Roma - Romstraße, 2a, 39100, Bolzano - Bozen",46.49467,11.3401649
Cafe,cafe,"Via Michael Gaismair - Michael-Gaismair-Straße, 23, 39100, Bolzano - Bozen",46.4961748,11.3359408
Cafe,cafe,"Via Michael Gaismair - Michael-Gaismair-Straße, 25, 39100, Bolzano - Bozen",46.4960755,11.3359903
Gioia Cafe,cafe,"Via Roen - Roenstraße, 11, 39100, Bolzano - Bozen",46.497824,11.337339
La Lanterna,restaurant,"Via Rovigo - Rovigostraße, 14, 39100, Bolzano - Bozen",46.4945787,11.3357929
Johnny's Bar,cafe,"Via Roma - Romstraße, 74, 39100, Bolzano - Bozen",46.4908689,11.3416767
Morretti,restaurant,Adresse unbekannt,46.4980845,11.3402855
Insushi,restaurant,"Via Dalmazia - Dalmatienstraße, 39a, 39100, Bolzano - Bozen",46.4915011,11.338297
Cin Cin Bar Trattoria,cafe,"Via Torino - Turinstraße, 35, 39100, Bolzano - Bozen",46.4913351,11.3401492
Bar Café Giardino,cafe,"Via Dalmazia - Dalmatienstraße, 23, 39100, Bolzano - Bozen",46.4915335,11.3393774
Bar Giamar,cafe,"Via Torino - Turinstraße, 56, 39100, Bolzano - Bozen",46.4913384,11.3393725
Café Sarah,cafe,"Via Torino - Turinstraße, 76, 39100, Bolzano - Bozen",46.4910739,11.3387619
Hackhofer,bakery,"Via Torino - Turinstraße, 78, 39100, Bolzano - Bozen",46.4910615,11.3387081
Buga Ramen,restaurant,"Viale Druso - Drususallee, 91, 39100, Bolzano - Bozen",46.4951287,11.3358468
Cafe,cafe,Adresse unbekannt,46.497671,11.3402677
Cafe,cafe,Adresse unbekannt,46.4961956,11.3403338
Drinking_water,drinking_water,Adresse unbekannt,46.495372,11.339875
Drinking_water,drinking_water,Adresse unbekannt,46.497798,11.339242
Drinking_water,drinking_water,Adresse unbekannt,46.4965269,11.3405105
Pizzeria da Gigi,restaurant,Adresse unbekannt,46.4937776,11.3413477
Ban Thai,restaurant,Adresse unbekannt,46.4913257,11.3395109
Cafè Petit Château,cafe,Adresse unbekannt,46.4968163,11.3399033
Drinking_water,drinking_water,Adresse unbekannt,46.4926313,11.3183076
Drinking_water,drinking_water,Adresse unbekannt,46.4923951,11.3173959
Drinking_water,drinking_water,Adresse unbekannt,46.492492,11.3115605
Poli,supermarket,Adresse unbekannt,46.4915902,11.3148026
Pizzeria Metro',restaurant,"Viale Druso - Drususallee, 339, 39100",46.4941809,11.3186296
Pizzeria Lo Zodiaco,restaurant,Adresse unbekannt,46.4943176,11.3103225
Drinking_water,drinking_water,Adresse unbekannt,46.4926611,11.3173448
Futuro Bio,supermarket,"Viale Giacomo Puccini - Giacomo-Puccini-Allee, 39100, Bolzano - Bozen",46.492958,11.3131554
Bar Tom,cafe,"Viale Giacomo Puccini - Giacomo-Puccini-Allee, 30, 39100, Bolzano - Bozen",46.4926019,11.3134131
Drinking_water,drinking_water,Adresse unbekannt,46.4934747,11.310826
Café Muma's,cafe,"Piazza Nikolaus Firmian - Nikolaus-Firmian-Platz, 2, 39100, Bolzano - Bozen",46.490979,11.3146486
Bike Wellness,bicycle,Adresse unbekannt,46.4928676,11.3132002
Aldi,supermarket,39100,46.4942581,11.3144414
Drinking_water,drinking_water,Adresse unbekannt,46.4916832,11.312305
Tankstelle - Bar - Distributore,cafe,"Via Castel Firmiano - Sigmundskroner Straße, 9, 39100, Bolzano - Bozen",46.4915148,11.30693
Mendelhof,restaurant,"Via Castel Firmiano, 22, 39100, Bolzano - Bozen",46.4854945,11.2997648
Bike Cafe,cafe,Adresse unbekannt,46.4858012,11.3036409
Bar Krone,cafe,"Via Castel Firmiano - Sigmundskroner Straße, 33, 39100, Bolzano - Bozen",46.485408,11.3000896
Drinking_water,drinking_water,Adresse unbekannt,46.5087305,11.2645238
Pizzeria Holzmann,restaurant,Adresse unbekannt,46.5119529,11.2655519
Drinking_water,drinking_water,Adresse unbekannt,46.508997,11.269199
Zum Hirschen,restaurant,Adresse unbekannt,46.5561848,11.2198895
Pizzeria Central,restaurant,Adresse unbekannt,46.5589254,11.2232502
Conad,supermarket,Adresse unbekannt,46.5587524,11.2231269
Drinking_water,drinking_water,Adresse unbekannt,46.6079353,11.1811441
km 23,cafe,39014,46.608459,11.1822442
Drinking_water,drinking_water,Adresse unbekannt,46.6083548,11.1822299
Etschgrund,restaurant,Adresse unbekannt,46.6096981,11.1853446
Restaurant Römerkeller,restaurant,"Bozner Straße - Via Bolzano, 67, 39011, Lana",46.6089487,11.1754296
Meraner Inn,restaurant,88,46.6332845,11.1779121
Drinking_water,drinking_water,Adresse unbekannt,46.6299138,11.1853078
MPREIS,supermarket,"Enrico-Fermi-Straße - Via Enrico Fermi, 30, 39012, Meran - Merano",46.6365591,11.1757467
All'Orsetto,restaurant,"Enrico-Fermi-Straße - Via Enrico Fermi, 10, 39012, Meran - Merano",46.6362348,11.1741994
TUO,restaurant,"Reichstraße - Via Nazionale, 72a",46.6353785,11.1763172
Schmidt,bakery,6,46.6453152,11.180251
Drinking_water,drinking_water,Adresse unbekannt,46.6453269,11.1808948
Flarer,bicycle,Adresse unbekannt,46.647322,11.1767075
Drinking_water,drinking_water,Adresse unbekannt,46.6452799,11.1791281
Hagen Brunnen,drinking_water,Adresse unbekannt,46.6571926,11.1760732
DInuoVO,restaurant,"Romstraße - Via Roma, 113, 39012, Meran - Merano",46.6599364,11.1656304
Gutes von Gestern,bakery,244,46.6581023,11.1664592
Drinking_water,drinking_water,Adresse unbekannt,46.6601525,11.1655761
Grub'n Brunnen,drinking_water,Adresse unbekannt,46.6574379,11.1678339
Drinking_water,drinking_water,Adresse unbekannt,46.6551914,11.1650648
Ressmair,restaurant,"Romstraße - Via Roma, 166, 39012, Meran - Merano",46.6620319,11.1639099
Lalessandra,restaurant,Adresse unbekannt,46.6607476,11.1587031
La Bruschetta,restaurant,"Romstraße - Via Roma, 144, 39012, Meran - Merano",46.662529,11.1631013
Poli,supermarket,"Piavestraße - Via Piave, 63, 39012, Meran - Merano",46.6621206,11.1604849
Drinking_water,drinking_water,Adresse unbekannt,46.663766,11.1678691
Treffpunkt,cafe,"Piavestraße - Via Piave, 61, 39012, Meran - Merano",46.6624162,11.1603864
Pizzeria HEINZ,restaurant,"Romstraße - Via Roma, 140",46.6625943,11.1628991
Despar,supermarket,"via Roma, 63",46.663732,11.1620893
Drinking_water,drinking_water,Adresse unbekannt,46.6617568,11.1643917
Drinking_water,drinking_water,Adresse unbekannt,46.6619483,11.1613352
Lucignolo Pizzeria,restaurant,Adresse unbekannt,46.6641602,11.1613824
Bar Cristina,cafe,Adresse unbekannt,46.6642511,11.1613362
Bar Monopol,cafe,Adresse unbekannt,46.6615896,11.162287
Drinking_water,drinking_water,Adresse unbekannt,46.6609953,11.1620076
Bar Cavour,cafe,Adresse unbekannt,46.6682132,11.1658858
Drinking_water,drinking_water,Adresse unbekannt,46.6663414,11.1698298
Drinking_water,drinking_water,Adresse unbekannt,46.6679704,11.1642572
Pizzeria Kirchsteiger,restaurant,"Dantestr. / Via Dante, 39012, Meran - Merano",46.6682388,11.1736621
Café Darling,cafe,"Winterpromenade - Passeggiata D'Inverno, 5, 39012, Meran - Merano",46.6697213,11.1648615
Hellweger's,restaurant,Adresse unbekannt,46.6712145,11.1652994
Partanes,restaurant,Adresse unbekannt,46.6712252,11.1660288
Drinking_water,drinking_water,Adresse unbekannt,46.6715293,11.1632625
Forsterbräu Meran,restaurant,"Freiheitsstraße - Corso della Libertà, 60, 39012",46.6707687,11.1628457
Café Ully,cafe,"Laubengasse - Via Portici, 50, 39012, Meran - Merano",46.6714382,11.1637575
Kolpinghaus Meran,restaurant,Adresse unbekannt,46.6689734,11.1731942
Drinking_water,drinking_water,Adresse unbekannt,46.6710812,11.1676773
Drinking_water,drinking_water,Adresse unbekannt,46.6690255,11.1654917
Drinking_water,drinking_water,Adresse unbekannt,46.67141,11.164601
Caffè Wandelhalle,cafe,"Winterpromenade - Passeggiata D'Inverno, 25, 39012, Meran - Merano",46.6695082,11.1669479
Biokiste,supermarket,Adresse unbekannt,46.6694451,11.1708708
Cafe Knödelglück,cafe,Adresse unbekannt,46.6726246,11.1687526
Drinking_water,drinking_water,Adresse unbekannt,46.669226,11.174163
Drinking_water,drinking_water,Adresse unbekannt,46.672416,11.1656451
Drinking_water,drinking_water,Adresse unbekannt,46.6732459,11.1707834
Gasthof Villa Gang,restaurant,Adresse unbekannt,46.6728472,11.1658451
Felsenkeller,restaurant,Adresse unbekannt,46.6729914,11.1690168
Despar,supermarket,Adresse unbekannt,46.6689967,11.1736643
Trattoria Flora,restaurant,"Laubengasse - Via Portici, 75, 39012, Meran - Merano",46.6713819,11.1636472
Henkerhaus,restaurant,Adresse unbekannt,46.6708302,11.1682389
Drinking_water,drinking_water,Adresse unbekannt,46.66959,11.170891
Café Bistro Lissi Royal,cafe,"Winterpromenade - Passeggiata D'inverno, 15, 39012, Meran - Merano",46.6695495,11.1654313
Drinking_water,drinking_water,Adresse unbekannt,46.6707904,11.1684733
Café Maria,cafe,Adresse unbekannt,46.6712037,11.1643757
Iceberg,cafe,Adresse unbekannt,46.6696761,11.1650696
Römerkeller Meran,restaurant,Adresse unbekannt,46.6712885,11.1631626
Restaurant Sigmund,restaurant,Adresse unbekannt,46.6704681,11.1646079
Kallmünz,restaurant,Adresse unbekannt,46.6703352,11.1657397
Drinking_water,drinking_water,Adresse unbekannt,46.6696495,11.1692696
Erb Cafeteria,cafe,Adresse unbekannt,46.6706051,11.1636029
Drinking_water,drinking_water,Adresse unbekannt,46.6693027,11.1667852
Cafe,cafe,Adresse unbekannt,46.6690348,11.1742603
Mega Pizza,restaurant,Adresse unbekannt,46.6696285,11.1701641
Drinking_water,drinking_water,Adresse unbekannt,46.6712451,11.1733155
Bar Maya,cafe,Adresse unbekannt,46.6688147,11.1740713
Restaurant Caffe Brunnenplatz,restaurant,Adresse unbekannt,46.6687763,11.1737899
Erb,bakery,Adresse unbekannt,46.6681926,11.173864
Drinking_water,drinking_water,Adresse unbekannt,46.6744929,11.1676589
Drinking_water,drinking_water,Adresse unbekannt,46.6751087,11.1763014
Cafe Eichenhof,cafe,Adresse unbekannt,46.6882405,11.169431
Drinking_water,drinking_water,Adresse unbekannt,46.6950387,11.1806694
Drinking_water,drinking_water,Adresse unbekannt,46.7023224,11.1803915
Oberwirtskeller,restaurant,"Kirchweg - Via Chiesa, 39010, Riffian - Rifiano",46.7026035,11.1800689
Löwenwirt,restaurant,"Jaufenstraße - Via Passo Giovo, 39010, Riffian - Rifiano",46.7019333,11.180704
Pizzeria + Eisdiele Pircher,restaurant,Adresse unbekannt,46.7013526,11.1772006
Drinking_water,drinking_water,Adresse unbekannt,46.701458,11.180384
My little bakery,bakery,Adresse unbekannt,46.7014623,11.1800327
MPREIS,supermarket,"Jaufenstraße - Via Giovo, 61, 39010, Riffian - Rifiano",46.7053852,11.1843364
Pension Restaurant Weinberg,restaurant,"Kirchweg - Via Chiesa, 20, 39010, Riffian - Rifiano",46.706595,11.1833094
Luferkeller,restaurant,Adresse unbekannt,46.7104039,11.1893322
Drinking_water,drinking_water,Adresse unbekannt,46.7076501,11.189521
Drinking_water,drinking_water,Adresse unbekannt,46.7175034,11.1861468
Saltauser Hof,restaurant,Adresse unbekannt,46.7293579,11.2007394
Drinking_water,drinking_water,Adresse unbekannt,46.7293732,11.2005378
Torgglerhof,restaurant,Adresse unbekannt,46.7238222,11.1997632
Restaurant,restaurant,Adresse unbekannt,46.7282136,11.2020877
Pizzeria,restaurant,Adresse unbekannt,46.7298954,11.2008169
Drinking_water,drinking_water,Adresse unbekannt,46.73022,11.200444
Drinking_water,drinking_water,Adresse unbekannt,46.7300568,11.2004852
Restaurant Quellenhof,restaurant,Adresse unbekannt,46.746925,11.2067835
Despar,supermarket,Adresse unbekannt,46.7795881,11.2254118
Drinking_water,drinking_water,Adresse unbekannt,46.7846476,11.2277873
Psairer Beck,bakery,28,46.7840772,11.227605
C+C Supermarket Passeier,supermarket,Adresse unbekannt,46.784781,11.2276922
Gasthaus Lamm,restaurant,Adresse unbekannt,46.7846109,11.2276687
Gasthof Jager Hans,restaurant,Adresse unbekannt,46.7806405,11.2262788
Drinking_water,drinking_water,Adresse unbekannt,46.784832,11.227722
Drinking_water,drinking_water,Adresse unbekannt,46.784946,11.227545
Drinking_water,drinking_water,Adresse unbekannt,46.784032,11.227523
Cafe - Restaurant Pfandleralm,restaurant,Adresse unbekannt,46.7851358,11.2293949
Pizzeria&Pub Forelle,restaurant,Adresse unbekannt,46.7858579,11.230563
Grillstube Königsrainer,restaurant,Adresse unbekannt,46.7855022,11.2288178
Eis-Cafe Margareth,cafe,Adresse unbekannt,46.7853153,11.2284168
Drinking_water,drinking_water,Adresse unbekannt,46.7845478,11.2307979
Cafe Bistro Platzl,cafe,Adresse unbekannt,46.7851349,11.2277476
Bike Shop,bicycle,"Holzlände, 87, 39010, St. Martin in Passeier - San Martino in Passiria",46.7921041,11.2323553
Frischmarkt Raffl,supermarket,Adresse unbekannt,46.7903354,11.2322199
Drinking_water,drinking_water,Adresse unbekannt,46.8022168,11.2371966
Gasthof Jaufenblick,restaurant,Adresse unbekannt,46.8001309,11.2305249
Sandwirt,restaurant,Adresse unbekannt,46.8014565,11.2387489
Drinking_water,drinking_water,Adresse unbekannt,46.8006924,11.2373923
Drinking_water,drinking_water,Adresse unbekannt,46.8016439,11.2388917
Fischerverein Passeier,cafe,Adresse unbekannt,46.8004926,11.2375129
Klotz,restaurant,Adresse unbekannt,46.80303,11.241334
Frickhof,restaurant,"Passeirer Straße - Via Passiria, 31, 39015",46.8115272,11.2468581
Brühwirt,restaurant,"Kirchweg - Via Chiesa, 31, 39015, St. Leonhard in Passeier - San Leonardo in Passiria",46.8103312,11.2458849
Bäckerei Ploner,bakery,"Passeirer Straße - Via Passiria, 39015, St. Leonhard in Passeier - San Leonardo in Passiria",46.8112198,11.2463064
Sonnenhof,restaurant,Adresse unbekannt,46.8094336,11.2483181
Wiesenhof,restaurant,Adresse unbekannt,46.8081692,11.2449553
Despar,supermarket,Adresse unbekannt,46.8111343,11.2460571
Drinking_water,drinking_water,Adresse unbekannt,46.8119706,11.2460258
Drinking_water,drinking_water,Adresse unbekannt,46.8119981,11.2473022
Bio- + Reformhaus Hofer,supermarket,Adresse unbekannt,46.8118813,11.2460762
Koblerbrot - Bäckerei + Cafe,bakery,"Kohlstatt - Via dei Carbonai, 39015, St. Leonhard in Passeier - San Leonardo in Passiria",46.8119302,11.2455511
Cafe - Restaurant Tirolerhof,restaurant,"Kohlstatt - Via dei Carbonai, 7, 39015, St. Leonhard in Passeier - San Leonardo in Passiria",46.8119928,11.2466289
Dorf Cafe,cafe,Adresse unbekannt,46.8124345,11.2463142
Drinking_water,drinking_water,Adresse unbekannt,46.8119046,11.2470224
Felseneck,restaurant,Adresse unbekannt,46.8122981,11.2472001
Gasthaus Brauerei Brückenwirt,restaurant,Adresse unbekannt,46.8143206,11.2417087
Eisdiele Pichler,cafe,Adresse unbekannt,46.8126497,11.2440557
Gasthof Peter,restaurant,Adresse unbekannt,46.8135666,11.2470088
Stroblhof,restaurant,Adresse unbekannt,46.8116806,11.2472963
Zentral,restaurant,Adresse unbekannt,46.8119408,11.2474426
Restaurant Theis,restaurant,Adresse unbekannt,46.8122984,11.2470469
Martl,restaurant,"Passeirerstraße, 31",46.8116332,11.2470417
Passeirer Weinstube,restaurant,"Mooser Straße - Via Moso, 26, 39015, St. Leonhard in Passeier - San Leonardo in Passiria",46.816128,11.2420631
Sportarena Passeier,restaurant,Adresse unbekannt,46.8159048,11.2410325
Gasthof Schlossberg,restaurant,Adresse unbekannt,46.8197861,11.2582061
Unterer Obereggerhof,restaurant,Adresse unbekannt,46.8251127,11.2709872
Gasthof Alpenrose,restaurant,Adresse unbekannt,46.8261995,11.2878822
Drinking_water,drinking_water,Adresse unbekannt,46.8264443,11.3075302
Innerwalten,restaurant,"39015, St. Leonhard in Passeier - San Leonardo in Passiria",46.8264148,11.3076946
Jägerhof,restaurant,Adresse unbekannt,46.8272945,11.3023374
Drinking_water,drinking_water,Adresse unbekannt,46.8251919,11.3092468
Hofschenke Auerhof,restaurant,"39015, St. Leonhard in Passeier - San Leonardo in Passiria",46.8232459,11.3097236
Jaufenalm,restaurant,"39015, St. Leonhard in Passeier - San Leonardo in Passiria",46.8358158,11.3116338
Enzianhütte,restaurant,Adresse unbekannt,46.8384857,11.3025238
Edelweisshütte,cafe,Adresse unbekannt,46.839254,11.3208337
Bakery,bakery,Adresse unbekannt,46.8807989,11.4046256
A.nett,cafe,Adresse unbekannt,46.8803994,11.4043655
Drinking_water,drinking_water,Adresse unbekannt,46.883075,11.402779
Drinking_water,drinking_water,Adresse unbekannt,46.8818425,11.4059564
Derby Club,restaurant,"Penserjochstraße - Via Passo Pennes, 1, 39049, Sterzing - Vipiteno",46.887291,11.4316204
Bar by Kristi,cafe,"Lentweg, 11, 39049, Sterzing",46.8902013,11.4346769
Walcher,bakery,Adresse unbekannt,46.8918959,11.4271538
Drinking_water,drinking_water,Adresse unbekannt,46.890845,11.433714
Hotel Hubertushof,restaurant,"Marconistraße - Via Marconi, 19, 39049, Sterzing - Vipiteno",46.8934825,11.4314123
Drinking_water,drinking_water,Adresse unbekannt,46.8912928,11.4288888
Pizza Viva,restaurant,"Michael-Gaismair-Siedlung - Rione Michael Gaismair, 2, 39049, Sterzing - Vipiteno",46.8911624,11.4292389
Walcher,bakery,Adresse unbekannt,46.8962633,11.4312234
Lilie Restaurant,restaurant,"Neustadt - Via Città Nuova, 49, 39049",46.8968396,11.432059
Lamm,restaurant,Adresse unbekannt,46.8979489,11.4314472
Goldenes Kreuz,restaurant,Adresse unbekannt,46.8969676,11.4318083
Bar Stöckl,cafe,Adresse unbekannt,46.8966764,11.4319593
Café Rose,cafe,Adresse unbekannt,46.8965595,11.4328082
Despar - Knollenberger,supermarket,Adresse unbekannt,46.8952813,11.4323675
Café Frick,cafe,Adresse unbekannt,46.8961987,11.4311922
Pardeller,bakery,"Neustadt - Città Nuova, 26b, 39049, Sterzing - Vipiteno",46.8974803,11.4315988
Drinking_water,drinking_water,Adresse unbekannt,46.89707,11.431936
Poli Supermarket,supermarket,Adresse unbekannt,46.8942123,11.4301387
Häusler,bakery,"Neustadt - Città Nuova, 11, 39049, Sterzing - Vipiteno",46.8981357,11.4316617
Gut & Gerne - Regionale Spezialitäten,supermarket,"Neustadt - Città Nuova, 22, 39049, Sterzing - Vipiteno",46.897793,11.4315093
Am Tor,restaurant,"Gänsbacherstraße - Via Gänsbacher, 3, 39049, Sterzing - Vipiteno",46.8961591,11.4322617
Kleine Flamme,restaurant,"Neustadt - Città Nuova, 31, 39049, Sterzing - Vipiteno",46.8974603,11.4318589
Kolping,restaurant,Adresse unbekannt,46.8976429,11.4310716
Gut & Gerne,supermarket,"Neustadt - Via Città Nuova, 32a",46.8971499,11.4317242
Café Rossi,cafe,"Neustadt - Via Città Nuova, 27",46.8976402,11.4318157
Kolping Haus Bar Restaurant Pizzaria,restaurant,Adresse unbekannt,46.8976444,11.4314288
Drinking_water,drinking_water,Adresse unbekannt,46.8962588,11.4320582
Pizzeria Cafe Seidner,restaurant,Sterzing - Vipiteno,46.8979539,11.4328092
Sterzingerhof,restaurant,"Geizkoflerstraße - Via Geizkofler, 15, 39049, Sterzing - Vipiteno",46.8982721,11.4335507
Rad Sport Freund,bicycle,"Dantestraße - Via Dante, 3, 39049, Sterzing - Vipiteno",46.8979412,11.4334397
Arbor,restaurant,Adresse unbekannt,46.8983126,11.4334193
Schwemme,cafe,Adresse unbekannt,46.8989402,11.4310358
EuroSpin,supermarket,"Stadtplatz - Piazza Città, 39049",46.8991441,11.4333522
Sole,restaurant,Adresse unbekannt,46.8982331,11.4338151
Pardeller,bakery,"Altstadt - Città Vecchia, 19, 39049, Sterzing - Vipiteno",46.8998154,11.4304692
Gschwentner,supermarket,Adresse unbekannt,46.9000003,11.4305608
Konditorei Prenn,cafe,Adresse unbekannt,46.899882,11.4304629
Ristorante Pizzeria Sport Bar,restaurant,"Geizkoflerstraße - Via Geizkofler, 8, 39049, Sterzing - Vipiteno",46.898588,11.4323361
Zur Traube,restaurant,Adresse unbekannt,46.8996237,11.4308486
Drinking_water,drinking_water,Adresse unbekannt,46.898029,11.432576
Stadtbrunnen,drinking_water,Adresse unbekannt,46.899316,11.431769
Pizza Express Sterzing,restaurant,"Kitzbühler Straße - Via Kitzbühel, 1, 39049, Sterzing - Vipiteno",46.9006546,11.4291978
pizzeria Yi Ji,restaurant,"Altstadt - Città Vecchia, 42, 39049, Sterzing - Vipiteno",46.9008581,11.4300099
Gasthof Sterzingerhof,restaurant,"Geizkoflerstraße - Via Geizkofler, 15, 39049, Sterzing - Vipiteno",46.8982379,11.4334842
Cafe Stadttheater,cafe,Adresse unbekannt,46.8974263,11.4339146
Gasthof Klammer,restaurant,Adresse unbekannt,46.8930097,11.4355248
Tie Break,restaurant,Adresse unbekannt,46.8935038,11.4372829
Ice Bar,cafe,"Karl-Riedmann-Platz - Piazza Karl Riedmann, 7a, 39049, Sterzing - Vipiteno",46.8931702,11.4376349
Bar Bistro vis à vis,cafe,"Brennerstraße - Via Brennero, 10, 39049, Sterzing - Vipiteno",46.8939856,11.4363105
Drinking_water,drinking_water,Adresse unbekannt,46.8940345,11.4383846
Drinking_water,drinking_water,Adresse unbekannt,46.8943872,11.4392951
Bar Esso,cafe,Adresse unbekannt,46.8896543,11.4395997
Thumburgerhof,restaurant,Adresse unbekannt,46.8820382,11.4373886
Drinking_water,drinking_water,Adresse unbekannt,46.874493,11.444997
Gasthaus Egg,restaurant,"Egg, 8, 39040, Freienfeld - Campo di Trens",46.8464467,11.4857553
Gasthaus zum Stern,restaurant,Adresse unbekannt,46.7806198,11.4143206
Murrerhof,restaurant,Adresse unbekannt,46.7703503,11.3724144
Restaurant Feldrand,restaurant,"Weissenbach, 55, 39058, Sarntal - Sarentino",46.7461223,11.3587381
Hotel Restaurant Pizzeria Alpenrose,restaurant,"28, 39058, Sarntal - Sarentino",46.7333733,11.3468233
Drinking_water,drinking_water,Adresse unbekannt,46.6719325,11.3622628
Weisses Rössl,restaurant,"6, 39058, Sarntal - Sarentino",46.6657397,11.3651738
Stern,restaurant,"12, 39058, Sarntal - Sarentino",46.6663053,11.3657888
Conad,supermarket,Astfeld - Campolasta,46.6655947,11.3643758
Mikes Shop,bicycle,Adresse unbekannt,46.644595,11.3569753
Rott,supermarket,Adresse unbekannt,46.6429818,11.3572674
Bierhitt,cafe,Adresse unbekannt,46.6429763,11.3574096
Milchbar,cafe,28,46.6436116,11.3572004
Zancanella,bakery,Adresse unbekannt,46.6437625,11.3571682
Braunwirt,restaurant,Adresse unbekannt,46.6427092,11.356782
Höllriegl,restaurant,Adresse unbekannt,46.6431104,11.3576164
Drinking_water,drinking_water,Adresse unbekannt,46.642846,11.356819
Café Mair,cafe,Adresse unbekannt,46.6442268,11.3570957
Gadthof Post Albergo,restaurant,Adresse unbekannt,46.6435331,11.3569212
Despar,supermarket,Adresse unbekannt,46.6419208,11.3542051
Gasthof Rungg,restaurant,"Griesplatz, 17",46.6410362,11.3559628
Sarner Bürgerstube,restaurant,Adresse unbekannt,46.639487,11.3539695
Sarner Forellenzucht - Troticoltura Sarentino,restaurant,Adresse unbekannt,46.6278156,11.3599383
Trojer,supermarket,Adresse unbekannt,46.6139758,11.3741462
Halbweg,restaurant,Adresse unbekannt,46.5756569,11.3761966
Steinmann,restaurant,Adresse unbekannt,46.5495355,11.3705267
Tavola calda Sportring Sill Center,cafe,"Via Castel Novale, 26, 39054, Ritten - Renon",46.5299828,11.3655183
Seeberger,restaurant,Adresse unbekannt,46.5196548,11.3621034
Rastbichler,restaurant,Adresse unbekannt,46.509624,11.3477502
Ahoi! Minigolf,restaurant,"Lungo Talvera Bolzano - Bozner Wassermauer, 22, 39100, Bolzano - Bozen",46.5093154,11.3508734
Drinking_water,drinking_water,Adresse unbekannt,46.50958,11.351055
Drinking_water,drinking_water,Adresse unbekannt,46.5026428,11.3489847
Pippo Brunnen - Fontana Parco Pippo,drinking_water,Adresse unbekannt,46.502945,11.345814
Drinking_water,drinking_water,Adresse unbekannt,46.507394,11.347847
Bar 2000,cafe,"Parco Francesco Petrarca - Francesco-Petrarca-Park, 10, 39100, Bolzano - Bozen",46.5032041,11.3460477
Drinking_water,drinking_water,Adresse unbekannt,46.504079,11.348915
Guntschna Bar,cafe,Adresse unbekannt,46.5083031,11.3442012
Grandi,bakery,"Via Fago - Fagenstraße, 7, 39100, Bolzano - Bozen",46.5083031,11.3441235
Drinking_water,drinking_water,Adresse unbekannt,46.507103,11.350175
Drinking_water,drinking_water,Adresse unbekannt,46.503104,11.349204
Drinking_water,drinking_water,Adresse unbekannt,46.5039519,11.3488245
Drinking_water,drinking_water,Adresse unbekannt,46.5038711,11.3493615
Drinking_water,drinking_water,Adresse unbekannt,46.503927,11.349472
Despar,supermarket,"Via Cesare Battisti - Cesare-Battisti-Straße, 39100, Bolzano - Bozen",46.5002757,11.3424635
Il Corso,restaurant,Adresse unbekannt,46.5010835,11.3436665
Eurospar,supermarket,"Via Museo - Museumstraße, 39, 39100, Bolzano - Bozen",46.499864,11.3500009
Ristorante Pizzeria Gambrinus,restaurant,Adresse unbekannt,46.5012601,11.3443847
Caffetteria 4 Novembre,cafe,Adresse unbekannt,46.5015522,11.3440456
Drinking_water,drinking_water,Adresse unbekannt,46.50152,11.349751
Drinking_water,drinking_water,Adresse unbekannt,46.500652,11.344205
Bistro 12,restaurant,Adresse unbekannt,46.5002927,11.3491815
Tosca 2,cafe,"Via Antonio Rosmini - Antonio-Rosmini-Straße, 91",46.4996472,11.3477329
Shiro,restaurant,"Corso della Libertà - Freiheitsstraße, 29c, 39100, Bolzano - Bozen",46.5015143,11.3414678
Chez Frederic,restaurant,Adresse unbekannt,46.5035494,11.3417308
Insushi,restaurant,"Piazza della Vittoria - Siegesplatz, 20, 39100, Bolzano - Bozen",46.5001267,11.344289
Hackhofer,bakery,"Corso della Libertà - Freiheitsstraße, 39, 39100, Bolzano - Bozen",46.5014121,11.3406743
Bar Amba Alagi,cafe,Adresse unbekannt,46.5002017,11.3418348
Bar Roxi,cafe,Adresse unbekannt,46.500215,11.3415888
Lemayr,bakery,"Via dei Combattenti - Frontkämpferstraße, 12, 39100, Bolzano - Bozen",46.5018107,11.3416942
Drinking_water,drinking_water,39190,46.501173,11.345407
Bar Luce,cafe,"Piazza della Vittoria - Siegesplatz, 1, 39100, Bolzano - Bozen",46.499874,11.3458215
PIC NIC,restaurant,"Via Virgilio - Virgilstraße, 6, 39100, Bolzano - Bozen",46.5008497,11.341465
Aldi,supermarket,"Corso della Libertà - Freiheitsstraße, 25, 39100, Bolzano - Bozen",46.5012169,11.3413595
Coffee Bean,cafe,Adresse unbekannt,46.5011873,11.342082
La nuova Grotta del Corso,cafe,Adresse unbekannt,46.5011119,11.3424848
Manuel Caffé,cafe,Adresse unbekannt,46.5011398,11.3422496
Bar Elena,cafe,Adresse unbekannt,46.4993515,11.3454719
Drinking_water,drinking_water,Adresse unbekannt,46.499973,11.349451
Drinking_water,drinking_water,Adresse unbekannt,46.500252,11.348101
