Latitude,Longitude,Street,City,PostalCode
53.55138,10.03217,Wikingerweg,Hamburg,20537
53.55223,10.03153,Wikingerweg,Hamburg,20537
53.55228,10.028110000000002,Wikingerweg,Hamburg,20537
53.55205,10.02679,Wikingerweg,Hamburg,20537
53.5523,10.02594,Wikingerweg,Hamburg,20537
53.553230000000006,10.02606,Wikingerweg,Hamburg,20537
53.55330000000001,10.02594,Wikingerweg,Hamburg,20537
53.55499,10.02657,Bürgerweide,Hamburg,20535
53.55611,10.0272,Bürgerweide,Hamburg,20535
53.556650000000005,10.02649,Bürgerweide,Hamburg,20535
53.563590000000005,10.02469,Mühlendamm,Hamburg,22087
53.564530000000005,10.0242,Mühlendamm,Hamburg,22087
53.56591,10.024730000000002,Mühlendamm,Hamburg,22087
53.56821000000001,10.02623,Schürbeker Straße,Hamburg,22087
53.56824,10.02608,Schürbeker Straße,Hamburg,22087
53.56911,10.0266,Schürbeker Straße,Hamburg,22087
53.56983,10.0268,Schürbeker Straße,Hamburg,22087
53.57234,10.03158,Oberaltenallee,Hamburg,22081
53.57627,10.037540000000002,Hamburger Straße,Hamburg,22083
53.577180000000006,10.03845,Hamburger Straße,Hamburg,22083
53.5795,10.04002,Hamburger Straße,Hamburg,22083
53.579710000000006,10.04043,Hamburger Straße,Hamburg,22083
53.57983,10.04135,Hamburger Straße,Hamburg,22083
53.58193000000001,10.04396,Barmbeker Markt,Hamburg,22081
53.58297,10.04664,Barmbeker Markt,Hamburg,22081
53.58435000000001,10.04781,Barmbeker Markt,Hamburg,22081
53.586090000000006,10.05076,Bramfelder Straße,Hamburg,22305
53.5878,10.05238,Bramfelder Straße,Hamburg,22305
53.590250000000005,10.05411,Bramfelder Straße,Hamburg,22305
53.59375000000001,10.05942,Bramfelder Chaussee,Hamburg,22177
53.59515,10.06112,Bramfelder Chaussee,Hamburg,22177
53.59842,10.06589,Bramfelder Chaussee,Hamburg,22177
53.60060000000001,10.06831,Bramfelder Chaussee,Hamburg,22177
53.601600000000005,10.06909,Bramfelder Chaussee,Hamburg,22177
53.60291,10.06982,Bramfelder Chaussee,Hamburg,22177
53.60771,10.071840000000002,Bramfelder Chaussee,Hamburg,22177
53.60932,10.07313,Bramfelder Chaussee,Hamburg,22177
53.61151,10.07417,Bramfelder Chaussee,Hamburg,22177
53.614250000000006,10.07612,Bramfelder Chaussee,Hamburg,22177
53.61536,10.07637,Bramfelder Chaussee,Hamburg,22177
53.61592,10.07666,Bramfelder Chaussee,Hamburg,22177
53.616960000000006,10.0776,Bramfelder Chaussee,Hamburg,22177
53.61912,10.08063,Bramfelder Chaussee,Hamburg,22177
53.62329,10.08421,Bramfelder Chaussee,Hamburg,22175
53.62528,10.08511,Bramfelder Chaussee,Hamburg,22175
53.62771000000001,10.0857,Bramfelder Chaussee,Hamburg,22175
53.628330000000005,10.0861,Bramfelder Chaussee,Hamburg,22175
53.63183000000001,10.089110000000002,Bramfelder Chaussee,Hamburg,22175
53.64054,10.09603,Saseler Chaussee,Hamburg,22391
53.64271,10.098400000000002,Saseler Chaussee,Hamburg,22391
53.64498,10.10055,Saseler Chaussee,Hamburg,22393
53.64714000000001,10.10216,Saseler Chaussee,Hamburg,22393
53.64797000000001,10.1026,Saseler Chaussee,Hamburg,22393
53.65081000000001,10.10504,Saseler Chaussee,Hamburg,22393
53.65325000000001,10.10684,Saseler Chaussee,Hamburg,22393
53.654410000000006,10.10725,Saseler Chaussee,Hamburg,22393
53.65527,10.10786,Saseler Chaussee,Hamburg,22393
53.655730000000005,10.108350000000002,Saseler Chaussee,Hamburg,22393
53.65616000000001,10.10929,Saseler Chaussee,Hamburg,22393
53.65964,10.114400000000002,Saseler Chaussee,Hamburg,22393
53.66031,10.11567,Saseler Chaussee,Hamburg,22393
53.66584,10.12131,Bergstedter Chaussee,Hamburg,22395
53.66760000000001,10.12406,Bergstedter Chaussee,Hamburg,22395
53.668800000000005,10.12531,Bergstedter Chaussee,Hamburg,22395
53.67059,10.123880000000002,Alte Schmiede,Hamburg,22395
53.671220000000005,10.12394,Alte Schmiede,Hamburg,22395
53.671600000000005,10.12536,Alte Schmiede,Hamburg,22395
53.671890000000005,10.12556,Alte Schmiede,Hamburg,22395
53.67698000000001,10.127350000000002,Wohldorfer Damm,Hamburg,22395
53.67821000000001,10.12856,Wohldorfer Damm,Hamburg,22395
53.68095,10.12882,Wohldorfer Damm,Hamburg,22395
53.68637,10.13016,Wohldorfer Damm,Hamburg,22395
53.68679,10.13043,Wohldorfer Damm,Hamburg,22395
53.687160000000006,10.13124,Wohldorfer Damm,Hamburg,22395
53.687450000000005,10.13142,Wohldorfer Damm,Hamburg,22395
53.68959,10.129790000000002,Wohldorfer Damm,Hamburg,22395
53.689890000000005,10.12972,Wohldorfer Damm,Hamburg,22395
53.69086000000001,10.1301,Wohldorfer Damm,Hamburg,22395
53.69265000000001,10.13116,Bredenbekstraße,Hamburg,22397
53.69306,10.13109,Bredenbekstraße,Hamburg,22397
53.69646,10.12936,Bredenbekstraße,Hamburg,22397
53.69807,10.126880000000002,Alsterblick,Hamburg,22397
53.69818000000001,10.127020000000002,Alsterblick,Hamburg,22397
53.69886,10.12686,Alsterblick,Hamburg,22397
53.699760000000005,10.12704,Alsterblick,Hamburg,22397
53.708110000000005,10.131200000000002,Mühlenredder,Hamburg,22397
53.70832000000001,10.13105,Mühlenredder,Hamburg,22397
53.70839,10.13037,Mühlenredder,Hamburg,22397
53.70861000000001,10.13003,Mühlenredder,Hamburg,22397
53.70917000000001,10.12991,Mühlenredder,Hamburg,22397
53.70973000000001,10.13005,Mühlenredder,Hamburg,22397
53.71034,10.12911,Mühlenredder,Hamburg,22397
53.71141000000001,10.131010000000002,Mühlenredder,Hamburg,22397
53.712430000000005,10.13335,Duvenstedter Triftweg,Hamburg,22397
53.71356,10.13674,Duvenstedter Triftweg,Hamburg,22397
53.71452000000001,10.14053,Duvenstedter Triftweg,Hamburg,22397
53.7182,10.13928,Duvenstedter Triftweg,Hamburg,22397
53.71941,10.14029,Wiemerskamper Weg,Hamburg,22397
53.724120000000006,10.142,Wiemerskamper Weg,Hamburg,22397
53.72512,10.14275,Wiemerskamper Weg,Hamburg,22397
53.727920000000005,10.14564,Wiemerskamper Weg,Hamburg,22397
53.72872,10.14714,Wiemerskamper Weg,Wiemerskamp,22889
53.73039000000001,10.14871,Wiemerskamper Weg,Wiemerskamp,22889
53.73319000000001,10.15182,Wiemerskamper Weg,Wiemerskamp,22889
53.734010000000005,10.15195,Wiemerskamper Weg,Wiemerskamp,22889
53.73532,10.15291,Wiemerskamper Weg,Wiemerskamp,22889
53.73729,10.15516,Wiemerskamper Weg,Wiemerskamp,22889
53.73767,10.15604,Wiemerskamper Weg,Wiemerskamp,22889
53.73956,10.163530000000002,Wiemerskamper Weg,Wiemerskamp,22889
53.73949,10.16477,Wiemerskamper Weg,Wiemerskamp,22889
53.74062000000001,10.16665,Wiemerskamper Weg,Wiemerskamp,22889
53.7413,10.167280000000002,Wiemerskamper Weg,Wiemerskamp,22889
53.74298,10.17067,Forstweg,Bargfeld-Stegen,23863
53.74591,10.17412,Forstweg,Bargfeld-Stegen,23863
53.746570000000006,10.17438,Forstweg,Bargfeld-Stegen,23863
53.74754000000001,10.1743,Forstweg,Bargfeld-Stegen,23863
53.74817,10.17402,Forstweg,Bargfeld-Stegen,23863
53.749550000000006,10.17513,Forstweg,Bargfeld-Stegen,23863
53.75048,10.17701,Forstweg,Bargfeld-Stegen,23863
53.75155,10.17579,Forstweg,Bargfeld-Stegen,23863
53.75337,10.17611,Viertbrucher Weg,Bargfeld-Stegen,23863
53.753620000000005,10.17645,Viertbrucher Weg,Bargfeld-Stegen,23863
53.75388,10.17875,Viertbrucher Weg,Bargfeld-Stegen,23863
53.75431,10.17965,Viertbrucher Weg,Bargfeld-Stegen,23863
53.762350000000005,10.18282,Viertbrucher Weg,Bargfeld-Stegen,23863
53.762690000000006,10.18171,Viertbrucher Weg,Bargfeld-Stegen,23863
53.763160000000006,10.17894,Viertbrucher Weg,Bargfeld-Stegen,23863
53.76348,10.17883,Viertbrucher Weg,Bargfeld-Stegen,23863
53.764140000000005,10.1795,Viertbrucher Weg,Bargfeld-Stegen,23863
53.76444000000001,10.17952,Viertbrucher Weg,Bargfeld-Stegen,23863
53.764880000000005,10.1811,Viertbrucher Weg,Bargfeld-Stegen,23863
53.76621,10.18424,Viertbrucher Weg,Bargfeld-Stegen,23863
53.76641000000001,10.18599,Viertbrucher Weg,Bargfeld-Stegen,23863
53.76789,10.18691,Mittelweg,Bargfeld-Stegen,23863
53.76840000000001,10.18598,Mittelweg,Bargfeld-Stegen,23863
53.77,10.18606,Mittelweg,Bargfeld-Stegen,23863
53.77027,10.18836,Mittelweg,Bargfeld-Stegen,23863
53.77215,10.19694,Brooklande,Bargfeld-Stegen,23863
53.7736,10.197920000000002,Brooklande,Bargfeld-Stegen,23863
53.77441,10.19868,Brooklande,Bargfeld-Stegen,23863
53.77577,10.20211,Brooklande,Nienwohld,23863
53.77648000000001,10.20246,Brooklande,Nienwohld,23863
53.77675000000001,10.20293,Brooklande,Nienwohld,23863
53.77757,10.20345,Brooklande,Nienwohld,23863
53.77907,10.20563,Brooklande,Nienwohld,23863
53.78074,10.2068,Gräberkater Weg,Nienwohld,23863
53.78208000000001,10.20805,Gräberkater Weg,Nienwohld,23863
53.784130000000005,10.21063,Gräberkater Weg,Nienwohld,23863
53.787380000000006,10.21366,Gräberkater Weg,Nienwohld,23863
53.78887,10.21591,Gräberkater Weg,Nienwohld,23863
53.789260000000006,10.21717,Gräberkater Weg,Nienwohld,23863
53.78988,10.2182,Gräberkater Weg,Nienwohld,23863
53.7908,10.2192,Gräberkater Weg,Sülfeld,23867
53.79222000000001,10.220300000000002,Gräberkater Weg,Sülfeld,23867
53.793850000000006,10.22286,Gräberkater Weg,Sülfeld,23867
53.79804000000001,10.22805,Nienwohlder Straße,Sülfeld,23867
53.799200000000006,10.2314,Nienwohlder Straße,Sülfeld,23867
53.79956000000001,10.231890000000002,Nienwohlder Straße,Sülfeld,23867
53.80004,10.231750000000002,Nienwohlder Straße,Sülfeld,23867
53.800160000000005,10.23355,Nienwohlder Straße,Sülfeld,23867
53.79903,10.23733,Oldesloer Straße,Sülfeld,23867
53.79863,10.23936,Oldesloer Straße,Sülfeld,23867
53.79880000000001,10.24108,Oldesloer Straße,Sülfeld,23867
53.79899,10.24152,Oldesloer Straße,Sülfeld,23867
53.79876,10.24241,Oldesloer Straße,Sülfeld,23867
53.79892,10.24938,Kassburg,Sülfeld,23867
53.79871000000001,10.25181,Kassburg,Sülfeld,23867
53.797140000000006,10.25668,Kassburg,Sülfeld,23867
53.79699,10.25774,Kassburg,Sülfeld,23867
53.79703000000001,10.2619,Kassburg,Sülfeld,23867
53.79753,10.263380000000002,Kassburg,Sülfeld,23867
53.79737000000001,10.26541,Hoherdamm,Grabau,23845
53.79766000000001,10.26886,Hoherdamm,Grabau,23845
53.79852,10.27265,Hoherdamm,Grabau,23845
53.798640000000006,10.27474,Dorfstraße,Grabau,23845
53.79879,10.27502,Dorfstraße,Grabau,23845
53.80382,10.27438,Dorfstraße,Grabau,23845
53.8036,10.27738,Dorfstraße,Grabau,23845
53.804480000000005,10.27777,Dorfstraße,Grabau,23845
53.80582,10.277830000000002,Dorfstraße,Grabau,23845
53.80626,10.27774,Dorfstraße,Grabau,23845
53.80671,10.27738,Dorfstraße,Grabau,23845
53.80781,10.27756,Dorfstraße,Grabau,23845
53.808890000000005,10.2791,Ringstraße,Grabau,23845
53.80911,10.27913,Ringstraße,Grabau,23845
53.80962,10.27892,Ringstraße,Grabau,23845
53.81081,10.27757,Ringstraße,Grabau,23845
53.812270000000005,10.2774,Ringstraße,Grabau,23845
53.81418000000001,10.277780000000002,Ringstraße,Grabau,23845
53.815540000000006,10.27711,Ringstraße,Grabau,23845
53.816500000000005,10.27741,Ringstraße,Grabau,23845
53.81777,10.2791,Ringstraße,Grabau,23845
53.81802,10.28062,Ringstraße,Grabau,23845
53.81848,10.28148,Unbekannte Straße,Grabau,23845
53.81837,10.28269,Unbekannte Straße,Grabau,23845
53.81897000000001,10.28491,Unbekannte Straße,Grabau,23845
53.819950000000006,10.28685,Unbekannte Straße,Grabau,23845
53.82043,10.28849,Unbekannte Straße,Travenbrück,23843
53.82244000000001,10.29019,Unbekannte Straße,Travenbrück,23843
53.82395,10.29205,Unbekannte Straße,Travenbrück,23843
53.82481000000001,10.29259,Schäferkamp,Travenbrück,23843
53.828390000000006,10.29361,Schäferkamp,Travenbrück,23843
53.832910000000005,10.29388,Schulstraße,Travenbrück,23843
53.834120000000006,10.29387,Schulstraße,Travenbrück,23843
53.834680000000006,10.29359,Schulstraße,Travenbrück,23843
53.83502000000001,10.293690000000002,Schulstraße,Travenbrück,23843
53.83641000000001,10.295000000000002,Schulstraße,Travenbrück,23843
53.83707,10.29638,Schulstraße,Travenbrück,23843
53.83825,10.298100000000002,Schulstraße,Travenbrück,23843
53.83857,10.29722,Schulstraße,Travenbrück,23843
53.83962,10.2957,Schulstraße,Travenbrück,23843
53.850080000000005,10.29371,Mühlenberg,Travenbrück,23843
53.85192000000001,10.29419,Mühlenberg,Travenbrück,23843
53.85230000000001,10.29418,Mühlenberg,Travenbrück,23843
53.85296,10.29373,Mühlenberg,Travenbrück,23843
53.853730000000006,10.29381,Mühlenberg,Travenbrück,23843
53.85409000000001,10.29426,Mühlenberg,Travenbrück,23843
53.85455,10.29579,Mühlenberg,Travenbrück,23843
53.85484,10.29623,Mühlenberg,Travenbrück,23843
53.85527,10.29623,Mühlenberg,Travenbrück,23843
53.85547,10.29604,Mühlenberg,Travenbrück,23843
53.85621,10.29428,Mühlenberg,Travenbrück,23843
53.86131,10.29597,Dorfstraße,Neversdorf,23816
53.86151,10.29487,Dorfstraße,Neversdorf,23816
53.8633,10.2954,Dorfstraße,Neversdorf,23816
53.86394000000001,10.29577,Dorfstraße,Neversdorf,23816
53.865190000000005,10.29778,Dorfstraße,Neversdorf,23816
53.8661,10.29875,Hauptstraße,Neversdorf,23816
53.87228,10.30011,Hauptstraße,Bebensee,23816
53.87259,10.30004,Hauptstraße,Bebensee,23816
53.87442000000001,10.298430000000002,Hauptstraße,Bebensee,23816
53.87471000000001,10.29833,Hauptstraße,Bebensee,23816
53.875980000000006,10.29898,Hauptstraße,Bebensee,23816
53.8772,10.298660000000002,Hauptstraße,Bebensee,23816
53.877660000000006,10.29868,Hauptstraße,Bebensee,23816
53.88199,10.29955,Hauptstraße,Bebensee,23816
53.882810000000006,10.29956,Hauptstraße,Bebensee,23816
53.886,10.29831,Hauptstraße,Bebensee,23816
53.88835,10.297910000000002,Hauptstraße,Bebensee,23816
53.89067000000001,10.29701,Hauptstraße,Bebensee,23816
53.89581,10.29345,Dorfstraße,Schwissel,23795
53.896840000000005,10.293220000000002,Dorfstraße,Schwissel,23795
53.89904000000001,10.28992,Dorfstraße,Schwissel,23795
53.89921,10.29109,Dorfstraße,Schwissel,23795
53.900960000000005,10.29508,Dorfstraße,Schwissel,23795
53.90221,10.29698,Dorfstraße,Schwissel,23795
53.90345000000001,10.301100000000002,Dorfstraße,Schwissel,23795
53.90353,10.30189,Dorfstraße,Schwissel,23795
53.903400000000005,10.3026,Dorfstraße,Schwissel,23795
53.9036,10.3039,Dorfstraße,Schwissel,23795
53.903290000000005,10.30762,Dorfstraße,Schwissel,23795
53.903470000000006,10.3128,Herrenmühle,Traventhal,23795
53.90379000000001,10.31339,Herrenmühle,Traventhal,23795
53.90637,10.31455,Herrenmühle,Traventhal,23795
53.90916000000001,10.31758,Traventhaler Straße,Klein Gladebrügge,23795
53.91383,10.31749,Traventhaler Straße,Klein Gladebrügge,23795
53.91489000000001,10.3177,Traventhaler Straße,Klein Gladebrügge,23795
53.91610000000001,10.31955,Traventhaler Straße,Klein Gladebrügge,23795
53.91682,10.32035,Traventhaler Straße,Klein Gladebrügge,23795
53.91904,10.32163,Segeberger Straße,Klein Gladebrügge,23795
53.91975000000001,10.32164,Segeberger Straße,Klein Gladebrügge,23795
53.92106,10.32125,Segeberger Straße,Klein Gladebrügge,23795
53.92362000000001,10.319870000000002,Oldesloer Straße,Bad Segeberg,23795
53.92732,10.319590000000002,Oldesloer Straße,Bad Segeberg,23795
53.92752,10.31939,Oldesloer Straße,Bad Segeberg,23795
53.92773,10.31957,Oldesloer Straße,Bad Segeberg,23795
53.92965,10.3193,Oldesloer Straße,Bad Segeberg,23795
53.92994,10.32018,Oldesloer Straße,Bad Segeberg,23795
53.9314,10.3214,Oldesloer Straße,Bad Segeberg,23795
53.93159000000001,10.32133,Oldesloer Straße,Bad Segeberg,23795
53.93206000000001,10.32061,Oldesloer Straße,Bad Segeberg,23795
53.93271000000001,10.32153,Oldesloer Straße,Bad Segeberg,23795
53.93232,10.32244,Oldesloer Straße,Bad Segeberg,23795
53.9329,10.3227,Oldesloer Straße,Bad Segeberg,23795
53.93357,10.32263,Oldesloer Straße,Bad Segeberg,23795
53.933780000000006,10.32486,Am Wege nach Stipsdorf,Bad Segeberg,23795
53.93438,10.32725,Am Wege nach Stipsdorf,Bad Segeberg,23795
53.93467,10.33002,Am Wege nach Stipsdorf,Bad Segeberg,23795
53.936440000000005,10.33555,K 46,Bad Segeberg,23795
53.93777000000001,10.342300000000002,K 46,Bad Segeberg,23795
53.938,10.346430000000002,K 46,Stipsdorf,23795
53.93827,10.34841,K 46,Stipsdorf,23795
53.939020000000006,10.35044,K 46,Stipsdorf,23795
53.94505,10.34947,Unbekannte Straße,Stipsdorf,23795
53.946540000000006,10.3491,Unbekannte Straße,Stipsdorf,23795
53.948150000000005,10.35014,Unbekannte Straße,Stipsdorf,23795
53.949580000000005,10.35196,Unbekannte Straße,Stipsdorf,23795
53.949940000000005,10.35216,Unbekannte Straße,Stipsdorf,23795
53.95007,10.35254,Unbekannte Straße,Stipsdorf,23795
53.95226,10.35531,Unbekannte Straße,Stipsdorf,23795
53.95347,10.35754,Stipsdorfer Weg,Quaal,23821
53.958650000000006,10.36601,Stipsdorfer Weg,Quaal,23821
53.95973000000001,10.37169,Stipsdorfer Weg,Quaal,23821
53.95985,10.37368,Stipsdorfer Weg,Quaal,23821
53.96039,10.37379,Stipsdorfer Weg,Quaal,23821
53.96166,10.3731,Stipsdorfer Weg,Quaal,23821
53.96329000000001,10.38138,Schulstraße,Quaal,23821
53.96668,10.38286,Schulstraße,Quaal,23821
53.97115,10.38302,Warderfelder Weg,Wardersee,23821
53.972620000000006,10.382280000000002,Warderfelder Weg,Wardersee,23821
53.97359,10.382040000000002,Warderfelder Weg,Wardersee,23821
53.97503,10.38551,Warderfelder Weg,Wardersee,23821
53.97918000000001,10.39886,B 432,Wensin,23827
53.9795,10.39924,B 432,Wensin,23827
53.97952000000001,10.40002,B 432,Wensin,23827
53.99164,10.44039,Hüls,Wensin,23827
53.991580000000006,10.44083,Hüls,Wensin,23827
53.99250000000001,10.44624,Hüls,Wensin,23827
53.992560000000005,10.44735,Hüls,Wensin,23827
53.99215,10.456650000000002,B 432,Gnissau,23623
53.992360000000005,10.45836,B 432,Gnissau,23623
53.99925,10.49078,Ahrensböker Straße,Gnissau,23623
53.999480000000005,10.492730000000002,Ahrensböker Straße,Gnissau,23623
53.998720000000006,10.51972,B 432,Ahrensbök,23623
53.999010000000006,10.53125,B 432,Ahrensbök,23623
54.00017,10.53748,B 432,Ahrensbök,23623
54.00117,10.5402,Hörsten,Heuerstubben,23623
54.01396,10.566960000000002,Segeberger Chaussee,Barghorst,23623
54.01491000000001,10.5693,Segeberger Chaussee,Barghorst,23623
54.02322,10.5868,Neustädter Chaussee,Barghorst,23623
54.02807000000001,10.59673,Neustädter Chaussee,Holstendorf,23623
54.03616,10.61766,Brauner Hirsch,Holstendorf,23623
54.03659,10.61917,Brauner Hirsch,Holstendorf,23623
54.03694,10.62126,Brauner Hirsch,Holstendorf,23623
54.042910000000006,10.65948,B 432,Scharbeutz,23684
54.04324,10.66217,B 432,Scharbeutz,23684
54.04336000000001,10.66537,B 432,Scharbeutz,23684
54.04214,10.67009,B 432,Scharbeutz,23684
54.04165,10.67276,B 432,Scharbeutz,23684
54.04148000000001,10.67551,B 432,Scharbeutz,23684
54.041540000000005,10.6781,B 432,Scharbeutz,23684
54.040890000000005,10.68395,B 432,Scharbeutz,23684
54.04016000000001,10.68709,Scharbeutzer Straße,Scharbeutz,23684
54.03905,10.69082,Scharbeutzer Straße,Scharbeutz,23684
54.03894,10.69244,Scharbeutzer Straße,Scharbeutz,23684
54.03916,10.69596,Scharbeutzer Straße,Scharbeutz,23684
54.03903,10.70035,Scharbeutzer Straße,Scharbeutz,23684
54.03836,10.70274,Scharbeutzer Straße,Scharbeutz,23684
54.03804,10.70497,B 432,Scharbeutz,23684
54.03791,10.70494,B 432,Scharbeutz,23684
54.03641,10.70901,B 432,Scharbeutz,23684
54.035810000000005,10.71127,B 432,Scharbeutz,23684
54.03519000000001,10.71629,B 432,Scharbeutz,23684
54.03493,10.72299,B 432,Scharbeutz,23684
54.035160000000005,10.72244,B 432,Scharbeutz,23684
54.035500000000006,10.72252,B 432,Scharbeutz,23684
54.036440000000006,10.724480000000002,Breitenkamp,Scharbeutz,23684
54.03668,10.7248,Breitenkamp,Scharbeutz,23684
54.03728,10.72513,Breitenkamp,Scharbeutz,23684
54.03789,10.72492,Breitenkamp,Scharbeutz,23684
54.03893000000001,10.72385,Breitenkamp,Scharbeutz,23684
54.0397,10.72351,Breitenkamp,Scharbeutz,23684
54.04048,10.72384,Breitenkamp,Scharbeutz,23684
54.040870000000005,10.72436,Breitenkamp,Scharbeutz,23684
54.043310000000005,10.72996,Breitenkamp,Scharbeutz,23684
54.04390000000001,10.73337,Breitenkamp,Scharbeutz,23684
54.04430000000001,10.73463,Breitenkamp,Scharbeutz,23684
54.04571000000001,10.73618,Breitenkamp,Scharbeutz,23684
54.047450000000005,10.73951,Breitenkamp,Scharbeutz,23683
54.04822000000001,10.74051,Breitenkamp,Scharbeutz,23683
54.04876,10.74185,Breitenkamp,Scharbeutz,23683
54.04907000000001,10.74326,Breitenkamp,Scharbeutz,23683
54.04964,10.74436,Breitenkamp,Scharbeutz,23683
54.05048000000001,10.74755,Dorfstraße,Scharbeutz,23683
54.05129,10.748270000000002,Dorfstraße,Scharbeutz,23683
54.0519,10.749300000000002,Dorfstraße,Scharbeutz,23683
54.05286,10.75026,Dorfstraße,Scharbeutz,23683
54.05274000000001,10.75238,Dorfstraße,Scharbeutz,23683
54.052580000000006,10.752770000000002,Dorfstraße,Scharbeutz,23683
54.05268,10.75309,Dorfstraße,Scharbeutz,23683
54.054950000000005,10.75454,Am Strande,Haffkrug,23730
54.05723,10.75636,Am Strande,Haffkrug,23730
54.05904,10.75891,Am Strande,Sierksdorf,23730
54.06250000000001,10.76496,Am Strande,Sierksdorf,23730
54.06275,10.76492,Am Strande,Sierksdorf,23730
54.06456000000001,10.76339,Am Strande,Sierksdorf,23730
54.065000000000005,10.76349,Am Strande,Sierksdorf,23730
54.06526,10.76373,Am Strande,Sierksdorf,23730
54.06564,10.76467,Am Strande,Sierksdorf,23730
54.066120000000005,10.768020000000002,Am Strande,Sierksdorf,23730
54.06651,10.76879,Professor-Haas-Straße,Sierksdorf,23730
54.06682000000001,10.769100000000002,Professor-Haas-Straße,Sierksdorf,23730
54.06765000000001,10.76939,Professor-Haas-Straße,Sierksdorf,23730
54.06877000000001,10.77053,Professor-Haas-Straße,Sierksdorf,23730
54.06929,10.77047,Professor-Haas-Straße,Sierksdorf,23730
54.06961,10.771260000000002,Professor-Haas-Straße,Sierksdorf,23730
54.07443000000001,10.77625,Am Fahrenkrog,Sierksdorf,23730
54.07759000000001,10.777550000000002,Am Fahrenkrog,Sierksdorf,23730
54.07988,10.77685,Pohnsdorfer Straße,Sierksdorf,23730
54.08014000000001,10.776890000000002,Pohnsdorfer Straße,Sierksdorf,23730
54.08196,10.77624,Pohnsdorfer Straße,Sierksdorf,23730
54.08438,10.77603,Pohnsdorfer Straße,Roge,23730
54.08586,10.77627,Pohnsdorfer Straße,Roge,23730
54.08689,10.776940000000002,Pohnsdorfer Straße,Roge,23730
54.08856,10.77963,Pohnsdorfer Straße,Roge,23730
54.09069,10.78035,Pohnsdorfer Straße,Roge,23730
54.091710000000006,10.78146,Pohnsdorfer Straße,Roge,23730
54.09364000000001,10.78473,Sierksdorfer Straße,Neustadt in Holstein,23730
54.09422000000001,10.78751,Sierksdorfer Straße,Neustadt in Holstein,23730
54.09481,10.7891,Sierksdorfer Straße,Neustadt in Holstein,23730
54.09795,10.792470000000002,Sierksdorfer Straße,Neustadt in Holstein,23730
54.09902,10.7932,Sierksdorfer Straße,Neustadt in Holstein,23730
54.09951,10.79329,Sierksdorfer Straße,Neustadt in Holstein,23730
54.10605,10.80703,Lienaustraße,Neustadt in Holstein,23730
54.10671000000001,10.810770000000002,Lienaustraße,Neustadt in Holstein,23730
54.105990000000006,10.81146,Lienaustraße,Neustadt in Holstein,23730
54.10497,10.811470000000002,Lienaustraße,Neustadt in Holstein,23730
54.104690000000005,10.81226,Lienaustraße,Neustadt in Holstein,23730
54.10589,10.81702,Waschgrabenallee,Neustadt in Holstein,23730
54.105790000000006,10.81864,Waschgrabenallee,Neustadt in Holstein,23730
54.10647,10.81857,Waschgrabenallee,Neustadt in Holstein,23730
54.10788,10.81897,Waschgrabenallee,Neustadt in Holstein,23730
54.10889,10.8189,Waschgrabenallee,Neustadt in Holstein,23730
54.11012,10.81858,Waschgrabenallee,Neustadt in Holstein,23730
54.11056000000001,10.81872,Vor dem Kremper Tor,Neustadt in Holstein,23730
54.11072000000001,10.8193,Vor dem Kremper Tor,Neustadt in Holstein,23730
54.11065000000001,10.820480000000002,Vor dem Kremper Tor,Neustadt in Holstein,23730
54.11155,10.82487,Vor dem Kremper Tor,Neustadt in Holstein,23730
54.11317,10.8295,Oldenburger Straße,Neustadt in Holstein,23730
54.11603,10.83539,Oldenburger Straße,Neustadt in Holstein,23730
54.11688,10.838030000000002,L 309,Neustadt in Holstein,23730
54.11738,10.84036,L 309,Neustadt in Holstein,23730
54.1187,10.84259,L 309,Neustadt in Holstein,23730
54.12141,10.84523,Neustädter Straße,Merkendorf,23730
54.12266,10.848350000000002,Neustädter Straße,Merkendorf,23730
54.12326,10.84908,Neustädter Straße,Merkendorf,23730
54.12371,10.84913,Neustädter Straße,Merkendorf,23730
54.12434,10.84876,Neustädter Straße,Merkendorf,23730
54.124860000000005,10.84869,Neustädter Straße,Merkendorf,23730
54.12548,10.84899,Neustädter Straße,Merkendorf,23730
54.126000000000005,10.84904,Neustädter Straße,Merkendorf,23730
54.128150000000005,10.84797,Neustädter Straße,Merkendorf,23730
54.12948,10.8477,Neustädter Straße,Merkendorf,23730
54.13481,10.84877,Neustädter Straße,Logeberg,23730
54.137980000000006,10.8483,Neustädter Straße,Logeberg,23730
54.13803000000001,10.84813,Neustädter Straße,Logeberg,23730
54.14331000000001,10.846100000000002,Neustädter Straße,Logeberg,23730
54.144360000000006,10.84618,Neustädter Straße,Logeberg,23730
54.14565,10.84664,Neustädter Straße,Logeberg,23730
54.14816,10.84852,Neustädter Straße,Groß Schlamin,23730
54.1508,10.85136,Neustädter Straße,Groß Schlamin,23730
54.154520000000005,10.85668,Neustädter Straße,Groß Schlamin,23730
54.156670000000005,10.85876,Neustädter Straße,Groß Schlamin,23730
54.15983000000001,10.863880000000002,Neustädter Straße,Groß Schlamin,23730
54.160590000000006,10.86616,Neustädter Straße,Groß Schlamin,23730
54.161100000000005,10.866930000000002,Neustädter Straße,Groß Schlamin,23730
54.16156,10.86721,Neustädter Straße,Groß Schlamin,23730
54.1628,10.86742,Neustädter Straße,Groß Schlamin,23730
54.16329,10.86772,Neustädter Straße,Groß Schlamin,23730
54.166160000000005,10.8704,Hauptstraße,Groß Schlamin,23730
54.167530000000006,10.87225,Hauptstraße,Groß Schlamin,23730
54.16890000000001,10.87342,Hauptstraße,Groß Schlamin,23730
54.173350000000006,10.87448,Hauptstraße,Groß Schlamin,23730
54.17502,10.875050000000002,Hauptstraße,Groß Schlamin,23730
54.17815,10.87663,Lensahner Straße,Beschendorf,23738
54.17942000000001,10.877540000000002,Lensahner Straße,Beschendorf,23738
54.18104,10.878100000000002,Lensahner Straße,Beschendorf,23738
54.182190000000006,10.87881,Lensahner Straße,Beschendorf,23738
54.182770000000005,10.87889,Lensahner Straße,Beschendorf,23738
54.185680000000005,10.87812,Lensahner Straße,Beschendorf,23738
54.187540000000006,10.87692,Lensahner Straße,Beschendorf,23738
54.1897,10.87614,Lensahner Straße,Beschendorf,23738
54.19331,10.87384,Lensahner Straße,Beschendorf,23738
54.19463,10.87362,Lensahner Straße,Beschendorf,23738
54.19564,10.87393,Lensahner Straße,Beschendorf,23738
54.197590000000005,10.87582,Lensahner Straße,Beschendorf,23738
54.19888,10.87663,Lensahner Straße,Beschendorf,23738
54.20175,10.87732,Lensahner Straße,Beschendorf,23738
54.20416,10.87733,Lensahner Straße,Beschendorf,23738
54.20483,10.877490000000002,Lensahner Straße,Beschendorf,23738
54.20577,10.87795,Lensahner Straße,Beschendorf,23738
54.20581000000001,10.87816,Lensahner Straße,Beschendorf,23738
54.20597000000001,10.87806,Lensahner Straße,Beschendorf,23738
54.20969,10.88002,Lübecker Straße,Lensahn,23738
54.21258,10.88199,Lübecker Straße,Lensahn,23738
54.214580000000005,10.882650000000002,Lübecker Straße,Lensahn,23738
54.216060000000006,10.88333,Lübecker Straße,Lensahn,23738
54.21658000000001,10.883400000000002,Lübecker Straße,Lensahn,23738
54.21811,10.88321,Lübecker Straße,Lensahn,23738
54.21958000000001,10.88335,Eutiner Straße,Lensahn,23738
54.220670000000005,10.882840000000002,Eutiner Straße,Lensahn,23738
54.22136,10.882840000000002,Eutiner Straße,Lensahn,23738
54.223780000000005,10.88402,Eutiner Straße,Lensahn,23738
54.22388,10.88431,Eutiner Straße,Lensahn,23738
54.22402,10.88418,Eutiner Straße,Lensahn,23738
54.22523,10.8846,Lübecker Straße,Lensahn,23738
54.229290000000006,10.88493,Lübecker Straße,Lensahn,23738
54.231840000000005,10.886590000000002,Rugenhandschen,Lensahn,23738
54.23302,10.88681,Rugenhandschen,Lensahn,23738
54.23496,10.8866,Rugenhandschen,Lensahn,23738
54.2383,10.88682,Grüner Hirsch,Lensahn,23738
54.23895,10.88665,Grüner Hirsch,Lensahn,23738
54.2415,10.88436,Grüner Hirsch,Lensahn,23738
54.24193,10.88413,Grüner Hirsch,Lensahn,23738
54.24362000000001,10.88231,K 59,Lensahn,23738
54.24916,10.87708,K 59,Lensahn,23738
54.25542000000001,10.874300000000002,Oldenburger Straße,Lensahn,23738
54.25666,10.874300000000002,Oldenburger Straße,Lensahn,23738
54.257470000000005,10.87451,Oldenburger Straße,Lensahn,23738
54.25984,10.8762,K 59,Lensahn,23738
54.26086,10.87675,K 59,Lensahn,23738
54.27653,10.88139,K 59,Oldenburg in Holstein,23738
54.27805000000001,10.882180000000002,K 59,Oldenburg in Holstein,23738
54.278580000000005,10.88216,K 59,Oldenburg in Holstein,23738
54.27917000000001,10.88187,K 59,Oldenburg in Holstein,23738
54.28089000000001,10.88033,K 59,Oldenburg in Holstein,23738
54.28332,10.87996,Neustädter Straße,Oldenburg in Holstein,23758
54.28383,10.879040000000002,Neustädter Straße,Oldenburg in Holstein,23758
54.28443000000001,10.87875,Neustädter Straße,Oldenburg in Holstein,23758
54.28536,10.8788,Neustädter Straße,Oldenburg in Holstein,23758
54.285720000000005,10.878990000000002,Neustädter Straße,Oldenburg in Holstein,23758
54.28810000000001,10.88206,Hospitalstraße,Oldenburg in Holstein,23758
54.28849,10.881150000000002,Hospitalstraße,Oldenburg in Holstein,23758
54.28958000000001,10.881710000000002,Hospitalstraße,Oldenburg in Holstein,23758
54.28856,10.881150000000002,Hospitalstraße,Oldenburg in Holstein,23758
54.28830000000001,10.88165,Hospitalstraße,Oldenburg in Holstein,23758
54.289370000000005,10.88302,Hospitalstraße,Oldenburg in Holstein,23758
54.290380000000006,10.88398,Hospitalstraße,Oldenburg in Holstein,23758
54.28989000000001,10.88501,Hospitalstraße,Oldenburg in Holstein,23758
54.289730000000006,10.88577,Hospitalstraße,Oldenburg in Holstein,23758
54.29063000000001,10.88848,Holsteiner Straße,Oldenburg in Holstein,23758
54.28992,10.89472,Holsteiner Straße,Oldenburg in Holstein,23758
54.29057,10.89772,Göhler Straße,Oldenburg in Holstein,23758
54.29256,10.89803,Göhler Straße,Oldenburg in Holstein,23758
54.29318000000001,10.89864,Göhler Straße,Oldenburg in Holstein,23758
54.29391,10.89971,Göhler Straße,Oldenburg in Holstein,23758
54.294520000000006,10.90122,Göhler Straße,Oldenburg in Holstein,23758
54.29551000000001,10.902450000000002,Kremsdorfer Weg,Oldenburg in Holstein,23758
54.29589000000001,10.90364,Kremsdorfer Weg,Oldenburg in Holstein,23758
54.29710000000001,10.91121,Am Rathsland,Oldenburg in Holstein,23758
54.29948,10.91164,Am Rathsland,Oldenburg in Holstein,23758
54.305150000000005,10.92065,Am Sandkamp,Giddendorf,23758
54.30649,10.92311,Am Sandkamp,Giddendorf,23758
54.30731,10.92414,Am Sandkamp,Giddendorf,23758
54.30762000000001,10.92562,Am Sandkamp,Giddendorf,23758
54.30843,10.92714,Am Sandkamp,Giddendorf,23758
54.308870000000006,10.93076,Am Sandkamp,Giddendorf,23758
54.30973,10.93425,Am Sandkamp,Giddendorf,23758
54.31128,10.93803,Langereihe,Giddendorf,23758
54.313190000000006,10.941210000000002,Langereihe,Giddendorf,23758
54.31378,10.94312,Langereihe,Giddendorf,23758
54.3139,10.94619,Langereihe,Giddendorf,23758
54.314910000000005,10.95517,Langereihe,Giddendorf,23758
54.31506,10.959510000000002,Langereihe,Giddendorf,23758
54.31591,10.97039,Neuseegalendorf,Gremersdorf,23779
54.31626000000001,10.972930000000002,Neuseegalendorf,Gremersdorf,23779
54.316590000000005,10.97444,Neuseegalendorf,Gremersdorf,23779
54.31805000000001,10.97785,L 60,Gremersdorf,23779
54.31862,10.980390000000002,L 60,Gremersdorf,23779
54.3201,10.98301,L 60,Gremersdorf,23779
54.32045,10.98398,L 60,Gremersdorf,23779
54.3207,10.98502,Meeschendorf,Meeschendorf,23779
54.320690000000006,10.987520000000002,Meeschendorf,Meeschendorf,23779
54.32083000000001,10.98842,Meeschendorf,Meeschendorf,23779
54.32142,10.99023,Meeschendorf,Meeschendorf,23779
54.32211,10.99162,Meeschendorf,Meeschendorf,23779
54.32303,10.99476,Meeschendorf,Meeschendorf,23779
54.323150000000005,10.99685,Meeschendorf,Meeschendorf,23779
54.32272,11.00129,Meeschendorf,Meeschendorf,23779
54.32345,11.00532,Georgshof,Meeschendorf,23779
54.32455,11.0134,An der Kirche,Neukirchen,23779
54.32448,11.013660000000002,An der Kirche,Neukirchen,23779
54.32388,11.01412,An der Kirche,Neukirchen,23779
54.323710000000005,11.01466,An der Kirche,Neukirchen,23779
54.32413,11.01932,An der Kirche,Neukirchen,23779
54.33225,11.0242,Bäderstraße,Ölendorf,23779
54.335080000000005,11.02564,Bäderstraße,Ölendorf,23779
54.336290000000005,11.02603,Bäderstraße,Ölendorf,23779
54.33881,11.026370000000002,B 501,Ölendorf,23779
54.34138,11.026090000000002,B 501,Ölendorf,23779
54.34255,11.02575,B 501,Ölendorf,23779
54.343970000000006,11.0251,B 501,Ölendorf,23779
54.34499,11.0243,B 501,Ölendorf,23779
54.34568,11.023510000000002,B 501,Ölendorf,23779
54.348200000000006,11.018680000000002,Bäderstraße,Lütjenbrode,23775
54.350930000000005,11.01542,Bäderstraße,Lütjenbrode,23775
54.35224,11.01322,Bäderstraße,Lütjenbrode,23775
54.35318,11.01583,Bäderstraße,Lütjenbrode,23775
54.354310000000005,11.01743,Bäderstraße,Lütjenbrode,23775
54.35574,11.01986,Eichthaler Weg,Lütjenbrode,23775
54.3562,11.020930000000002,Eichthaler Weg,Lütjenbrode,23775
54.356640000000006,11.02331,Eichthaler Weg,Lütjenbrode,23775
54.357670000000006,11.02557,Eichthaler Weg,Lütjenbrode,23775
54.35838,11.03035,Eichthaler Weg,Lütjenbrode,23775
54.35921,11.03157,Eichthaler Weg,Lütjenbrode,23775
54.35974,11.03336,Eichthaler Weg,Lütjenbrode,23775
54.36092000000001,11.036230000000002,Eichthaler Weg,Lütjenbrode,23775
54.36113,11.03868,Bahnhofstraße,Lütjenbrode,23775
54.362370000000006,11.04301,Bahnhofstraße,Lütjenbrode,23775
54.362750000000005,11.04587,K 42,Lütjenbrode,23775
54.36335,11.048430000000002,K 42,Lütjenbrode,23775
54.36375,11.05159,K 42,Lütjenbrode,23775
54.36356000000001,11.05485,K 42,Lütjenbrode,23775
54.36421000000001,11.05995,K 42,Lütjenbrode,23775
54.36458,11.06484,K 42,Lütjenbrode,23775
54.364,11.073950000000002,K 42,Großenbrode,23775
54.364430000000006,11.07554,K 42,Großenbrode,23775
54.3655,11.07759,K 42,Großenbrode,23775
54.36711,11.08176,Am Fliederhof,Großenbrode,23775
54.36759000000001,11.08253,Am Fliederhof,Großenbrode,23775
54.369600000000005,11.08425,Am Fliederhof,Großenbrode,23775
54.37472,11.08501,Nordlandstraße,Großenbrode,23775
54.37559,11.08497,Nordlandstraße,Großenbrode,23775
54.37772,11.08605,Nordlandstraße,Großenbrode,23775
54.37873,11.087370000000002,Nordlandstraße,Großenbrode,23775
54.379810000000006,11.08726,K 42,Großenbrode,23775
54.380190000000006,11.08754,K 42,Großenbrode,23775
54.38031,11.08747,K 42,Großenbrode,23775
54.3802,11.08899,K 42,Großenbrode,23775
54.38193,11.09269,K 42,Großenbrode,23775
54.38215,11.09285,K 42,Großenbrode,23775
54.38253,11.0928,K 42,Großenbrode,23775
54.38264,11.09295,K 42,Großenbrode,23775
54.38326000000001,11.09452,B 207,Großenbrode,23775
54.383770000000005,11.09501,B 207,Großenbrode,23775
54.38420000000001,11.09496,B 207,Großenbrode,23775
54.384890000000006,11.09515,B 207,Großenbrode,23775
54.38808,11.09644,B 207,Großenbrode,23775
54.38802,11.10217,B 207,Großenbrode,23775
54.38890000000001,11.1031,B 207,Großenbrode,23775
54.39144,11.105390000000002,B 207,Großenbrode,23775
54.39413,11.107360000000002,B 207,Großenbrode,23775
54.40466000000001,11.11424,B 207,Fehmarn,23769
54.40803,11.11598,B 207,Fehmarn,23769
54.40560000000001,11.1143,B 207,Fehmarn,23769
54.405280000000005,11.113930000000002,B 207,Fehmarn,23769
54.404790000000006,11.11369,B 207,Fehmarn,23769
54.40442,11.11389,B 207,Fehmarn,23769
54.40429,11.1147,B 207,Fehmarn,23769
54.40447,11.11558,B 207,Fehmarn,23769
54.40505,11.11606,B 207,Fehmarn,23769
54.40458,11.11891,B 207,Fehmarn,23769
54.40343000000001,11.122520000000002,Fehmarnsund,Fehmarn,23769
54.403470000000006,11.125470000000002,Fehmarnsund,Fehmarn,23769
