Name,Typ,Adresse,Latitude,Longitude
Betriebssportcasino,restaurant,"Wendenstraße, 120, 20537, Hamburg",53.5479824,10.0308402
jam jam,restaurant,"Eiffestraße, 78, 20537, Hamburg",53.5523106,10.0391956
Yafa,restaurant,Adresse unbekannt,53.5510508,10.035921
Rettungsbrot,bakery,"Klaus-Groth-Straße, 40, 20535, Hamburg",53.5551642,10.0307297
Stulle Plus,restaurant,Adresse unbekannt,53.5496614,10.0253789
Delhicious,restaurant,Adresse unbekannt,53.5498676,10.035543
St.Georg Bäckerei,bakery,Adresse unbekannt,53.5576458,10.0207228
Café-Shop Blueberry,cafe,Adresse unbekannt,53.5564901,10.0216254
Café Berliner Tor,cafe,Adresse unbekannt,53.5571934,10.0228843
Nur Hier,bakery,Beim Strohhause,53.5536183,10.0216129
La Malême,cafe,Adresse unbekannt,53.5531229,10.02319
Brot&Brötchen Café,bakery,Adresse unbekannt,53.5529638,10.0222781
ASIA24,supermarket,Adresse unbekannt,53.553039,10.022702
Nur Hier,bakery,Adresse unbekannt,53.5527158,10.0205484
Kaufland,supermarket,"Beim Strohhause, 8, 20097, Hamburg",53.5524952,10.0205863
Restaurant,restaurant,Adresse unbekannt,53.5568288,10.0216891
Oh It's Fresh,cafe,Adresse unbekannt,53.5572065,10.0216292
Backshop Beim Strohhause,bakery,Adresse unbekannt,53.5529193,10.0219275
Novo2,restaurant,Adresse unbekannt,53.5589612,10.0253025
AnTee Vegan,restaurant,"Ferdinand-Beit-Straße, 7, 20099, Hamburg",53.5540249,10.0192791
Schlemmerschule - Eventlocation,restaurant,"Lübeckertordamm, 4, 20099, Hamburg",53.5571252,10.0217484
EBike Doc,bicycle,Adresse unbekannt,53.5551043,10.020771
bistro fresh,cafe,Adresse unbekannt,53.5566249,10.025095
Drinking_water,drinking_water,Adresse unbekannt,53.5532589,10.0240361
Café Herzstück,cafe,"Alexanderstraße, 18, 20099",53.5557996,10.0203474
Damascino,restaurant,"Berliner Tor, 3, 20099, Hamburg",53.5569031,10.0215117
Reisprinzen,restaurant,"Bürgerweide, 36, 20535, Hamburg",53.5569859,10.0315994
Anleger 1870,restaurant,"Hartwicusstraße, 7, 22087, Hamburg",53.5657249,10.0191581
Alstercafé,bakery,"Ifflandstraße, 45, 22087, Hamburg",53.561613,10.0219757
Sushi Company,restaurant,Adresse unbekannt,53.5602734,10.025759
Pappenheimer Wirtschaft,restaurant,"Papenhuder Straße, 26, 22087, Hamburg",53.5667111,10.0195345
Speisewirtschaft Opitz,restaurant,"Mundsburger Damm, 17, 22087, Hamburg",53.5649644,10.0183395
REWE,supermarket,"Lübecker Straße, 107, 22087, Hamburg",53.5621792,10.0313413
Griffato's,restaurant,"Lübecker Straße, 85, 22087, Hamburg",53.5612577,10.0306634
Mit Herz & Zucker,cafe,"Lübecker Straße, 29, 22087, Hamburg",53.5609276,10.0300268
Bäckerei/Cafe Allaf,bakery,"Lübecker Straße, 72, 22087, Hamburg",53.5601227,10.0293458
Spanische Treppe,restaurant,"Armgartstraße, 7",53.5654751,10.0191272
Goldherz,cafe,"Hartwicusstraße, 20, 22087, Hamburg",53.5662578,10.0245181
The Ramen Hamburg II,restaurant,"Papenhuder Straße, 22, 22087, Hamburg",53.5662859,10.0197116
KinEz,cafe,"Ifflandstraße, 69, 22087, Hamburg",53.5631268,10.0214846
Morgenstund,bakery,Adresse unbekannt,53.5673898,10.0229535
Muttels,supermarket,"Papenhuder Straße, 28, 22087, Hamburg",53.5668092,10.0194643
Dat Backhus,bakery,Adresse unbekannt,53.5639592,10.0237132
Moku Poké,restaurant,Adresse unbekannt,53.5669927,10.0223397
xodó,restaurant,"Papenhuder Straße, 26, 22087, Hamburg",53.566579,10.0196034
Sushi für Hamburg,restaurant,Adresse unbekannt,53.5605236,10.030126
The Noodle House,restaurant,"Ifflandstraße, 92, 22087",53.5636066,10.0241052
Baris,restaurant,"Lerchenfeld, 48, 22081, Hamburg",53.5700016,10.0279222
Inos,restaurant,"Finkenau, 1, 22081",53.571335,10.0302686
Il Nonnino,restaurant,"Mundsburger Damm, 45, 22087, Hamburg",53.5683952,10.0236822
PENNY,supermarket,"Hamburger Straße, 1, 22083",53.5708984,10.0277337
Surimex Cafe Bistro,cafe,Adresse unbekannt,53.5680648,10.023119
Pedalross,bicycle,"Mundsburger Damm, 58, 22087, Hamburg",53.569233,10.0257336
Schanzenbäckerei,bakery,Adresse unbekannt,53.569393,10.0275187
Flickenschildt,restaurant,"Mundsburger Damm, 63, 22087, Hamburg",53.5700534,10.0261886
Café Näscherei,cafe,Adresse unbekannt,53.5670944,10.0192818
Asiatische Lebensmittel KIM,supermarket,Adresse unbekannt,53.5679805,10.0229304
Schanzenbäckerei,bakery,Adresse unbekannt,53.5706024,10.0271292
Bodega Sesenta,restaurant,"Mundsburger Damm, 60, 22087, Hamburg",53.5693816,10.0261906
Osho Ayu-Leela,restaurant,Adresse unbekannt,53.5681485,10.023257
illy,cafe,Adresse unbekannt,53.5717732,10.0287346
Double Coffee,cafe,Adresse unbekannt,53.5700929,10.0262643
Mäxx,restaurant,Adresse unbekannt,53.576047,10.0302602
Albatros Café,cafe,"Wagnerstraße, 5",53.574867,10.0367753
Dat Backhus,bakery,Adresse unbekannt,53.5744539,10.0371849
LORDS Deli,cafe,"Beim Alten Schützenhof, 16",53.5755446,10.0293471
Ahoi Velo (Neuradmontage und Abholung),bicycle,"Wagnerstraße, 16-18, 22081, Hamburg",53.5741394,10.0361116
Mantu,restaurant,Adresse unbekannt,53.5736276,10.0319374
Malik Marokkanischer Supermarkt,supermarket,Adresse unbekannt,53.5750013,10.0365182
Los Damas,restaurant,"Hamburger Straße, 17-49",53.5741365,10.0331156
Papaya,restaurant,Adresse unbekannt,53.5729933,10.0241797
ALDI,supermarket,"Holsteinischer Kamp, 65, 22081, Hamburg",53.5750045,10.0433901
REWE,supermarket,"Holsteinischer Kamp, 53, 22081, Hamburg",53.5754213,10.0421407
Falafel Factory,restaurant,"Barmbeker Markt, 40, 22081, Hamburg",53.5795062,10.0408825
Asia Supermarket,supermarket,Adresse unbekannt,53.579965,10.0418361
Goldener Drache,restaurant,Adresse unbekannt,53.5780158,10.0385387
Daube,bakery,"Dehnhaide, 6, 22081, Hamburg",53.5791686,10.0417834
Samui Thai Cuisine,restaurant,Adresse unbekannt,53.5775893,10.0327616
Tunici Restaurants Barmbek-Süd,restaurant,"Adolph-Schönfelder-Straße, 49, 22083, Hamburg",53.5779958,10.0324453
Il Ristorantino,restaurant,"Wohldorfer Straße, 30",53.576919,10.0429151
Daube,bakery,"Hamburger Straße, 206, 22083, Hamburg",53.5792648,10.040115
Konditorei Ulrich Münch,cafe,"Weidestraße, 26, 22083, Hamburg",53.5804596,10.0374208
Räderei Hamburg,bicycle,"Weidestraße, 18, 22083, Hamburg",53.5804421,10.038328
Caruso,restaurant,"Weidestraße, 49, 22083, Hamburg",53.5800277,10.0360247
re.cycle Barmbek,bicycle,"Hamburger Straße, 200, 22083, Hamburg",53.5790022,10.0399667
Asia Imbiss,restaurant,Adresse unbekannt,53.5791348,10.0418608
Đỗ Quán,restaurant,"Dehnhaide, 12, 22081, Hamburg",53.5790091,10.042433
PENNY,supermarket,Adresse unbekannt,53.5786223,10.0396626
Rüya,restaurant,Adresse unbekannt,53.5794618,10.0407747
Rewe,supermarket,"Dehnhaide, 57, 22081, Hamburg",53.57929,10.0463285
LüttLiv,restaurant,"Maurienstraße, 19, 22305, Hamburg",53.5857798,10.0449119
T.R.U.D.E.,restaurant,"Maurienstraße, 13, 22305, Hamburg",53.5850016,10.0450945
Schweinske Barmbek,restaurant,"Barmbeker Markt, 19, 22081, Hamburg",53.5822365,10.0434948
New Asia,supermarket,Adresse unbekannt,53.5840995,10.046864
Netto Marken-Discount,supermarket,"Haferkamp, 8, 22081, Hamburg",53.5815211,10.0448644
Eis Qgel,cafe,"Dehnhaide, 56, 22081, Hamburg",53.5788525,10.0456225
Käthners 23,restaurant,"Käthnerort, 23, 22083, Hamburg",53.5817462,10.0375198
Bartels Breakfastclub,cafe,"Alter Teichweg, 7a",53.5828603,10.0475036
Vi Foods,restaurant,"Alter Teichweg, 9c",53.5827917,10.0478468
Sushi Green,restaurant,Adresse unbekannt,53.5828281,10.0476945
Torhauskantine,cafe,Adresse unbekannt,53.5857756,10.0454187
PENNY,supermarket,"Drosselstraße, 1, Hamburg",53.5872582,10.050134
Nur Hier,bakery,"Fuhlsbüttler Straße, 107-109, 22305, Hamburg",53.58884,10.0453098
Burger Boss,restaurant,Adresse unbekannt,53.5889538,10.0459661
Restaurant Alexandros,restaurant,"Bramfelder Straße, 87a, 22305, Hamburg",53.5880726,10.0520853
von Allwörden,bakery,Adresse unbekannt,53.5870335,10.0440636
Dallmeyers Backhus,bakery,Adresse unbekannt,53.5834632,10.0567484
Roomyz,cafe,"Pestalozzistraße, 20, 22305",53.5872454,10.0471061
Morgenland,restaurant,"Pestalozzistraße, 19, 22305",53.5875175,10.0471943
Soulkebab,restaurant,"Fuhlsbüttler Straße, 97, 22305, Hamburg",53.5878452,10.0457672
Sira,restaurant,Adresse unbekannt,53.5876287,10.0467373
Denns BioMarkt,supermarket,"Massaquoipassage, 5, 22305, Hamburg",53.5884333,10.0446426
Ditsch,bakery,Adresse unbekannt,53.5874357,10.0446227
Leontes,cafe,"Fuhlsbüttler Straße, 116, 22305, Hamburg",53.58943,10.0457472
ALDI,supermarket,"Krüsistraße, 7, 22305, Hamburg",53.5879662,10.0448355
REWE,supermarket,"Krüsistraße, 7, 22305, Hamburg",53.5880487,10.0448509
Espresso House,cafe,"Krüsistraße, 7, 22305, Hamburg",53.5878226,10.0448923
The Public pub & bar,restaurant,"Fuhlsbüttler Straße, 32, 22305, Hamburg",53.586115,10.0469665
L‘Quán,restaurant,"Fuhlsbüttler Straße, 108, 22305, Hamburg",53.5886799,10.0461305
Naan,restaurant,Adresse unbekannt,53.588325,10.0455882
Specialized Service Center,bicycle,Adresse unbekannt,53.5893152,10.0557522
Daddy Pizza,restaurant,Adresse unbekannt,53.5904196,10.0546865
Braaker Mühle,bakery,"Habichtstraße, 96, 22305, Hamburg",53.5933366,10.0523389
Rad-Haus Habichtstraße,bicycle,"Habichtstraße, 104a, 22307, Hamburg",53.5941315,10.0507533
espresso,cafe,Adresse unbekannt,53.5934758,10.0521207
Konditorei Nehberg,bakery,"Hellbrookstraße, 83, 22305, Hamburg",53.5917822,10.0491756
friends,cafe,Adresse unbekannt,53.593376,10.0525234
Köster-Cafe,cafe,Adresse unbekannt,53.5904631,10.0570524
Minimarkt,supermarket,Adresse unbekannt,53.5902689,10.0569773
REWE,supermarket,"Fabriciusstraße, 1-5, 22177, Hamburg",53.5942143,10.0586902
Spiess Taverne,restaurant,"Bramfelder Chaussee, 48, 22177, Hamburg",53.5960387,10.0629894
von Allwörden,bakery,"Bramfelder Chaussee, 84, 22177, Hamburg",53.5981846,10.0668344
Eis-Cafe Arktis,cafe,"Werner-Otto-Straße, 42",53.5969487,10.0717068
Home Sweet Home,restaurant,"Haldesdorfer Straße, 36 b",53.5972117,10.0708648
Kiosk,cafe,Adresse unbekannt,53.6018336,10.0701184
Hansemarkt,supermarket,"Fabriciusstraße, 22177, Hamburg",53.6020995,10.0624668
Masala Express,restaurant,Adresse unbekannt,53.6017252,10.0622897
Mega Bike,bicycle,"Bramfelder Chaussee, 148, 22177, Hamburg",53.6046885,10.0708337
von Allwörden,bakery,Adresse unbekannt,53.6035081,10.0722216
Kantine Elbe,restaurant,Adresse unbekannt,53.6006853,10.0734447
Daube,bakery,"Fabriciusstraße, 105, 22177, Hamburg",53.6027238,10.0630491
Hamburg Bikes,bicycle,Adresse unbekannt,53.6117823,10.074703
Kaufcity,supermarket,"Bramfelder Chaussee, 211, 22177, Hamburg",53.6110248,10.0735878
Café Konditorei Melodie,cafe,Adresse unbekannt,53.6116429,10.0746118
Norddeutsche Zweiradschmiede,bicycle,"Bramfelder Chaussee, 220",53.6112062,10.0743918
Fresh Masala,restaurant,Adresse unbekannt,53.6091937,10.0724412
Pokeman,restaurant,Adresse unbekannt,53.6092852,10.0724466
Indian Temple,restaurant,Adresse unbekannt,53.6105104,10.0740502
Restaurant & Café Seehof,restaurant,"Fabriciusstraße, 288, 22177, Hamburg",53.6176611,10.0734614
Vistro - Café - Pizzeria - Bar,restaurant,"Bramfelder Chaussee, 265, 22177, Hamburg",53.6152153,10.0759188
Zum Bräustüberl am Dorfplatz,restaurant,Adresse unbekannt,53.613333,10.0790298
GZeiten,restaurant,"Bramfelder Chaussee, 302, 22177, Hamburg",53.6175364,10.0787288
Hanoi Quan,restaurant,Adresse unbekannt,53.6155715,10.0767958
Mas Market,supermarket,"Bramfelder Chaussee, 251, 22177, Hamburg",53.6140576,10.0756873
Schweinske,restaurant,"Bramfelder Chaussee, 280, 22177, Hamburg",53.6163833,10.0774246
La Fortuna,restaurant,"Bramfelder Chaussee, 306, 22177, Hamburg",53.6176116,10.0792592
Marco’s Bistro de Glamour,cafe,"Bramfelder Dorfplatz, 4 A, 22179, Hamburg",53.6137193,10.0770103
Cozymir,cafe,"Bramfelder Dorfplatz, 10, 22179, Hamburg",53.6131538,10.0773208
PENNY,supermarket,"Bramfelder Chaussee, 291, 22177, Hamburg",53.617276,10.0776306
Gazelle e-bike store,bicycle,Adresse unbekannt,53.6180631,10.0794263
Sandal Fisch Grill Haus,restaurant,Adresse unbekannt,53.6158237,10.0763297
Drinking_water,drinking_water,Adresse unbekannt,53.6225748,10.077818
Drinking_water,drinking_water,Adresse unbekannt,53.6169611,10.0868886
Drinking_water,drinking_water,Adresse unbekannt,53.6174766,10.0873813
Drinking_water,drinking_water,Adresse unbekannt,53.6177221,10.0869616
Bramfelder Wirtshaus,restaurant,"Bramfelder Chaussee, 361, 22175, Hamburg",53.6207098,10.0816193
EDEKA,supermarket,"Bramfelder Chaussee, 322, 22177, Hamburg",53.6187256,10.0807064
Rohlfs Bäckerei,bakery,"Bramfelder Chaussee, 324, 22177, Hamburg",53.6187838,10.0806573
Drinking_water,drinking_water,Adresse unbekannt,53.626006,10.0831994
Drinking_water,drinking_water,Adresse unbekannt,53.6232741,10.0776708
Das Frühstückszimmer,cafe,"Bramfelder Drift, 20, 22175, Hamburg",53.6302525,10.0865158
Soul Sushi Sasel,restaurant,"Saseler Chaussee, 63, 22391, Hamburg",53.6383778,10.0940186
Banoo,restaurant,"Saseler Chaussee, 88, 22391, Hamburg",53.6429929,10.0989541
China Ente Sasel,restaurant,"Saseler Chaussee, 88a, 22391, Hamburg",53.643047,10.0991137
Brotkumpels – Die Saselbäcker,bakery,"Auf der Heide, 22a, 22393, Hamburg",53.6444454,10.1060218
Aldi,supermarket,"Kunaustraße, 1, 22393, Hamburg",53.6529137,10.1106026
Taj,restaurant,"Stadtbahnstraße, 39d, 22393, Hamburg",53.6529816,10.1034019
Café Pause,cafe,Adresse unbekannt,53.6546084,10.1098024
denn's Biomarkt,supermarket,"Stratenbarg, 2, 22393, Hamburg",53.6543992,10.1126361
EDEKA Jessen,supermarket,"Saseler Damm, 14-16, 22395, Hamburg",53.6549269,10.1007116
Rohlfs Bäckerei,bakery,"Saseler Markt, 19, 22393, Hamburg",53.6531682,10.1116096
Nur Hier,bakery,Adresse unbekannt,53.6531919,10.1124188
Die Ise - Die Chocolaterie,cafe,"Waldweg, 9, 22393, Hamburg",53.6538111,10.1147591
Eisliebe,cafe,"Wohldorfer Damm, 10, 22395, Hamburg",53.6726249,10.1261323
Braaker Mühle,bakery,Adresse unbekannt,53.6703518,10.1265506
Tapiro D'Oro,restaurant,"Bergstedter Markt, 1, 22395, Hamburg",53.6710101,10.1245892
Zum Bäcker,restaurant,"Herrenhausallee, 9, 22397, Hamburg",53.7099799,10.1319684
Wohldorfer Mühle,restaurant,"Mühlenredder, 38",53.7099374,10.1301567
Bäckerei Hinze,bakery,Adresse unbekannt,53.7099628,10.1316983
Waldesruh / Wilhelm,restaurant,Adresse unbekannt,53.7483658,10.1739421
Lieblings,restaurant,"Waldweg, 6",53.7629163,10.1851178
Café Vogelsand,bakery,"Mittelweg, 5, 23863, Bargfeld-Stegen",53.7672546,10.1864054
Frischemarkt Märkl,supermarket,"Kayhuder Straße, 2, 23863, Bargfeld-Stegen",53.766629,10.1866543
Landbäckerei Matthiessen,bakery,"Am Markt, 2, 23867, Sülfeld",53.8001767,10.23193
Eiscafe Jella,cafe,Adresse unbekannt,53.799824,10.2305054
Kühl´s Restaurant,restaurant,Adresse unbekannt,53.8032233,10.2745181
Drinking_water,drinking_water,Adresse unbekannt,53.8369401,10.2985941
Zum Keglertreff,restaurant,Adresse unbekannt,53.9209536,10.3215399
Park-Cafe,cafe,"Rosenstraße, 33-35, 23795, Bad Segeberg",53.9258492,10.3186398
Bäckerei Konditorei. Gräper,bakery,Adresse unbekannt,53.9331823,10.315733
Florian Ritzki,restaurant,"Lübecker Landstraße, 18, 23795, Bad Segeberg",53.9315377,10.3254211
Bäckerei Schmidt,bakery,Adresse unbekannt,54.0156599,10.5724698
Brede,bakery,"Lindenstraße, 32, 23684, Scharbeutz",54.0451635,10.6740408
Von Allwörden,bakery,Adresse unbekannt,54.047958,10.7464504
Bäckerei Schacht,bakery,"Strandallee, 25, 23683, Scharbeutz",54.0491414,10.7507579
Backbord,restaurant,"Strandallee, 49, 23683, Scharbeutz",54.0468866,10.7498498
Brumund's Fischleckereien,restaurant,"Strandallee, 51, 23683, Scharbeutz",54.0464896,10.7497374
Café-Häuschen,cafe,"Strandallee, 17, 23683, Scharbeutz",54.0502828,10.7514034
Janny's Eis,cafe,Adresse unbekannt,54.0517163,10.7521771
Seßelberg,bakery,"Strandallee, 5, 23683, Scharbeutz",54.0516166,10.752133
Strand Café,cafe,"Strandallee, 6, 23683, Scharbeutz",54.0514463,10.7520441
Sai Gon,restaurant,"Strandallee, 22, 23683, Scharbeutz",54.0497067,10.7509787
Corfu,restaurant,Adresse unbekannt,54.0518383,10.7522523
Vista Mare,restaurant,"23683, Scharbeutz",54.0511574,10.7518219
Ostsee-Panorama,restaurant,Adresse unbekannt,54.0496025,10.7509141
Kafferösterei,cafe,Adresse unbekannt,54.0513502,10.7519381
Ocean's,restaurant,Adresse unbekannt,54.0521154,10.7528222
Brede,bakery,"Bahnhofstraße, 15, 23683, Scharbeutz",54.0527452,10.7481256
Fischbrötchen .....Bistro..... Räucherfisch,restaurant,"Strandallee, 5, 23683, Scharbeutz",54.0517788,10.7522476
Buhne 15,restaurant,Adresse unbekannt,54.0505058,10.7512721
Saloon „New Chance“,restaurant,Adresse unbekannt,54.0755348,10.7821632
Weltumsegler,restaurant,Adresse unbekannt,54.0751919,10.7777142
Cafeteria,cafe,Adresse unbekannt,54.0745098,10.7773747
Drinking_water,drinking_water,Adresse unbekannt,54.0744501,10.7773851
Joe’s Cowboy Cookout Barbecue,restaurant,Adresse unbekannt,54.0754238,10.7818442
Birdie's,restaurant,"Gutshof, 9, 23730, Sierksdorf",54.0819285,10.7736149
Wintershagen Gutshofcafé,cafe,"Gutshof, 9, 23730, Sierksdorf",54.0818722,10.7736193
Rewe,supermarket,"Sierksdorfer Straße, 8, 23730, Neustadt in Holstein",54.097155,10.7901801
Ambrosia,restaurant,Adresse unbekannt,54.1059895,10.8098322
Gemütlich Essen & Trinken,restaurant,Adresse unbekannt,54.1065147,10.8095057
Eiscafe Vicino,cafe,"Untere Querstraße, 3, 23730, Neustadt in Holstein",54.1070941,10.8104954
Nahkauf,supermarket,"Am Markt, 10, 23730, Neustadt in Holstein",54.1075567,10.8133444
Mien Backstuuv,bakery,"Brückstraße, 2, 23730, Neustadt in Holstein",54.1072249,10.813606
KaffeeWestseite,cafe,"Bahnhofstraße, 16, 23730, Neustadt in Holstein",54.1039966,10.8078533
Drinking_water,drinking_water,Adresse unbekannt,54.1088867,10.8123891
Ristorante Vicino,restaurant,"Untere Querstraße, 3, 23730, Neustadt in Holstein",54.1071285,10.8104651
Pizzeria La Piccola,restaurant,"Waschgrabenstraße, 5, 23730, Neustadt in Holstein",54.1068258,10.8149349
Four Seasons Restaurant,restaurant,"Kremper Straße, 12 a, 23730, Neustadt in Holstein",54.1085041,10.8159253
Jinder's Pizza Service,restaurant,Adresse unbekannt,54.1099134,10.816661
Golden Leaf,cafe,"Hochtorstraße, 7, 23730, Neustadt in Holstein",54.1072843,10.8157437
Brocks Café & Bar,cafe,"Am Markt, 6, 23730, Neustadt in Holstein",54.1073771,10.8150215
Bäckerei Seßelberg,bakery,"Am Markt, 7, 23730, Neustadt in Holstein",54.1072992,10.8149645
Pizzeria Rana,restaurant,Adresse unbekannt,54.1056155,10.8148237
bei Marco,restaurant,"Dr.-Julius-Stinde-Straße, 2a, 23738, Lensahn",54.214178,10.8808652
Bauernhofcafe,restaurant,"Bäderstraße, 18, 23738, Lensahn",54.2161491,10.8878595
LaRia,restaurant,"Lübecker Straße, 28, 23738, Lensahn",54.2145487,10.882301
EDEKA Jens,supermarket,"Eutiner Straße, 11, 23738, Lensahn",54.2197812,10.8847447
Puck,bakery,"Bäderstraße, 2, 23738, Lensahn",54.2204952,10.8867523
Balkan-Restaurant Bei Jovo,restaurant,"Bäderstraße, 15, 23738, Lensahn",54.2195932,10.8883219
Mien Backstuuv,bakery,"Eutiner Straße, 11, 23738, Lensahn",54.2198555,10.8848593
PENNY,supermarket,"Bäderstraße, 17, 23738, Lensahn",54.2192313,10.8887876
Zweirad Hartje,bicycle,"Schuhstraße, 99, 23758, Oldenburg in Holstein",54.2868752,10.8807475
REWE,supermarket,"Kieler Chaussee, 4a, 23758, Oldenburg in Holstein",54.2875928,10.8777176
Landbäckerei - Unser Norden Landbäcker,bakery,"Kieler Chaussee, 4a, 23758, Oldenburg in Holstein",54.2875816,10.8775092
Netto,supermarket,"Holsteiner Straße, 2, 23758, Oldenburg in Holstein",54.2907943,10.8876011
Akropolis,restaurant,"Markt, 4, 23758, Oldenburg in Holstein",54.2913953,10.8862948
Landbäckerei Puck,bakery,"Holsteiner Straße, 2, 23758, Oldenburg in Holstein",54.2909284,10.8877368
PENNY,supermarket,"Kieler Chaussee, 6, 23758, Oldenburg in Holstein",54.2877083,10.8766283
Grillmaster,restaurant,Adresse unbekannt,54.2892879,10.8839576
Edeka,supermarket,"Göhler Straße, 7, 23758, Oldenburg in Holstein",54.2910902,10.8916415
Modrücker's Restaurant,restaurant,"Kuhtorstraße, 3, 23758, Oldenburg in Holstein",54.2917944,10.8884868
Insel-Bäckerei,bakery,"Markt, 28, 23758, Oldenburg in Holstein",54.2915923,10.887383
Mephisto,restaurant,"Markt, 9, 23758, Oldenburg in Holstein",54.2919463,10.8862587
Stadtcafe,cafe,"Markt, 8, 23758, Oldenburg in Holstein",54.2918757,10.8862869
Bio-Markt,supermarket,"Schauenburger Straße, 5, 23758, Oldenburg in Holstein",54.2907247,10.8897223
von Allwörden,bakery,"Göhler Straße, 7, 23758, Oldenburg in Holstein",54.2910886,10.8913303
Keglerheim,restaurant,"Meiereiweg, 12, 23758, Oldenburg in Holstein",54.2881701,10.8929443
Pola Pola,restaurant,"Lankenstraße, 1a, 23758, Oldenburg in Holstein",54.2895276,10.8903824
Insel-Bäckerei,cafe,"Markt, 28, 23758, Oldenburg in Holstein",54.291558,10.887288
Aldi,supermarket,"Göhler Straße, 5, 23758, Oldenburg in Holstein",54.2910076,10.8904231
La Trattoria,restaurant,"Kuhtorstraße, 1, 23758, Oldenburg in Holstein",54.2918644,10.8877164
Cafe Leselampe,cafe,Adresse unbekannt,54.2917852,10.8895464
Lidl,supermarket,"Am Voßberg, 3, 23758, Oldenburg in Holstein",54.2929443,10.9117722
Edeka Jens,supermarket,"Strandstraße, 1b, 23775, Großenbrode",54.3683449,11.0841978
Restaurant,restaurant,Adresse unbekannt,54.3675538,11.0851188
Puck,bakery,Adresse unbekannt,54.3702724,11.0841575
Café Mehlbeere,cafe,"Alte Sundstraße, 9, 23775, Großenbrode",54.3752936,11.0892977
Restaurant Großenbrode,restaurant,Adresse unbekannt,54.373082,11.0862136
Café MeerZeit,cafe,"Fehmarnsund, 13, 23769, Fehmarn",54.4038592,11.121483
