Latitude,Longitude,Street,City,PostalCode
43.391952,10.748119,Viale Roma,Montecatini Val di Cecina,56040
43.391652,10.747806,Viale Roma,Montecatini Val di Cecina,56040
43.391505,10.747147,Viale Roma,Montecatini Val di Cecina,56040
43.392183,10.745299,Viale Roma,Montecatini Val di Cecina,56040
43.391319,10.743694,Viale Roma,Montecatini Val di Cecina,56040
43.389394,10.742459,Strada Provinciale di Montecatini Val di Cecina,Montecatini Val di Cecina,Keine PLZ
43.388967,10.741022,Strada Provinciale di Montecatini Val di Cecina,Montecatini Val di Cecina,Keine PLZ
43.388615,10.740879,Strada Provinciale di Montecatini Val di Cecina,Montecatini Val di Cecina,Keine PLZ
43.388395,10.740409,Strada Provinciale di Montecatini Val di Cecina,Montecatini Val di Cecina,Keine PLZ
43.387496,10.739385,Strada Provinciale di Montecatini Val di Cecina,Montecatini Val di Cecina,Keine PLZ
43.386938,10.739069,Strada Provinciale di Montecatini Val di Cecina,Montecatini Val di Cecina,Keine PLZ
43.386023,10.739181,Strada Provinciale di Montecatini Val di Cecina,Montecatini Val di Cecina,Keine PLZ
43.385223,10.738943,Strada Comunale di Gallo e Mocajo,Montecatini Val di Cecina,Keine PLZ
43.384873,10.738114,Strada Comunale di Gallo e Mocajo,Montecatini Val di Cecina,Keine PLZ
43.384788,10.737462,Strada Comunale di Gallo e Mocajo,Montecatini Val di Cecina,Keine PLZ
43.384928,10.73628,Strada Comunale di Gallo e Mocajo,Montecatini Val di Cecina,Keine PLZ
43.385249,10.735532,Strada Comunale di Gallo e Mocajo,Montecatini Val di Cecina,Keine PLZ
43.385827,10.734865,Strada Comunale di Gallo e Mocajo,Montecatini Val di Cecina,Keine PLZ
43.386036,10.734102,Strada Comunale di Gallo e Mocajo,Montecatini Val di Cecina,Keine PLZ
43.385923,10.732258,Strada Comunale di Gallo e Mocajo,Montecatini Val di Cecina,Keine PLZ
43.385604,10.731361,Strada Comunale di Gallo e Mocajo,Montecatini Val di Cecina,Keine PLZ
43.385382,10.729997,Strada Comunale di Gallo e Mocajo,Montecatini Val di Cecina,Keine PLZ
43.385612,10.72929,Strada Comunale di Gallo e Mocajo,Montecatini Val di Cecina,Keine PLZ
43.385312,10.728231,Strada Comunale di Gallo e Mocajo,Montecatini Val di Cecina,Keine PLZ
43.385621,10.7267,Strada Comunale di Gallo e Mocajo,Montecatini Val di Cecina,Keine PLZ
43.385889,10.726116,Strada Comunale di Gallo e Mocajo,Montecatini Val di Cecina,Keine PLZ
43.385824,10.725944,Strada Comunale di Gallo e Mocajo,Montecatini Val di Cecina,Keine PLZ
43.385041,10.725411,Strada Comunale di Gallo e Mocajo,Montecatini Val di Cecina,Keine PLZ
43.384363,10.723415,Strada Comunale di Gallo e Mocajo,Montecatini Val di Cecina,Keine PLZ
43.382917,10.722739,Strada Comunale di Gallo e Mocajo,Montecatini Val di Cecina,Keine PLZ
43.382673,10.722521,Strada Comunale di Gallo e Mocajo,Montecatini Val di Cecina,Keine PLZ
43.382302,10.721639,Strada Comunale di Gallo e Mocajo,Montecatini Val di Cecina,Keine PLZ
43.381565,10.721417,Strada Comunale di Gallo e Mocajo,Montecatini Val di Cecina,Keine PLZ
43.380035,10.721765,Strada Comunale di Gallo e Mocajo,Montecatini Val di Cecina,Keine PLZ
43.378875,10.721234,Strada Comunale di Gallo e Mocajo,Montecatini Val di Cecina,Keine PLZ
43.378366,10.72152,Strada Comunale di Gallo e Mocajo,Montecatini Val di Cecina,Keine PLZ
43.377525,10.720253,Unbekannte Straße,Montecatini Val di Cecina,Keine PLZ
43.377425,10.719082,Unbekannte Straße,Montecatini Val di Cecina,Keine PLZ
43.378128,10.717788,Unbekannte Straße,Montecatini Val di Cecina,Keine PLZ
43.379126,10.716623,Unbekannte Straße,Montecatini Val di Cecina,Keine PLZ
43.379743,10.716402,Unbekannte Straße,Montecatini Val di Cecina,Keine PLZ
43.380517,10.715648,Unbekannte Straße,Montecatini Val di Cecina,Keine PLZ
43.380461,10.714905,Unbekannte Straße,Montecatini Val di Cecina,Keine PLZ
43.380698,10.714064,Unbekannte Straße,Montecatini Val di Cecina,Keine PLZ
43.380285,10.713148,Unbekannte Straße,Montecatini Val di Cecina,Keine PLZ
43.379722,10.712677,Unbekannte Straße,Montecatini Val di Cecina,Keine PLZ
43.37957,10.711609,Unbekannte Straße,Montecatini Val di Cecina,Keine PLZ
43.379683,10.711526,Unbekannte Straße,Montecatini Val di Cecina,Keine PLZ
43.380142,10.711894,Unbekannte Straße,Montecatini Val di Cecina,Keine PLZ
43.380905,10.711599,Unbekannte Straße,Montecatini Val di Cecina,Keine PLZ
43.38142,10.710381,Unbekannte Straße,Montecatini Val di Cecina,Keine PLZ
43.381385,10.709741,Unbekannte Straße,Montecatini Val di Cecina,Keine PLZ
43.381787,10.70947,Unbekannte Straße,Montecatini Val di Cecina,Keine PLZ
43.38156,10.707613,Unbekannte Straße,Montecatini Val di Cecina,Keine PLZ
43.380682,10.706929,Unbekannte Straße,Montecatini Val di Cecina,Keine PLZ
43.379907,10.706677,Unbekannte Straße,Montecatini Val di Cecina,Keine PLZ
43.379184,10.706119,Unbekannte Straße,Montecatini Val di Cecina,Keine PLZ
43.379043,10.705517,Unbekannte Straße,Montecatini Val di Cecina,Keine PLZ
43.379417,10.704907,Unbekannte Straße,Montecatini Val di Cecina,Keine PLZ
43.379444,10.704473,Unbekannte Straße,Montecatini Val di Cecina,Keine PLZ
43.379125,10.703965,Unbekannte Straße,Montecatini Val di Cecina,Keine PLZ
43.378617,10.701139,Unbekannte Straße,Montecatini Val di Cecina,Keine PLZ
43.377814,10.700427,Unbekannte Straße,Montecatini Val di Cecina,Keine PLZ
43.37789,10.699489,Unbekannte Straße,Montecatini Val di Cecina,Keine PLZ
43.377688,10.699022,Unbekannte Straße,Montecatini Val di Cecina,Keine PLZ
43.37731,10.698662,Unbekannte Straße,Montecatini Val di Cecina,Keine PLZ
43.376814,10.698849,Unbekannte Straße,Montecatini Val di Cecina,Keine PLZ
43.376256,10.697955,Unbekannte Straße,Montecatini Val di Cecina,Keine PLZ
43.375282,10.697566,Unbekannte Straße,Montecatini Val di Cecina,Keine PLZ
43.374867,10.697233,Unbekannte Straße,Montecatini Val di Cecina,Keine PLZ
43.374485,10.695981,Unbekannte Straße,Montecatini Val di Cecina,Keine PLZ
43.374239,10.695704,Unbekannte Straße,Montecatini Val di Cecina,Keine PLZ
43.374081,10.696339,Unbekannte Straße,Montecatini Val di Cecina,Keine PLZ
43.373236,10.696564,Unbekannte Straße,Montecatini Val di Cecina,Keine PLZ
43.372631,10.697271,Unbekannte Straße,Montecatini Val di Cecina,Keine PLZ
43.372294,10.697178,Unbekannte Straße,Montecatini Val di Cecina,Keine PLZ
43.372107,10.696846,Unbekannte Straße,Montecatini Val di Cecina,Keine PLZ
43.372174,10.695808,Unbekannte Straße,Montecatini Val di Cecina,Keine PLZ
43.371637,10.695039,Unbekannte Straße,Montecatini Val di Cecina,Keine PLZ
43.37199,10.694289,Unbekannte Straße,Montecatini Val di Cecina,Keine PLZ
43.372168,10.692953,Unbekannte Straße,Montecatini Val di Cecina,Keine PLZ
43.371924,10.693023,Unbekannte Straße,Montecatini Val di Cecina,Keine PLZ
43.371287,10.694098,Unbekannte Straße,Montecatini Val di Cecina,Keine PLZ
43.371185,10.693275,Unbekannte Straße,Montecatini Val di Cecina,Keine PLZ
43.37066,10.692252,Unbekannte Straße,Montecatini Val di Cecina,Keine PLZ
43.369321,10.690995,Unbekannte Straße,Montecatini Val di Cecina,Keine PLZ
43.368559,10.689771,Unbekannte Straße,Montecatini Val di Cecina,Keine PLZ
43.367155,10.688519,Unbekannte Straße,Montecatini Val di Cecina,Keine PLZ
43.366177,10.688257,Unbekannte Straße,Montecatini Val di Cecina,Keine PLZ
43.365789,10.687955,Unbekannte Straße,Montecatini Val di Cecina,Keine PLZ
43.364654,10.686429,Unbekannte Straße,Montecatini Val di Cecina,Keine PLZ
43.363172,10.68521,Unbekannte Straße,Montecatini Val di Cecina,Keine PLZ
43.362523,10.684069,Unbekannte Straße,Montecatini Val di Cecina,Keine PLZ
43.361311,10.683492,Unbekannte Straße,Montecatini Val di Cecina,Keine PLZ
43.361027,10.683,Unbekannte Straße,Montecatini Val di Cecina,Keine PLZ
43.359411,10.68303,Unbekannte Straße,Montecatini Val di Cecina,Keine PLZ
43.359081,10.682859,Unbekannte Straße,Montecatini Val di Cecina,Keine PLZ
43.356693,10.67931,Unbekannte Straße,Montecatini Val di Cecina,Keine PLZ
43.355784,10.678867,Unbekannte Straße,Montecatini Val di Cecina,Keine PLZ
43.354425,10.678632,Unbekannte Straße,Montecatini Val di Cecina,Keine PLZ
43.353901,10.678375,Unbekannte Straße,Montecatini Val di Cecina,Keine PLZ
43.353062,10.678556,Unbekannte Straße,Montecatini Val di Cecina,Keine PLZ
43.353047,10.678209,Unbekannte Straße,Montecatini Val di Cecina,Keine PLZ
43.353633,10.677195,Unbekannte Straße,Montecatini Val di Cecina,Keine PLZ
43.353562,10.677017,Unbekannte Straße,Montecatini Val di Cecina,Keine PLZ
43.35237,10.677849,Unbekannte Straße,Montecatini Val di Cecina,Keine PLZ
43.350161,10.678942,Unbekannte Straße,Montecatini Val di Cecina,Keine PLZ
43.349137,10.680255,Unbekannte Straße,Montecatini Val di Cecina,Keine PLZ
43.346778,10.681316,Unbekannte Straße,Montecatini Val di Cecina,Keine PLZ
43.34609,10.682305,Unbekannte Straße,Montecatini Val di Cecina,Keine PLZ
43.343884,10.683044,Unbekannte Straße,Montecatini Val di Cecina,Keine PLZ
43.341556,10.679721,Unbekannte Straße,Montecatini Val di Cecina,Keine PLZ
43.335927,10.675377,Unbekannte Straße,Montecatini Val di Cecina,Keine PLZ
43.33208,10.671473,Unbekannte Straße,Montecatini Val di Cecina,Keine PLZ
43.33093,10.67134,Unbekannte Straße,Montecatini Val di Cecina,Keine PLZ
43.32953,10.672306,Unbekannte Straße,Montecatini Val di Cecina,Keine PLZ
43.329337,10.670355,Unbekannte Straße,Montecatini Val di Cecina,Keine PLZ
43.32919,10.670189,Unbekannte Straße,Montecatini Val di Cecina,Keine PLZ
43.328857,10.670509,Unbekannte Straße,Montecatini Val di Cecina,Keine PLZ
43.328441,10.670624,Unbekannte Straße,Montecatini Val di Cecina,Keine PLZ
43.324541,10.669881,Strada Provinciale 18 dei Quattro Comuni,Montecatini Val di Cecina,Keine PLZ
43.322894,10.669869,Strada Provinciale 18 dei Quattro Comuni,Montecatini Val di Cecina,Keine PLZ
43.322554,10.671733,Strada Provinciale 18 dei Quattro Comuni,Montecatini Val di Cecina,Keine PLZ
43.32158,10.672242,Strada Provinciale 18 dei Quattro Comuni,Montecatini Val di Cecina,Keine PLZ
43.321861,10.680586,Unbekannte Straße,Montecatini Val di Cecina,Keine PLZ
43.319526,10.680867,Unbekannte Straße,Montecatini Val di Cecina,Keine PLZ
43.319182,10.680729,Unbekannte Straße,Montecatini Val di Cecina,Keine PLZ
43.314284,10.681061,Strada Provinciale 19 Camminata,Montecatini Val di Cecina,Keine PLZ
43.313972,10.683491,Strada Provinciale 19 Camminata,Montecatini Val di Cecina,Keine PLZ
43.314461,10.685579,Strada Provinciale 19 Camminata,Montecatini Val di Cecina,Keine PLZ
43.31399,10.68771,Strada Provinciale 19 Camminata,Montecatini Val di Cecina,Keine PLZ
43.314497,10.689294,Strada Provinciale 19 Camminata,Montecatini Val di Cecina,Keine PLZ
43.314536,10.690152,Strada Provinciale 19 Camminata,Montecatini Val di Cecina,Keine PLZ
43.314024,10.692666,Strada Provinciale 19 Camminata,Montecatini Val di Cecina,Keine PLZ
43.313487,10.694072,Strada Provinciale 19 Camminata,Montecatini Val di Cecina,Keine PLZ
43.313937,10.695139,Strada Provinciale 19 Camminata,Montecatini Val di Cecina,Keine PLZ
43.313085,10.696942,Strada Provinciale 19 Camminata,Montecatini Val di Cecina,Keine PLZ
43.313185,10.697223,Strada Provinciale 19 Camminata,Montecatini Val di Cecina,Keine PLZ
43.313799,10.697021,Strada Provinciale 19 Camminata,Montecatini Val di Cecina,Keine PLZ
43.314021,10.697202,Strada Provinciale 19 Camminata,Montecatini Val di Cecina,Keine PLZ
43.31404,10.698754,Strada Provinciale 19 Camminata,Montecatini Val di Cecina,Keine PLZ
43.313704,10.700841,Strada Provinciale 19 Camminata,Montecatini Val di Cecina,Keine PLZ
43.314147,10.701883,Strada Provinciale 19 Camminata,Montecatini Val di Cecina,Keine PLZ
43.313199,10.704499,Strada Provinciale 19 Camminata,Montecatini Val di Cecina,Keine PLZ
43.312694,10.706592,Strada Provinciale 19 Camminata,Montecatini Val di Cecina,Keine PLZ
43.310552,10.71243,Strada Provinciale 19 Camminata,Montecatini Val di Cecina,Keine PLZ
43.310441,10.713185,Strada Provinciale 19 Camminata,Montecatini Val di Cecina,Keine PLZ
43.309855,10.713876,Strada Provinciale 19 Camminata,Montecatini Val di Cecina,Keine PLZ
43.309339,10.714164,Strada Provinciale 19 Camminata,Montecatini Val di Cecina,Keine PLZ
43.308652,10.715308,Strada Provinciale 19 Camminata,Montecatini Val di Cecina,Keine PLZ
43.30854,10.715819,Strada Provinciale 19 Camminata,Montecatini Val di Cecina,Keine PLZ
43.307904,10.716578,Strada Provinciale 19 Camminata,Montecatini Val di Cecina,Keine PLZ
43.307142,10.719441,Strada Provinciale 19 Camminata,Montecatini Val di Cecina,Keine PLZ
43.306974,10.719344,Strada Provinciale 19 Camminata,Montecatini Val di Cecina,Keine PLZ
43.306897,10.717962,Strada Provinciale 19 Camminata,Montecatini Val di Cecina,Keine PLZ
43.307122,10.717692,Strada Provinciale 19 Camminata,Montecatini Val di Cecina,Keine PLZ
43.307189,10.717233,Strada Provinciale 19 Camminata,Montecatini Val di Cecina,Keine PLZ
43.306768,10.716243,Strada Provinciale 19 Camminata,Montecatini Val di Cecina,Keine PLZ
43.306699,10.717175,Strada Provinciale 19 Camminata,Montecatini Val di Cecina,Keine PLZ
43.306263,10.717505,Strada Provinciale 19 Camminata,Montecatini Val di Cecina,Keine PLZ
43.306007,10.718252,Strada Provinciale 19 Camminata,Montecatini Val di Cecina,Keine PLZ
43.305398,10.718628,Strada Provinciale 19 Camminata,Montecatini Val di Cecina,Keine PLZ
43.30549,10.719539,Strada Provinciale 19 Camminata,Montecatini Val di Cecina,Keine PLZ
43.30524,10.720565,Strada Provinciale 19 Camminata,Montecatini Val di Cecina,Keine PLZ
43.304468,10.720795,Strada Provinciale 19 Camminata,Montecatini Val di Cecina,Keine PLZ
43.30381,10.722017,Strada Provinciale 19 Camminata,Montecatini Val di Cecina,Keine PLZ
43.303521,10.723639,Strada Comunale del Cimitero,Montecatini Val di Cecina,Keine PLZ
43.302938,10.722459,Strada Comunale del Cimitero,Montecatini Val di Cecina,Keine PLZ
43.302303,10.722248,Strada Comunale del Cimitero,Montecatini Val di Cecina,Keine PLZ
43.301973,10.722469,Strada Comunale del Cimitero,Montecatini Val di Cecina,Keine PLZ
43.301592,10.72338,Strada Comunale del Cimitero,Montecatini Val di Cecina,Keine PLZ
43.300887,10.723693,Strada Comunale del Cimitero,Montecatini Val di Cecina,Keine PLZ
43.300491,10.725786,Strada Comunale del Cimitero,Montecatini Val di Cecina,Keine PLZ
43.300203,10.725722,Strada Comunale del Cimitero,Montecatini Val di Cecina,Keine PLZ
43.299722,10.725077,Strada Comunale del Cimitero,Montecatini Val di Cecina,Keine PLZ
43.299113,10.725076,Strada Comunale del Cimitero,Montecatini Val di Cecina,Keine PLZ
43.298203,10.724509,Strada Comunale del Cimitero,Montecatini Val di Cecina,Keine PLZ
43.296745,10.725025,Strada Comunale del Cimitero,Montecatini Val di Cecina,Keine PLZ
43.296379,10.725564,Strada Comunale del Cimitero,Montecatini Val di Cecina,Keine PLZ
43.296543,10.726182,Strada Comunale del Cimitero,Montecatini Val di Cecina,Keine PLZ
43.296342,10.727157,Strada Comunale del Cimitero,Montecatini Val di Cecina,Keine PLZ
43.295658,10.726659,Strada Comunale del Cimitero,Montecatini Val di Cecina,Keine PLZ
43.295358,10.726893,Strada Comunale del Cimitero,Montecatini Val di Cecina,Keine PLZ
43.295867,10.727869,Strada Comunale del Cimitero,Montecatini Val di Cecina,Keine PLZ
43.295341,10.728894,Strada Comunale del Cimitero,Montecatini Val di Cecina,Keine PLZ
43.294744,10.729448,Strada Comunale del Cimitero,Montecatini Val di Cecina,Keine PLZ
43.294688,10.729788,Strada Comunale del Cimitero,Montecatini Val di Cecina,Keine PLZ
43.294028,10.727227,Strada Comunale del Cimitero,Montecatini Val di Cecina,Keine PLZ
43.294283,10.727487,Strada Comunale del Cimitero,Montecatini Val di Cecina,Keine PLZ
43.294162,10.727236,Strada Comunale del Cimitero,Montecatini Val di Cecina,Keine PLZ
43.293986,10.727279,Strada Comunale del Cimitero,Montecatini Val di Cecina,Keine PLZ
43.29454,10.729563,Strada Comunale del Cimitero,Montecatini Val di Cecina,Keine PLZ
43.293527,10.729965,Strada Comunale del Cimitero,Montecatini Val di Cecina,Keine PLZ
43.293325,10.730253,Strada Comunale del Cimitero,Montecatini Val di Cecina,Keine PLZ
43.292949,10.731406,Strada Comunale del Cimitero,Montecatini Val di Cecina,Keine PLZ
43.293166,10.73201,Strada Comunale del Cimitero,Montecatini Val di Cecina,Keine PLZ
43.293117,10.732843,Strada Comunale del Cimitero,Montecatini Val di Cecina,Keine PLZ
43.292377,10.733018,Strada Comunale del Cimitero,Montecatini Val di Cecina,Keine PLZ
43.292208,10.734053,Strada Comunale di Querceto,Montecatini Val di Cecina,Keine PLZ
43.291726,10.734969,Strada Comunale di Querceto,Montecatini Val di Cecina,Keine PLZ
43.291338,10.734159,Strada Comunale di Querceto,Montecatini Val di Cecina,Keine PLZ
43.290759,10.734003,Strada Comunale di Querceto,Montecatini Val di Cecina,Keine PLZ
43.290559,10.733518,Strada Comunale di Querceto,Montecatini Val di Cecina,Keine PLZ
43.290273,10.73332,Strada Comunale di Querceto,Montecatini Val di Cecina,Keine PLZ
43.289818,10.733352,Strada Comunale di Querceto,Montecatini Val di Cecina,Keine PLZ
43.289161,10.734215,Strada Comunale di Querceto,Montecatini Val di Cecina,Keine PLZ
43.28924,10.735554,Strada Comunale di Querceto,Montecatini Val di Cecina,Keine PLZ
43.290179,10.735997,Strada Comunale di Querceto,Montecatini Val di Cecina,Keine PLZ
43.290345,10.736358,Strada Comunale di Querceto,Montecatini Val di Cecina,Keine PLZ
43.290306,10.73686,Strada Comunale di Querceto,Montecatini Val di Cecina,Keine PLZ
43.28954,10.737923,Strada Comunale di Querceto,Montecatini Val di Cecina,Keine PLZ
43.288421,10.73878,Unbekannte Straße,Montecatini Val di Cecina,Keine PLZ
43.288063,10.739659,Unbekannte Straße,Montecatini Val di Cecina,Keine PLZ
43.287704,10.739344,Unbekannte Straße,Montecatini Val di Cecina,Keine PLZ
43.287437,10.739456,Unbekannte Straße,Montecatini Val di Cecina,Keine PLZ
43.286925,10.740402,Unbekannte Straße,Montecatini Val di Cecina,Keine PLZ
43.285915,10.743253,Unbekannte Straße,Montecatini Val di Cecina,Keine PLZ
43.285859,10.743957,Unbekannte Straße,Montecatini Val di Cecina,Keine PLZ
43.285543,10.743406,Unbekannte Straße,Montecatini Val di Cecina,Keine PLZ
43.284847,10.742973,Unbekannte Straße,Montecatini Val di Cecina,Keine PLZ
43.284443,10.743074,Unbekannte Straße,Montecatini Val di Cecina,Keine PLZ
43.283498,10.742551,Unbekannte Straße,Montecatini Val di Cecina,Keine PLZ
43.282927,10.742936,Unbekannte Straße,Montecatini Val di Cecina,Keine PLZ
43.28301,10.743541,Unbekannte Straße,Montecatini Val di Cecina,Keine PLZ
43.283718,10.745089,Unbekannte Straße,Montecatini Val di Cecina,Keine PLZ
43.283366,10.746339,Unbekannte Straße,Montecatini Val di Cecina,Keine PLZ
43.283755,10.746911,Unbekannte Straße,Montecatini Val di Cecina,Keine PLZ
43.283651,10.747079,Unbekannte Straße,Montecatini Val di Cecina,Keine PLZ
43.283271,10.747115,Unbekannte Straße,Montecatini Val di Cecina,Keine PLZ
43.28307,10.747574,Unbekannte Straße,Montecatini Val di Cecina,Keine PLZ
43.2825,10.748039,Unbekannte Straße,Montecatini Val di Cecina,Keine PLZ
43.282322,10.748462,Unbekannte Straße,Montecatini Val di Cecina,Keine PLZ
43.282367,10.748985,Unbekannte Straße,Montecatini Val di Cecina,Keine PLZ
43.281829,10.749292,Unbekannte Straße,Montecatini Val di Cecina,Keine PLZ
43.281576,10.750047,Unbekannte Straße,Montecatini Val di Cecina,Keine PLZ
43.281793,10.750739,Unbekannte Straße,Montecatini Val di Cecina,Keine PLZ
43.281595,10.751961,Unbekannte Straße,Montecatini Val di Cecina,Keine PLZ
43.280652,10.752198,Unbekannte Straße,Montecatini Val di Cecina,Keine PLZ
43.2799,10.752583,Unbekannte Straße,Montecatini Val di Cecina,Keine PLZ
43.279528,10.754368,Unbekannte Straße,Pomarance,Keine PLZ
43.279107,10.755028,Unbekannte Straße,Pomarance,Keine PLZ
43.279156,10.755769,Unbekannte Straße,Pomarance,Keine PLZ
43.278934,10.756459,Unbekannte Straße,Pomarance,Keine PLZ
43.278751,10.756478,Unbekannte Straße,Pomarance,Keine PLZ
43.278412,10.755786,Unbekannte Straße,Pomarance,Keine PLZ
43.278162,10.755607,Unbekannte Straße,Pomarance,Keine PLZ
43.277535,10.75664,Unbekannte Straße,Pomarance,Keine PLZ
43.276325,10.757081,Unbekannte Straße,Pomarance,Keine PLZ
43.276078,10.757651,Unbekannte Straße,Pomarance,Keine PLZ
43.275929,10.75876,Unbekannte Straße,Pomarance,Keine PLZ
43.275687,10.758831,Unbekannte Straße,Pomarance,Keine PLZ
43.275224,10.758579,Unbekannte Straße,Pomarance,Keine PLZ
43.274853,10.758976,Unbekannte Straße,Pomarance,Keine PLZ
43.274426,10.758913,Unbekannte Straße,Pomarance,Keine PLZ
43.273677,10.759215,Unbekannte Straße,Pomarance,Keine PLZ
43.27292,10.760064,Unbekannte Straße,Pomarance,Keine PLZ
43.27226,10.760039,Unbekannte Straße,Pomarance,Keine PLZ
43.271904,10.760219,Unbekannte Straße,Pomarance,Keine PLZ
43.27155,10.761223,Unbekannte Straße,Pomarance,Keine PLZ
43.270943,10.761269,Unbekannte Straße,Pomarance,Keine PLZ
43.270779,10.761024,Unbekannte Straße,Pomarance,Keine PLZ
43.270749,10.759356,Unbekannte Straße,Pomarance,Keine PLZ
43.27096,10.75832,Unbekannte Straße,Pomarance,Keine PLZ
43.270755,10.757207,Unbekannte Straße,Pomarance,Keine PLZ
43.270461,10.756895,Unbekannte Straße,Pomarance,Keine PLZ
43.269756,10.756803,Unbekannte Straße,Pomarance,Keine PLZ
43.269253,10.756465,Unbekannte Straße,Pomarance,Keine PLZ
43.268369,10.755506,Unbekannte Straße,Pomarance,Keine PLZ
43.268166,10.755064,Unbekannte Straße,Pomarance,Keine PLZ
43.267944,10.754984,Unbekannte Straße,Pomarance,Keine PLZ
43.26732,10.755471,Unbekannte Straße,Pomarance,Keine PLZ
43.266273,10.754855,Unbekannte Straße,Pomarance,Keine PLZ
43.265101,10.755088,Unbekannte Straße,Pomarance,Keine PLZ
43.264094,10.7548,Unbekannte Straße,Pomarance,Keine PLZ
43.26382,10.754426,Unbekannte Straße,Pomarance,Keine PLZ
43.263583,10.753578,Unbekannte Straße,Pomarance,Keine PLZ
43.262597,10.753173,Unbekannte Straße,Pomarance,Keine PLZ
43.262282,10.75329,Unbekannte Straße,Pomarance,Keine PLZ
43.262,10.752963,Unbekannte Straße,Pomarance,Keine PLZ
43.261835,10.752952,Unbekannte Straße,Pomarance,Keine PLZ
43.261022,10.75363,Unbekannte Straße,Pomarance,Keine PLZ
43.260671,10.754085,Unbekannte Straße,Pomarance,Keine PLZ
43.260128,10.754055,Unbekannte Straße,Pomarance,Keine PLZ
43.259511,10.753406,Unbekannte Straße,Pomarance,Keine PLZ
43.259683,10.752341,Unbekannte Straße,Pomarance,Keine PLZ
43.259501,10.752031,Unbekannte Straße,Pomarance,Keine PLZ
43.258911,10.751968,Unbekannte Straße,Pomarance,Keine PLZ
43.257785,10.752401,Unbekannte Straße,Pomarance,Keine PLZ
43.257434,10.752162,Unbekannte Straße,Pomarance,Keine PLZ
43.256889,10.75167,Unbekannte Straße,Pomarance,Keine PLZ
43.256227,10.750424,Unbekannte Straße,Pomarance,Keine PLZ
43.255933,10.750375,Unbekannte Straße,Pomarance,Keine PLZ
43.255613,10.749848,Unbekannte Straße,Pomarance,Keine PLZ
43.255114,10.749972,Unbekannte Straße,Pomarance,Keine PLZ
43.254338,10.749834,Unbekannte Straße,Pomarance,Keine PLZ
43.253803,10.749217,Unbekannte Straße,Pomarance,Keine PLZ
43.253698,10.748449,Unbekannte Straße,Pomarance,Keine PLZ
43.253202,10.748038,Unbekannte Straße,Pomarance,Keine PLZ
43.252937,10.747199,Unbekannte Straße,Pomarance,Keine PLZ
43.252203,10.747094,Unbekannte Straße,Pomarance,Keine PLZ
43.251778,10.746317,Unbekannte Straße,Pomarance,Keine PLZ
43.251603,10.746318,Unbekannte Straße,Pomarance,Keine PLZ
43.25066,10.748209,Unbekannte Straße,Pomarance,Keine PLZ
43.250129,10.748635,Unbekannte Straße,Pomarance,Keine PLZ
43.249438,10.748787,Unbekannte Straße,Pomarance,Keine PLZ
43.248427,10.748184,Unbekannte Straße,Pomarance,Keine PLZ
43.248665,10.750441,Unbekannte Straße,Pomarance,Keine PLZ
43.248493,10.751414,Unbekannte Straße,Pomarance,Keine PLZ
43.24851,10.752991,Unbekannte Straße,Pomarance,Keine PLZ
43.248197,10.754304,Unbekannte Straße,Pomarance,Keine PLZ
43.247762,10.755176,Unbekannte Straße,Pomarance,Keine PLZ
43.247084,10.755879,Unbekannte Straße,Pomarance,Keine PLZ
43.247221,10.756599,Unbekannte Straße,Pomarance,Keine PLZ
43.246296,10.756889,Unbekannte Straße,Pomarance,Keine PLZ
43.245883,10.757321,Unbekannte Straße,Pomarance,Keine PLZ
43.245598,10.758432,Unbekannte Straße,Pomarance,Keine PLZ
43.245037,10.759148,Unbekannte Straße,Pomarance,Keine PLZ
43.24478,10.760261,Unbekannte Straße,Pomarance,Keine PLZ
43.244178,10.760437,Unbekannte Straße,Pomarance,Keine PLZ
43.242643,10.759538,Unbekannte Straße,Pomarance,Keine PLZ
43.241697,10.760243,Unbekannte Straße,Pomarance,Keine PLZ
43.241291,10.759032,Unbekannte Straße,Pomarance,Keine PLZ
43.241129,10.758931,Unbekannte Straße,Pomarance,Keine PLZ
43.241182,10.760559,Unbekannte Straße,Pomarance,Keine PLZ
43.24152,10.761308,Unbekannte Straße,Pomarance,Keine PLZ
43.241157,10.761923,Unbekannte Straße,Pomarance,Keine PLZ
43.241136,10.762556,Unbekannte Straße,Pomarance,Keine PLZ
43.240791,10.763088,Unbekannte Straße,Pomarance,Keine PLZ
43.240118,10.763647,Unbekannte Straße,Pomarance,Keine PLZ
43.240775,10.764604,Unbekannte Straße,Pomarance,Keine PLZ
43.240995,10.765709,Unbekannte Straße,Pomarance,Keine PLZ
43.240661,10.768305,Unbekannte Straße,Pomarance,Keine PLZ
43.240612,10.76843,Unbekannte Straße,Pomarance,Keine PLZ
43.240125,10.768157,Unbekannte Straße,Pomarance,Keine PLZ
43.239352,10.768034,Unbekannte Straße,Pomarance,Keine PLZ
43.237968,10.768066,Unbekannte Straße,Pomarance,56044
43.237823,10.768228,Unbekannte Straße,Pomarance,56044
43.237696,10.769516,Unbekannte Straße,Pomarance,56044
43.236916,10.770231,Unbekannte Straße,Pomarance,56044
43.236951,10.770721,Unbekannte Straße,Pomarance,56044
43.237222,10.770966,Unbekannte Straße,Pomarance,56044
43.237176,10.771745,Unbekannte Straße,Pomarance,56044
43.236428,10.771831,Unbekannte Straße,Pomarance,56044
43.236169,10.772079,Unbekannte Straße,Pomarance,56044
43.234813,10.776127,Unbekannte Straße,Pomarance,56044
43.234592,10.776151,Unbekannte Straße,Pomarance,56044
43.233558,10.775183,Unbekannte Straße,Pomarance,56044
43.232645,10.775134,Unbekannte Straße,Pomarance,56044
43.232241,10.774918,Unbekannte Straße,Pomarance,56044
43.231768,10.774495,Unbekannte Straße,Pomarance,56044
43.231168,10.773585,Unbekannte Straße,Pomarance,56044
43.230413,10.773081,Unbekannte Straße,Pomarance,56044
43.228764,10.773116,Unbekannte Straße,Pomarance,56044
43.228389,10.774282,Unbekannte Straße,Pomarance,56044
43.227993,10.774731,Unbekannte Straße,Pomarance,56044
43.227416,10.775021,Unbekannte Straße,Pomarance,56044
43.227127,10.775853,Unbekannte Straße,Pomarance,56044
43.226127,10.777133,Unbekannte Straße,Pomarance,56044
43.225574,10.776853,Unbekannte Straße,Pomarance,56044
43.224339,10.777473,Unbekannte Straße,Pomarance,56044
43.224343,10.776889,Unbekannte Straße,Pomarance,56044
43.22377,10.776701,Unbekannte Straße,Pomarance,56044
43.223332,10.777048,Unbekannte Straße,Pomarance,56044
43.222212,10.777397,Unbekannte Straße,Pomarance,56044
43.221886,10.778658,Unbekannte Straße,Pomarance,56044
43.220549,10.781082,Unbekannte Straße,Pomarance,56044
43.220705,10.782166,Unbekannte Straße,Pomarance,56044
43.220166,10.784291,Unbekannte Straße,Pomarance,56044
43.220173,10.785344,Unbekannte Straße,Pomarance,56044
43.219668,10.787045,Unbekannte Straße,Pomarance,56044
43.218275,10.78927,Unbekannte Straße,Pomarance,56044
43.217822,10.789912,Unbekannte Straße,Pomarance,56044
43.217101,10.79027,Unbekannte Straße,Pomarance,56044
43.21644,10.791232,Unbekannte Straße,Pomarance,56044
43.216288,10.792014,Unbekannte Straße,Pomarance,56044
43.215681,10.792852,Unbekannte Straße,Pomarance,56044
43.215413,10.792976,Unbekannte Straße,Pomarance,56044
43.214262,10.792882,Unbekannte Straße,Pomarance,56044
43.214012,10.793081,Unbekannte Straße,Pomarance,56044
43.213347,10.794175,Unbekannte Straße,Pomarance,56044
43.212969,10.796037,Unbekannte Straße,Pomarance,56044
43.21245,10.796482,Unbekannte Straße,Pomarance,56044
43.211208,10.796593,Unbekannte Straße,Pomarance,56044
43.211185,10.797224,Unbekannte Straße,Pomarance,56044
43.210499,10.796833,Strada Provinciale 329 Passo di Bocca di Valle,Pomarance,56044
43.208743,10.796532,Strada Provinciale 329 Passo di Bocca di Valle,Pomarance,56044
43.207903,10.795321,Strada Provinciale 329 Passo di Bocca di Valle,Pomarance,56044
43.206777,10.795186,Strada Provinciale 329 Passo di Bocca di Valle,Pomarance,56044
43.205429,10.794525,Strada Provinciale 329 Passo di Bocca di Valle,Pomarance,56044
43.204963,10.794623,Strada Provinciale 329 Passo di Bocca di Valle,Pomarance,56044
43.204024,10.794309,Strada Provinciale 329 Passo di Bocca di Valle,Pomarance,56044
43.203663,10.793654,Strada Provinciale 329 Passo di Bocca di Valle,Pomarance,56044
43.201797,10.792598,Strada Provinciale 329 Passo di Bocca di Valle,Pomarance,56044
43.198804,10.789993,Strada Provinciale 329 Passo di Bocca di Valle,Canneto,Keine PLZ
43.198412,10.789156,Strada Provinciale 329 Passo di Bocca di Valle,Canneto,Keine PLZ
43.198115,10.787005,Strada Provinciale 329 Passo di Bocca di Valle,Canneto,Keine PLZ
43.19782,10.786176,Strada Provinciale 329 Passo di Bocca di Valle,Canneto,Keine PLZ
43.19624,10.784216,Strada Provinciale 329 Passo di Bocca di Valle,Canneto,Keine PLZ
43.194324,10.780979,Strada Provinciale 329 Passo di Bocca di Valle,Canneto,Keine PLZ
43.194191,10.779856,Strada Provinciale 329 Passo di Bocca di Valle,Canneto,Keine PLZ
43.194265,10.779253,Strada Provinciale 329 Passo di Bocca di Valle,Canneto,Keine PLZ
43.194675,10.778288,Strada Provinciale 329 Passo di Bocca di Valle,Canneto,Keine PLZ
43.194715,10.777474,Strada Provinciale 329 Passo di Bocca di Valle,Canneto,Keine PLZ
43.194351,10.775811,Strada Provinciale 329 Passo di Bocca di Valle,Canneto,Keine PLZ
43.193813,10.774855,Strada Provinciale 329 Passo di Bocca di Valle,Canneto,Keine PLZ
43.193351,10.773551,Strada Provinciale 329 Passo di Bocca di Valle,Canneto,Keine PLZ
43.192938,10.771357,Strada Provinciale 329 Passo di Bocca di Valle,Canneto,Keine PLZ
43.192774,10.771097,Strada Provinciale 329 Passo di Bocca di Valle,Canneto,Keine PLZ
43.192019,10.770743,Strada Provinciale 329 Passo di Bocca di Valle,Canneto,Keine PLZ
43.189979,10.767339,Strada Provinciale 329 Passo di Bocca di Valle,Canneto,Keine PLZ
43.189975,10.766851,Strada Provinciale 329 Passo di Bocca di Valle,Canneto,Keine PLZ
43.190753,10.764011,Strada Provinciale 329 Passo di Bocca di Valle,Canneto,Keine PLZ
43.19083,10.763123,Strada Provinciale 329 Passo di Bocca di Valle,Canneto,Keine PLZ
43.191143,10.76264,Strada Provinciale 329 Passo di Bocca di Valle,Canneto,Keine PLZ
43.191325,10.761902,Strada Provinciale 329 Passo di Bocca di Valle,Canneto,Keine PLZ
43.192257,10.761124,Strada Provinciale 329 Passo di Bocca di Valle,Canneto,Keine PLZ
43.192368,10.760364,Strada Provinciale 329 Passo di Bocca di Valle,Canneto,Keine PLZ
43.192808,10.759296,Strada Provinciale 329 Passo di Bocca di Valle,Canneto,Keine PLZ
43.192756,10.758292,Strada Provinciale 329 Passo di Bocca di Valle,Canneto,Keine PLZ
43.192962,10.757662,Strada Provinciale 329 Passo di Bocca di Valle,Canneto,Keine PLZ
43.192785,10.755356,Strada Provinciale 329 Passo di Bocca di Valle,Canneto,Keine PLZ
43.19207,10.754866,Strada Provinciale 329 Passo di Bocca di Valle,Canneto,Keine PLZ
43.191944,10.754435,Strada Provinciale 329 Passo di Bocca di Valle,Canneto,Keine PLZ
43.192526,10.752851,Strada Provinciale 329 Passo di Bocca di Valle,Canneto,Keine PLZ
43.192632,10.751812,Strada Provinciale 329 Passo di Bocca di Valle,Canneto,Keine PLZ
43.193171,10.751544,Strada Provinciale 329 Passo di Bocca di Valle,Canneto,Keine PLZ
43.19349,10.750759,Strada Provinciale 329 Passo di Bocca di Valle,Canneto,Keine PLZ
43.192544,10.749356,Strada Provinciale 329 Passo di Bocca di Valle,Canneto,Keine PLZ
43.192599,10.747837,Strada Provinciale 329 Passo di Bocca di Valle,Canneto,Keine PLZ
43.192798,10.747646,Strada Provinciale 329 Passo di Bocca di Valle,Canneto,Keine PLZ
43.193655,10.747735,Strada Provinciale 329 Passo di Bocca di Valle,Canneto,Keine PLZ
43.193973,10.747363,Strada Provinciale 329 Passo di Bocca di Valle,Canneto,Keine PLZ
43.194443,10.745848,Strada Provinciale 329 Passo di Bocca di Valle,Canneto,Keine PLZ
43.194522,10.744677,Strada Provinciale 329 Passo di Bocca di Valle,Canneto,Keine PLZ
43.19491,10.74422,Strada Provinciale 329 Passo di Bocca di Valle,Canneto,Keine PLZ
43.195385,10.743046,Strada Provinciale 329 Passo di Bocca di Valle,Canneto,Keine PLZ
43.19538,10.741421,Strada Provinciale 329 Passo di Bocca di Valle,Canneto,Keine PLZ
43.19511,10.740264,Strada Provinciale 329 Passo di Bocca di Valle,Canneto,Keine PLZ
43.195351,10.740229,Strada Provinciale 329 Passo di Bocca di Valle,Canneto,Keine PLZ
43.195885,10.740543,Strada Provinciale 329 Passo di Bocca di Valle,Canneto,Keine PLZ
43.196964,10.74041,Strada Provinciale 329 Passo di Bocca di Valle,Canneto,Keine PLZ
43.197412,10.739605,Strada Provinciale 329 Passo di Bocca di Valle,Canneto,Keine PLZ
43.197885,10.739315,Strada Provinciale 329 Passo di Bocca di Valle,Canneto,Keine PLZ
43.198372,10.73852,Strada Provinciale 329 Passo di Bocca di Valle,Canneto,Keine PLZ
43.198879,10.738102,Strada Provinciale 329 Passo di Bocca di Valle,Canneto,Keine PLZ
43.198757,10.73785,Strada Provinciale 329 Passo di Bocca di Valle,Canneto,Keine PLZ
43.196877,10.737813,Strada Provinciale 329 Passo di Bocca di Valle,Canneto,Keine PLZ
43.196553,10.736987,Strada Provinciale 329 Passo di Bocca di Valle,Canneto,Keine PLZ
43.195307,10.736414,Strada Provinciale 329 Passo di Bocca di Valle,Canneto,Keine PLZ
43.19486,10.7353,Strada Provinciale 329 Passo di Bocca di Valle,Canneto,Keine PLZ
43.194877,10.734364,Strada Provinciale 329 Passo di Bocca di Valle,Canneto,Keine PLZ
43.194083,10.733612,Strada Provinciale 329 Passo di Bocca di Valle,Canneto,Keine PLZ
43.193283,10.736458,Strada Provinciale 329 Passo di Bocca di Valle,Canneto,Keine PLZ
43.192487,10.736773,Strada Provinciale 329 Passo di Bocca di Valle,Canneto,Keine PLZ
43.191855,10.738115,Strada Provinciale 329 Passo di Bocca di Valle,Canneto,Keine PLZ
43.190697,10.738337,Strada Provinciale 20 del Lodano,Canneto,Keine PLZ
43.190097,10.738767,Strada Provinciale 20 del Lodano,Canneto,Keine PLZ
43.188915,10.740979,Strada Provinciale 20 del Lodano,Canneto,Keine PLZ
43.187846,10.742214,Strada Provinciale 20 del Lodano,Canneto,Keine PLZ
43.187537,10.742333,Strada Provinciale 20 del Lodano,Canneto,Keine PLZ
43.18725,10.742067,Strada Provinciale 20 del Lodano,Canneto,Keine PLZ
43.186871,10.741117,Strada Provinciale 20 del Lodano,Canneto,Keine PLZ
43.186077,10.740718,Strada Provinciale 20 del Lodano,Monteverdi Marittimo,Keine PLZ
43.185756,10.740365,Strada Provinciale 20 del Lodano,Monteverdi Marittimo,Keine PLZ
43.185619,10.739853,Strada Provinciale 20 del Lodano,Monteverdi Marittimo,Keine PLZ
43.185699,10.739022,Strada Provinciale 20 del Lodano,Monteverdi Marittimo,Keine PLZ
43.185178,10.736811,Strada Provinciale 20 del Lodano,Monteverdi Marittimo,Keine PLZ
43.184623,10.735891,Strada Provinciale 20 del Lodano,Monteverdi Marittimo,Keine PLZ
43.183995,10.735831,Strada Provinciale 20 del Lodano,Monteverdi Marittimo,Keine PLZ
43.183591,10.736664,Strada Provinciale 20 del Lodano,Monteverdi Marittimo,Keine PLZ
43.183282,10.736859,Strada Provinciale 20 del Lodano,Monteverdi Marittimo,Keine PLZ
43.182067,10.736306,Strada Provinciale 20 del Lodano,Monteverdi Marittimo,Keine PLZ
43.181351,10.736363,Strada Provinciale 20 del Lodano,Monteverdi Marittimo,Keine PLZ
43.181047,10.736748,Strada Provinciale 20 del Lodano,Monteverdi Marittimo,Keine PLZ
43.180465,10.738625,Strada Provinciale 20 del Lodano,Monteverdi Marittimo,Keine PLZ
43.18021,10.739006,Strada Provinciale 20 del Lodano,Monteverdi Marittimo,Keine PLZ
43.179857,10.738821,Strada Provinciale 20 del Lodano,Monteverdi Marittimo,Keine PLZ
43.179364,10.737729,Strada Provinciale 20 del Lodano,Monteverdi Marittimo,Keine PLZ
43.178758,10.736997,Strada Provinciale 20 del Lodano,Monteverdi Marittimo,Keine PLZ
43.177799,10.736487,Strada Provinciale 20 del Lodano,Monteverdi Marittimo,Keine PLZ
43.176954,10.737654,Strada Provinciale 20 del Lodano,Monteverdi Marittimo,Keine PLZ
43.176673,10.737768,Strada Provinciale 20 del Lodano,Monteverdi Marittimo,Keine PLZ
43.175995,10.737541,Strada Provinciale 20 del Lodano,Monteverdi Marittimo,Keine PLZ
43.175483,10.738285,Strada Provinciale 20 del Lodano,Monteverdi Marittimo,Keine PLZ
43.174712,10.738339,Strada Provinciale 20 del Lodano,Monteverdi Marittimo,Keine PLZ
43.174386,10.739179,Strada Provinciale 20 del Lodano,Monteverdi Marittimo,Keine PLZ
43.17402,10.739344,Strada Provinciale 20 del Lodano,Monteverdi Marittimo,Keine PLZ
43.173476,10.738587,Strada Provinciale 20 del Lodano,Monteverdi Marittimo,Keine PLZ
43.172927,10.738133,Strada Provinciale 20 del Lodano,Monteverdi Marittimo,Keine PLZ
43.172565,10.737508,Strada Provinciale 20 del Lodano,Monteverdi Marittimo,Keine PLZ
43.171947,10.737109,Strada Provinciale 20 del Lodano,Monteverdi Marittimo,Keine PLZ
43.171446,10.735446,Strada Provinciale 20 del Lodano,Monteverdi Marittimo,Keine PLZ
43.170468,10.733926,Strada Provinciale 20 del Lodano,Monteverdi Marittimo,Keine PLZ
43.170145,10.733904,Strada Provinciale 20 del Lodano,Monteverdi Marittimo,Keine PLZ
43.169261,10.735185,Strada Provinciale 20 del Lodano,Monteverdi Marittimo,Keine PLZ
43.168914,10.735267,Strada Provinciale 20 del Lodano,Monteverdi Marittimo,Keine PLZ
43.168407,10.734713,Strada Provinciale 20 del Lodano,Monteverdi Marittimo,Keine PLZ
43.167692,10.734614,Strada Provinciale 20 del Lodano,Monteverdi Marittimo,Keine PLZ
43.167263,10.733266,Strada Provinciale 20 del Lodano,Monteverdi Marittimo,Keine PLZ
43.166634,10.732873,Strada Provinciale 20 del Lodano,Monteverdi Marittimo,Keine PLZ
43.166138,10.732228,Strada Provinciale 20 del Lodano,Monteverdi Marittimo,Keine PLZ
43.160787,10.730545,Strada Provinciale 20 del Lodano,Monteverdi Marittimo,Keine PLZ
43.160406,10.730063,Strada Provinciale 20 del Lodano,Monteverdi Marittimo,Keine PLZ
43.159486,10.729635,Strada Provinciale 20 del Lodano,Monteverdi Marittimo,Keine PLZ
43.158522,10.728696,Strada Provinciale 20 del Lodano,Monteverdi Marittimo,Keine PLZ
43.152519,10.724699,Strada Provinciale 20 del Lodano,Monteverdi Marittimo,Keine PLZ
43.151832,10.724398,Strada Provinciale 20 del Lodano,Monteverdi Marittimo,Keine PLZ
43.150233,10.724683,Strada Provinciale 20 del Lodano,Monteverdi Marittimo,Keine PLZ
43.149987,10.725355,Strada Provinciale 20 del Lodano,Monteverdi Marittimo,Keine PLZ
43.149484,10.728381,Strada Provinciale 20 del Lodano,Monteverdi Marittimo,Keine PLZ
43.146721,10.730858,Strada Provinciale 20 del Lodano,Monteverdi Marittimo,Keine PLZ
43.144863,10.731526,Strada Provinciale 20 del Lodano,Monteverdi Marittimo,Keine PLZ
43.143648,10.731635,Strada Provinciale 20 del Lodano,Monteverdi Marittimo,Keine PLZ
43.142638,10.732077,Strada Provinciale 20 del Lodano,Monteverdi Marittimo,Keine PLZ
43.142189,10.732044,Strada Provinciale 20 del Lodano,Monteverdi Marittimo,Keine PLZ
43.139181,10.729888,Strada Provinciale 20 del Lodano,Monteverdi Marittimo,Keine PLZ
43.138523,10.728902,Strada Provinciale 20 del Lodano,Monteverdi Marittimo,Keine PLZ
43.137463,10.728353,Strada Provinciale 20 del Lodano,Monteverdi Marittimo,Keine PLZ
43.133508,10.723001,Strada Provinciale 20 del Lodano,Monteverdi Marittimo,Keine PLZ
43.132282,10.721894,Strada Provinciale 20 del Lodano,Monteverdi Marittimo,Keine PLZ
43.130321,10.719265,Strada Provinciale 20 del Lodano,Monteverdi Marittimo,Keine PLZ
43.126858,10.717373,Strada Provinciale 20 del Lodano,Monteverdi Marittimo,Keine PLZ
43.125491,10.716986,Strada Provinciale 20 del Lodano,Monteverdi Marittimo,Keine PLZ
43.12485,10.71977,Strada Provinciale 20 del Lodano,Monteverdi Marittimo,Keine PLZ
43.12453,10.72019,Strada Provinciale 20 del Lodano,Monteverdi Marittimo,Keine PLZ
43.12248,10.72152,Strada Provinciale 20 del Lodano,Monteverdi Marittimo,Keine PLZ
43.12047,10.72125,Strada Provinciale 20 del Lodano,Monteverdi Marittimo,Keine PLZ
43.11792,10.71913,Strada Provinciale 20 del Lodano,Monteverdi Marittimo,Keine PLZ
43.11518,10.72017,Strada Provinciale 20 del Lodano,Monteverdi Marittimo,Keine PLZ
43.11397,10.72033,Strada Provinciale 20 del Lodano,Monteverdi Marittimo,Keine PLZ
43.11335,10.72057,Strada Provinciale 20 del Lodano,Monteverdi Marittimo,Keine PLZ
43.11273,10.72147,Strada Provinciale 20 del Lodano,Monteverdi Marittimo,Keine PLZ
43.11245,10.72343,Strada Provinciale 20 del Lodano,Monteverdi Marittimo,Keine PLZ
43.11,10.72517,Strada Provinciale 20 del Lodano,Monterotondo Marittimo,Keine PLZ
43.10873,10.72731,Strada Provinciale 20 del Lodano,Monterotondo Marittimo,Keine PLZ
43.10643,10.72649,Strada Provinciale 20 del Lodano,Monterotondo Marittimo,Keine PLZ
43.10367,10.7259,Via Val di Cornia,Monterotondo Marittimo,Keine PLZ
43.09925,10.72596,Via Val di Cornia,Monterotondo Marittimo,Keine PLZ
43.09855,10.72614,Via Val di Cornia,Monterotondo Marittimo,Keine PLZ
43.094,10.72821,Via Val di Cornia,Monterotondo Marittimo,57028
43.08777,10.72988,Via Val di Cornia,Monterotondo Marittimo,57028
43.08373,10.72904,Via Val di Cornia,Monterotondo Marittimo,57028
43.08329,10.72866,Via Val di Cornia,Monterotondo Marittimo,57028
43.0718,10.71415,Via Val di Cornia,Suvereto,57028
43.07194,10.71354,Via Val di Cornia,Suvereto,57028
43.07515,10.70882,Via Val di Cornia,Suvereto,57028
43.07767,10.70175,Via Val di Cornia,Suvereto,57028
43.078687,10.695263,Unbekannte Straße,Suvereto,57028
43.078729,10.693717,Unbekannte Straße,Suvereto,57028
43.077784,10.69201,Unbekannte Straße,Suvereto,57028
43.0771,10.689077,Via Val di Cornia,Suvereto,57028
43.075656,10.68515,Via Val di Cornia,Suvereto,57028
43.075368,10.68354,Via Val di Cornia,Suvereto,57028
43.075417,10.681877,Via Val di Cornia,Suvereto,57028
43.075955,10.681255,Via Val di Cornia,Suvereto,57028
43.076686,10.680993,Via Val di Cornia,Suvereto,57028
43.076984,10.680619,Via Val di Cornia,Suvereto,57028
43.077022,10.680192,Via Val di Cornia,Suvereto,57028
43.076648,10.678324,Via Val di Cornia,Suvereto,57028
43.075943,10.677421,Via Val di Cornia,Suvereto,57028
43.074899,10.674986,Località Vignacci,Suvereto,57028
43.074516,10.673421,Località Vignacci,Suvereto,57028
43.072707,10.670837,Località Vignacci,Suvereto,57028
43.071985,10.670287,Località Vignacci,Suvereto,57028
43.071461,10.66948,Località Vignacci,Suvereto,57028
43.070163,10.668318,Località Vignacci,Suvereto,57028
43.06931,10.665917,Località Vignacci,Suvereto,57028
43.068688,10.662967,Località Vignacci,Suvereto,57028
43.068325,10.661996,Località Vignacci,Suvereto,57028
43.067873,10.661398,Località Vignacci,Suvereto,57028
43.067283,10.659411,Località Vignacci,Suvereto,57028
43.066419,10.658466,Località Vignacci,Suvereto,57028
43.065309,10.65499,Località Fontanella,Suvereto,57029
43.064969,10.654521,Località Fontanella,Suvereto,57029
43.064179,10.654126,Località Fontanella,Suvereto,57029
43.06276,10.652373,Località Fontanella,Suvereto,57029
43.062543,10.649937,Via delle Volpaiole,Suvereto,57029
43.062584,10.646976,Via delle Volpaiole,Suvereto,57029
43.061328,10.644122,Via delle Volpaiole,Suvereto,57029
43.061292,10.642834,Via delle Volpaiole,Suvereto,57029
43.061688,10.641898,Via delle Volpaiole,Suvereto,57029
43.061181,10.639859,Via delle Volpaiole,Suvereto,57029
43.060918,10.639557,Via delle Volpaiole,Suvereto,57029
43.0604,10.639822,Via delle Volpaiole,Suvereto,57029
43.060116,10.639503,Via delle Volpaiole,Suvereto,57029
43.059411,10.639219,Via delle Volpaiole,Suvereto,57029
43.057277,10.637773,Via delle Volpaiole,Campiglia Marittima,57029
43.055099,10.635365,Via delle Volpaiole,Campiglia Marittima,57029
43.054476,10.635172,Via delle Volpaiole,Campiglia Marittima,57029
43.05369,10.635276,Via delle Volpaiole,Campiglia Marittima,57029
43.051487,10.634493,Via delle Volpaiole,Campiglia Marittima,57029
43.049808,10.632819,Via delle Volpaiole,Campiglia Marittima,57029
43.048978,10.633423,Via delle Volpaiole,Campiglia Marittima,57029
43.047423,10.634198,Via delle Volpaiole,Campiglia Marittima,57029
43.046221,10.635243,Via delle Piaggie,Campiglia Marittima,57029
43.045634,10.634632,Via delle Piaggie,Campiglia Marittima,57029
43.045266,10.633163,Via delle Piaggie,Campiglia Marittima,57029
43.044563,10.631444,Via delle Piaggie,Campiglia Marittima,57029
43.044091,10.631999,Via delle Piaggie,Campiglia Marittima,57029
43.043693,10.631641,Via delle Piaggie,Campiglia Marittima,57029
43.042813,10.631402,Via delle Piaggie,Campiglia Marittima,57029
43.042139,10.630909,Via del Casone,Campiglia Marittima,57029
43.04038,10.631626,Via del Casone,Campiglia Marittima,57029
43.040242,10.631542,Via del Casone,Campiglia Marittima,57029
43.039775,10.6289,Via del Casone,Campiglia Marittima,57029
43.038677,10.628262,Via del Casone,Campiglia Marittima,57029
43.037159,10.624871,Via Suveretana,Campiglia Marittima,57021
43.035445,10.619883,Via Suveretana,Campiglia Marittima,57021
43.035132,10.618335,Via Suveretana,Campiglia Marittima,57021
43.034853,10.61522,Via Suveretana,Campiglia Marittima,57021
43.034865,10.613246,Via Suveretana,Campiglia Marittima,57021
43.035091,10.611809,Via Suveretana,Campiglia Marittima,57021
43.03494,10.610443,Via Suveretana,Campiglia Marittima,57021
43.030453,10.609031,Via del Commercio,Campiglia Marittima,57021
43.028463,10.606237,Via del Commercio,Campiglia Marittima,57021
43.029725,10.604658,Via del Commercio,Campiglia Marittima,57021
