Name,Typ,Adresse,Latitude,Longitude
Osteria Di Nonna Gina,restaurant,"Pian dei Mantellini, 2, 53100, Siena",43.3153206,11.3275695
Il Biondo,restaurant,"Vicolo del Rustichetto, 10, 53100, Siena",43.3215273,11.3297299
Hostaria Il Rialto,restaurant,"Via del Rialto, 4, 53100, Siena",43.3180247,11.3336665
La Bottega Del Caffè,cafe,"Via Banchi di Sotto, 39, 53100, Siena",43.3192535,11.3322263
Bar Ristorante Rustichetto,restaurant,"Via Della Sapienza, 45, 53100, Siena",43.3203624,11.327386
Trattoria La Torre,restaurant,"Via di Salicotto, 7, 53100, Siena",43.318315,11.3323818
Caffe' Sandy,cafe,"Via di Salicotto, 21, 53100, Siena",43.3181782,11.3326722
Forno Delle Campane,bakery,"Via di Salicotto, 23, 53100, Siena",43.318145,11.3327369
Caffè Le Logge,cafe,"Via di Pantaneto, 11, 53100, Siena",43.3187985,11.3338052
Philadelphia Bar,cafe,"Via di Pantaneto, 24, 53100, Siena",43.3185157,11.3341924
La Prosciutteria Crudi e Bollicine,restaurant,"Via di Pantaneto, 89, 53100, Siena",43.3180529,11.3352933
Ristorante Vivace,restaurant,"Via Stalloreggi, 62, 53100, Siena",43.3153764,11.3282779
Panificio Il Magnifico,bakery,"Via dei Pellegrini, 27, 53100, Siena",43.3182773,11.3298148
Caffetteria Il Magnifico,cafe,"Piazza San Giovanni, 1, 53100, Siena",43.3182696,11.3296388
Il Battistero Bistrot,cafe,"Piazza San Giovanni, 2, 53100, Siena",43.3182368,11.3295883
Ristorante Mugolone,restaurant,"Via dei Pellegrini, 8;12, 53100, Siena",43.3183918,11.3301999
Il Masgalano,restaurant,"Via del Camporegio, 1, 53100, Siena",43.3203277,11.3272798
La Mossa,restaurant,"Il Campo, 29, 53100, Siena",43.3184168,11.3307777
La Taverna Del Capitano,restaurant,"Via del Capitano, 6;8, 53100, Siena",43.3165183,11.32974
Drinking_water,drinking_water,Adresse unbekannt,43.3186227,11.331387
Drinking_water,drinking_water,Adresse unbekannt,43.316251,11.3318315
Drinking_water,drinking_water,Adresse unbekannt,43.3187009,11.3315257
Quarto Bistrot,restaurant,"Vicolo del Campaccio, 2, 53100, Siena",43.3201043,11.3286217
Locanda dell'Oste,restaurant,"Via di Porta Giustizia, 6, 53100, Siena",43.3166748,11.3329683
Bar Nannini Conca d'Oro,cafe,"Banchi di Sopra, 24, 53100, Siena",43.3195871,11.3314298
Drinking_water,drinking_water,Adresse unbekannt,43.3175696,11.3336882
Hosteria Il Carroccio,restaurant,"Via del Casato di Sotto, 32, Siena",43.3173176,11.3314104
Zest Ristorante e Wine Bar,restaurant,"Costa Sant' Antonio, 13, 53100, Siena",43.320147,11.3289384
Osteria Il Grattacielo,restaurant,"Via dei Pontani, 8, 53100, Siena",43.3202749,11.3307212
Ristorante Pizzeria Spadaforte,restaurant,"Il Campo, 12-14, 53100, Siena",43.3179044,11.3311569
Bar Il Palio,cafe,"Il Campo, 47, 53100, Siena",43.3189448,11.3314544
Caffè Fonte Gaia,restaurant,"Il Campo, 21;23, 53100, Siena",43.3182489,11.3309412
Ristorante Vitti,restaurant,"Via dei Montanini, 16, 53100, Siena",43.3213795,11.3303128
Salumeria Il Cencio,restaurant,"Il Campo, 70;71, 53100, Siena",43.3186294,11.3326124
Osteria Da Trombicche,restaurant,"Via delle Terme, 66, 53100, Siena",43.320328,11.3302615
Trattoria La Tellina,restaurant,"Via delle Terme, 52, 53100, Siena",43.3201195,11.3303381
Osteria Il Ghibellino,restaurant,"Via dei Pellegrini, 26, 53100, Siena",43.3183526,11.3297183
Il Kroeg,cafe,"Via Vallerozzi, 53100, Siena",43.3225863,11.3309433
Drinking_water,drinking_water,Adresse unbekannt,43.3197774,11.3291259
Osteria di Castelvecchio,restaurant,"Via Castelvecchio, 65, 53100, Siena",43.3153963,11.3303038
Osteria del Gusto,restaurant,"Via dei Fusari, 9, 53100, Siena",43.3177804,11.3283715
Osteria da Divo,restaurant,"Via Franciosa, 25;29, 53100, Siena",43.3180084,11.3281403
Ristorante Il Duomo,restaurant,"Via dei Fusari, 19, 53100, Siena",43.3175086,11.3281828
L'Osteria dei Rossi,restaurant,"Via dei Rossi, 79;81, 53100, Siena",43.3217486,11.3321915
La Nuova Pasticceria,bakery,"Via Giovanni Duprè, 12, 53100, Siena",43.3176944,11.3317798
Antico Tagliere,cafe,Adresse unbekannt,43.3166128,11.3305517
Chianti & Pizza,restaurant,"Via delle Terme, 94, 53100, Siena",43.3207976,11.3298149
Antica Trattoria Papei,restaurant,"Piazza del Mercato, 6, 53100, Siena",43.3170382,11.3324793
Ristorante Gallo Nero,restaurant,"Via del Porrione, 65;67, 53100, Siena",43.3178918,11.3344641
La Rosa,restaurant,"Via di Pantaneto, 63, 53100, Siena",43.3179806,11.3351532
La Piccola Ciaccineria,restaurant,"Via San Pietro, 52, 53100, Siena",43.3154403,11.3304411
Taverna di Cecco,restaurant,"Via Cecco Angiolieri, 19, 53100, Siena",43.3200094,11.3319531
Pizzeria di Nonno Mede,restaurant,"Via Camporegio, 21, 53100, Siena",43.3201907,11.3284831
Il Pomodorino,restaurant,"Via del Camporegio, 13, 53100, Siena",43.3201956,11.3279748
La Vecchia Taverna di Bacco,restaurant,"Via di Beccheria, 11, 53100, Siena",43.3187057,11.3302469
Osteria Pizzeria Il Vicolo,restaurant,"Via del Porrione, 46, 53100, Siena",43.3183417,11.3333912
Osteria Le logge,restaurant,"Via del Porrione, 33, 53100, Siena",43.318489,11.3333619
La Taverna di San Giuseppe,restaurant,"Via Giovanni Duprè, 132, 53100, Siena",43.3154161,11.3317078
Archivo del Gusto,restaurant,"Via di Monna Agnese, 8, 53100, Siena",43.3180006,11.3299127
La Sosta di Violante,restaurant,"Via di Pantaneto, 115, 53100, Siena",43.3174571,11.3363445
Prètto Prosciutteria e Convivio,restaurant,"Via dei Termini, 4, 53100, Siena",43.3191909,11.3307887
Consorzio Agrario di Siena,supermarket,"Via Giuseppe Pianigiani, 5, 53100, Siena",43.3212108,11.3299305
Menchetti,bakery,"Via Pianigiani, 5, 53100, Siena",43.3211739,11.3300525
Osteria La Chiacchera,restaurant,"Costa Sant'Antonio, 4, 53100, Siena",43.32012,11.3287944
Bistrot 166,restaurant,"Via San Pietro, 68, 53100, Siena",43.3153984,11.3304331
Gusti Continentali,cafe,"Via dei Rossi, 107, 53100, Siena",43.3219076,11.3325922
Liberamente Osteria,restaurant,"Il Campo, 27, 53100, Siena",43.3183462,11.3308556
Morbidi,cafe,"Banchi di Sopra, 75, 53100, Siena",43.3207619,11.3306937
Il Cavaliere Errante,restaurant,"Piazza Provenzano, 3, 53100, Siena",43.3204834,11.3322338
L'Osteria del Bigelli,restaurant,"Il Campo, 60, 53100, Siena",43.3189621,11.3320864
Osteria Cice,restaurant,"Via San Pietro, 32, 53100, Siena",43.3158742,11.3301432
Du' Versi,restaurant,"Via dei Rossi, 82, 53100, Siena",43.3217955,11.33267
Key Largo,cafe,"Via Rinaldini, 17, 53100, Siena",43.318804,11.3325959
Caffetteria del Santa Maria Della Scala,cafe,"53100, Siena",43.3169147,11.3287961
La Casa del Caffè,cafe,"Via di Diacceto, 18;20, 53100, Siena",43.3189039,11.3298391
Bar osteria Il Bargello,restaurant,"Via di Città, 55, 53100, Siena",43.3179057,11.3307822
Pizzeria 4 Cantoni,restaurant,"5, 53100, Siena",43.3161648,11.3298054
Osteria Permalico,restaurant,"Costa Larga, 4, 53100, Siena",43.3163738,11.330035
Drinking_water,drinking_water,Adresse unbekannt,43.3147375,11.3309188
Quattro Cantoni,cafe,"Via di Città, 134;137, 53100, Siena",43.3163096,11.3299902
La Finestra,restaurant,"Piazza del Mercato, 14, 53100, Siena",43.317417,11.3323194
Osteria degli Svitati,restaurant,"Via della Galluzza, 34, 53100, Siena",43.3196574,11.3292805
Te Ke Voi?,restaurant,"Vicolo San Pietro, 4, 53100, Siena",43.3189899,11.3312626
Ai Fusari Bistrot,restaurant,"Via dei Fusari, 26, 53100, Siena",43.3180341,11.3284367
Ristorante Al Mangia,restaurant,"Il Campo, 43, 53100, Siena",43.318832,11.3312532
Caffè L'Accademia,cafe,"Via di Città, 103, 53100, Siena",43.3168439,11.3305748
Forno Sclavi,bakery,"53100, Siena",43.3173148,11.3365855
Drinking_water,drinking_water,Adresse unbekannt,43.3172866,11.3326396
Cor Magis,cafe,"Via del Porrione, 3, 53100, Siena",43.3186098,11.3327067
Il Bandierino,restaurant,"Il Campo, 64;66, 53100, Siena",43.3188231,11.3324064
Panificio Sclavi,bakery,"Il Campo, 56, 53100, Siena",43.3190308,11.3318933
Manganelli,restaurant,"Il Campo, 54, 53100, Siena",43.3190103,11.3317209
Il Campo,restaurant,"Il Campo, 50, 53100, Siena",43.3189895,11.3315883
Cuoricino,restaurant,"Il Campo, 37-38, 53100, Siena",43.3187056,11.3310399
Alla Speranza,restaurant,"Il Campo, 32-36, 53100, Siena",43.3186536,11.3309722
Caffè A. Nannini,cafe,"Il Campo, 33, 53100, Siena",43.3185961,11.3309289
Bibò,cafe,"Via Banchi di Sotto, 63, 53100, Siena",43.3189784,11.333318
Trefilari Wine Bar,cafe,"Via Banchi di Sotto, 51, 53100, Siena",43.3192029,11.332552
Il Cavallino Bianco,restaurant,"Via di Città, 20, 53100, Siena",43.318986,11.3309818
Nuovo Caffè Greco,cafe,"Via di Città, 24, 53100, Siena",43.3189322,11.3308892
Caffetteria Torrefazione Fiorella,cafe,"Via di Città, 13, 53100, Siena",43.3187874,11.3308776
Caffe A. Nannini,cafe,"Il Campo, 57, 53100, Siena",43.3189899,11.3320074
Tre Cristi Enoteca Ristorante,restaurant,"Vicolo di Provenzano, 1, 53100, Siena",43.3215408,11.3327301
Osteria al Palchetto,restaurant,"53100, Siena",43.3185436,11.3331757
Caffè La Piazzetta,cafe,"Via dei Montanini, 52, 53100, Siena",43.3218083,11.3297477
Caffè del Corso,cafe,"Banchi di Sopra, 25, 53100, Siena",43.319601,11.3312384
Pizzeria Alle Scalette,restaurant,"Viale Curtatone, 18, 53100, Siena",43.321424,11.3282757
La Locanda dei Tintori,restaurant,"Via dei Pittori, 13, 53100, Siena",43.320151,11.3296833
In Carrozza,restaurant,"Vicolo delle Carrozze, 1, 53100, Siena",43.3183909,11.328569
Osteria Quattro Venti,restaurant,"Via San Pietro, 68, 53100, Siena",43.315194,11.3303645
Casa Tua,restaurant,"34, 53100, Siena",43.3176201,11.3328787
San Domenico,restaurant,"Via del Camporegio, 17, 53100, Siena",43.3201972,11.3283059
Boccon del Prete,restaurant,"Via San Pietro, 17, 53100, Siena",43.315941,11.3302378
Compagnia dei Vinattieri,restaurant,"Via delle Terme, 79, 53100, Siena",43.3202605,11.3301366
Caffè 19zero3,cafe,"18;19;20, 53100, Siena",43.3176365,11.3321746
Osteria Le Sorelline,restaurant,"Via dei Rossi, 76, 53100, Siena",43.3217357,11.3324382
Tigella Emilia,restaurant,"Via dei Rossi, 65, 53100, Siena",43.3215488,11.3318893
Il Sasso,restaurant,"Via dei Rossi, 2, 53100, Siena",43.3207058,11.3312109
Forno Sclavi,bakery,"53100, Siena",43.3163477,11.3300139
Trattoria I Barberi,restaurant,"Via di Stalloreggi, 10, 53100, Siena",43.3159937,11.329567
Trattoria Stalloreggi,restaurant,"Via di Stalloreggi, 37, 53100, Siena",43.3155142,11.3293087
Ri.Me.,restaurant,"Via Giovanni Duprè, 90, 53100, Siena",43.3163457,11.331786
Sclavi 1949,cafe,Adresse unbekannt,43.3190126,11.3319438
savelli,restaurant,Adresse unbekannt,43.3188501,11.3323235
Tea room,cafe,"Via porta Giustizia, 11, 53100, Siena",43.3171762,11.3336172
Piripi Pizza Urban Food,restaurant,"Via dei Rossi, 69, 53100, Siena",43.3216309,11.3320023
Conad City,supermarket,"Viale Curtatone, 16, 53100, Siena",43.32136,11.3282138
La Favorita,restaurant,"32, 53100, Siena",43.3219102,11.3286283
Bruscello Bistrò,restaurant,"Via della Stufa Secca, 1, 53100, Siena",43.3221543,11.3298278
Vineria al Canape,restaurant,"Piazza Indipendenza, 1, 53100, Siena",43.3193298,11.3302872
Enoteca I Terzi,restaurant,"Via dei Termini, 7, 53100, Siena",43.3194121,11.3307782
Drinking_water,drinking_water,Adresse unbekannt,43.319293,11.3303387
Ristorante Campo Cedro,restaurant,"Via Pian d'Ovile, 54, 53100, Siena",43.3222149,11.3305982
Drinking_water,drinking_water,Adresse unbekannt,43.3231561,11.3307162
Drinking_water,drinking_water,Adresse unbekannt,43.3221198,11.3346502
Conad City,supermarket,"Via di Città, 99, 53100, Siena",43.316948,11.3306711
Ristorante Pizzeria Calra e Franca,restaurant,"Via di Pantaneto, 138, 53100, Siena",43.3171923,11.3365538
Tuscan Wine School,restaurant,"Via Stalloreggi, 26, 53100, Siena",43.3158169,11.3294775
A un Passo da,restaurant,"Via San Pietro, 84, 53100, Siena",43.3149361,11.3304751
Drinking_water,drinking_water,Adresse unbekannt,43.3173861,11.3272229
TAZ,restaurant,"25, 53100, Siena",43.32133,11.3284057
Pino alle Fonti,restaurant,"Via di Fontebranda, 79, 53100, Siena",43.3189318,11.3272707
Bar Siena,cafe,"Via Malavolti, 4, 53100, Siena",43.3220769,11.3287416
Penny,supermarket,"17, 53100, Siena",43.3208525,11.3288272
Bar Pasticceria Nannini Posta,cafe,"28, 53100, Siena",43.3213782,11.3283544
Ristorante San Desiderio,restaurant,"2, 53100, Siena",43.3180502,11.3301769
Ristorante Osteria Bonelli,restaurant,"3;5, 53100, Siena",43.3179645,11.3301535
Ristorante Pier Pettinaio,restaurant,"Vicolo Beato Pier Pettinaio, 7, 53100, Siena",43.3195837,11.3311183
Caffe' Fiaschetteria Il Pulcino,restaurant,"Via dei Termini, 91, 53100, Siena",43.3211575,11.329713
Bar San Domenico,cafe,"1, 53100, Siena",43.3205588,11.3270701
NaturHouse Siena Centro,supermarket,"Via Vallerozzi, 18, 53100, Siena",43.3218903,11.3305477
Filuse',restaurant,"Via Vallerozzi, 53100, Siena",43.3221401,11.3308297
Trefilari,restaurant,"Via di Pantaneto, 32, 53100, Siena",43.3184615,11.3343013
HostariadiPantaneto55,restaurant,"Via di Pantaneto, 55, 53100, Siena",43.3183914,11.3347157
Bottega Roots Siena,restaurant,"Via di Pantaneto, 58, 53100, Siena",43.3182099,11.3347734
Meet Life Cafè,cafe,"Via di Pantaneto, 90, 53100, Siena",43.3177796,11.3354483
The Biryani House,restaurant,"Via di Pantaneto, 110, 53100, Siena",43.317515,11.3358918
Coco Sushi,restaurant,"Via di Pantaneto, 107, 53100, Siena",43.3176175,11.3361058
Ristorante Tar-Tufo,restaurant,"Via del Sole, 6, 53100, Siena",43.3163682,11.3347929
Tuscany Food Experience,restaurant,"Vicolo della Manna, 1, 53100, Siena",43.317984,11.3330396
Bar Porrione B&B,cafe,"Via del Porrione, 14, 53100, Siena",43.3185047,11.3327316
Restaurant,restaurant,"Via Rinaldini, 12, 53100, Siena",43.3188685,11.3325026
Un Tubo,cafe,"Vicolo del Luparello, 2, 53100, Siena",43.3180784,11.3334908
Non Solo Bar,restaurant,"Via del Porrione, 58, 53100, Siena",43.318224,11.3335779
Restaurant,restaurant,"Via del Porrione, 64, 53100, Siena",43.3181583,11.3336929
Il Ristoro del Papa,restaurant,"Logge del Papa, 1, 53100, Siena",43.3184616,11.3338246
Osteria Pizzeria Sotto le Logge del Papa,restaurant,"Logge del Papa, 1, 53100, Siena",43.3185567,11.3337557
Giulia La Torre Restaurant,restaurant,"Via delle Terme, 5, 53100, Siena",43.3188578,11.3305474
Caffè Independenza,cafe,"9, 53100, Siena",43.318928,11.3304279
Caffetteria Diacceto,restaurant,"Via di Diacceto, 14, 53100, Siena",43.3189776,11.3299415
Du' Cose da Berna,restaurant,"Via di Diacceto, 9;11, 53100, Siena",43.3188168,11.3299213
CiacciaCucina,restaurant,"Via delle Terme, 18, 53100, Siena",43.3193858,11.3302795
Ristorante Il Tufo,restaurant,"15, 53100, Siena",43.3181378,11.3310191
Ristorante Pizzeria Il Mulino,restaurant,"15, 53100, Siena",43.3180394,11.3310828
Le Campane,restaurant,"Via delle Campane, 6, 53100, Siena",43.3178818,11.3304889
ChigianArtCafè,cafe,"Via di Città, 89, 53100, Siena",43.3172163,11.3308923
Osteria da Salvini,restaurant,"Via di Città, 122, 53100, Siena",43.317095,11.3306265
Ristorante Numero Unico,restaurant,"Via di Città, 125, 53100, Siena",43.3164745,11.3301552
Bar Pinacoteca,cafe,"Via San Pietro, 38, 53100, Siena",43.3155863,11.3303842
Sira e Remino - L'Osteria a Siena,restaurant,"Via San Pietro, 48, 53100, Siena",43.3154918,11.330438
Bar TERMINI,cafe,"Via dei Termini, 43, 53100, Siena",43.3201754,11.3306245
Ristorante I Maestri,restaurant,"Via Tito Sarrocchi, 2, 53100, Siena",43.3148751,11.3305034
Bar Osteria Enea,restaurant,"Via delle Cerchia, 2, 53100, Siena",43.3147205,11.33061
Bar Sant'Agata Coffee Break,cafe,"Via Sant'Agata, 36, 53100, Siena",43.3148135,11.330817
Osteria Pizzeria La Grotta Di S. Agostino,restaurant,"12, 53100, Siena",43.314634,11.3307052
Pizzeria Il Prato,restaurant,"13, 53100, Siena",43.3145921,11.3307638
Òsteria Il Cancellino,restaurant,"Via dei Fusari, 10;16, 53100, Siena",43.3181221,11.328666
Trattoria Dino,restaurant,"Casato di Sopra, 71, 53100, Siena",43.3151182,11.3307182
Casato Ristorante Wine Bar,restaurant,"Casato di Sotto, 18;26, 53100, Siena",43.3176223,11.3313339
Osteria Il Carroccio,restaurant,"Casato di Sotto, 32, 53100, Siena",43.3174966,11.3313776
Antica Trattoria L'Aquila,restaurant,"Casato di Sotto, 58, 53100, Siena",43.3169492,11.331261
Bar a Onda,cafe,"Via Giovanni Duprè, 53, 53100, Siena",43.3163933,11.3320034
Ristorante Shanghai,restaurant,"Via della Galluzza, 10, 53100, Siena",43.3192713,11.3296107
Grotta Santa Caterina da Bagoga,restaurant,"Via della Galluzza, 26, 53100, Siena",43.3193216,11.329567
Mensa dell'Università degli Studi di Siena,restaurant,"Via Sallustio Bandini, 53100, Siena",43.31932,11.3340308
SchiacciaMangia,restaurant,"Via delle Donzelle, 1, 53100, Siena",43.3193207,11.3322282
Restaurant,restaurant,"Via di Calzoleria, 16, 53100, Siena",43.3195296,11.3318276
53100 Street Food & Wine,cafe,"Via Camollia, 170, 53100, Siena",43.3267866,11.3260658
New York Cafe',cafe,"Via Giuseppe Garibaldi, 2, 53100, Siena",43.3238438,11.3280526
Tia Loca,restaurant,"Via Ricasoli, 55, 53100, Siena",43.3268621,11.3239171
Fonte Giusta,restaurant,"Via di Camollia, 102, 53100, Siena",43.3256491,11.3272368
Drinking_water,drinking_water,Adresse unbekannt,43.3235991,11.3326033
Funky Bar,cafe,"Via Vallerozzi, 91, 53100, Siena",43.3236974,11.3325753
Pizzeria Le Coccinelle,restaurant,"Via Simone Martini, 9, 53100, Siena",43.3240173,11.333335
Ristorante Pizzeria Il Muretto,restaurant,"Largo Sassetta, 16, 53100, Siena",43.3241934,11.3340049
Osteria Pizzeria La Piana,restaurant,"Via Camollia, 122, 53100, Siena",43.3260262,11.3267294
Drinking_water,drinking_water,Adresse unbekannt,43.3237633,11.3229451
Drinking_water,drinking_water,Adresse unbekannt,43.3274684,11.3258828
Drinking_water,drinking_water,Adresse unbekannt,43.323151,11.3256121
Prosciutteria Al Peccatore,restaurant,"Via Camollia, 132, 53100, Siena",43.3261522,11.3265746
MadinItaly,restaurant,"Via Camollia, 138, 53100, Siena",43.3262754,11.3264626
Drinking_water,drinking_water,Adresse unbekannt,43.3258617,11.3269173
Berta,restaurant,"Via Camollia, 206, 53100, Siena",43.3273513,11.3255074
Bar Caracas,cafe,"Via Camollia, 67, 53100, Siena",43.3247516,11.3275742
Ristorante Il Salotto,restaurant,"Via Camollia, 34, 53100, Siena",43.3243645,11.3278967
Osteria Kamollia,restaurant,"Via di Camollia, 102, 53100, Siena",43.325802,11.3270205
Nìu Pix Pokè Siena,restaurant,"Via Camollia, 71, 53100, Siena",43.3248778,11.3275184
Camulio Pinseria,restaurant,"Via Camollia, 92/94, 53100, Siena",43.3255349,11.3273556
Drinking_water,drinking_water,Adresse unbekannt,43.3242703,11.3287492
Caffetteria Mario Pasticceria,cafe,"Viale Giuseppe Mazzini, 53100, Siena",43.3272032,11.3296347
Napoletana 2.0,restaurant,"Viale Sardegna, 37, 53100, Siena",43.3276655,11.3301613
Drinking_water,drinking_water,Adresse unbekannt,43.3252736,11.3255645
Antico Bar La Lizza,cafe,"Via del Sasso di San Bernardino, 7, 53100, Siena",43.3229549,11.3281452
Selafino,restaurant,"Vicolo degli Umiliati, 1, 53100, Siena",43.3242548,11.32822
Sushibar,restaurant,"Via Domenico Beccafumi, 10, 53100, Siena",43.3251333,11.33258
Drinking_water,drinking_water,Adresse unbekannt,43.3232907,11.3231971
La Vecchia Stazione,restaurant,"Viale Giuseppe Mazzini, 14, 53100, Siena",43.3261535,11.3316729
Bonucci Boulangerie,restaurant,"La Lizza, 14/17, 53100, Siena",43.3232031,11.3279856
Oro Di Siena,restaurant,"Via Giuseppe Garibaldi, 61, 53100, Siena",43.3247669,11.3313364
Ristorante da Enzo,restaurant,"Via Camollia, 49, 53100, Siena",43.3243231,11.3277537
Pizzeria L'Egiziano,restaurant,"Via Camollia, 59, 53100, Siena",43.3244287,11.3277109
Osteria Ficamaschia,restaurant,"Via Camollia, 101, 53100, Siena",43.3256561,11.3269911
Quel Che Antico Bistrot,restaurant,"Costa dei Paparoni, 2, 53100, Siena",43.3260221,11.3268854
Osteria Il Vinaio,restaurant,"Via Camollia, 167, 53100, Siena",43.326334,11.3262215
Spaghetteria Pasta Mondo,restaurant,"Via Camollia, 173, 53100, Siena",43.3264668,11.326121
Pizzeria da Carmine,restaurant,"Via Camollia, 192, 53100, Siena",43.3270843,11.3258693
Bakery,bakery,"1, 53100, Siena",43.327296,11.3255728
Bar Pegaso,cafe,"Viale Giuseppe Mazzini, 81, 53100, Siena",43.3278762,11.3287233
Pam,supermarket,"21, 53100, Siena",43.3306323,11.3233159
Pasticceria Buti,cafe,"Viale Vittorio Emanuele Secondo, 53, 53100, Siena",43.3280879,11.3237702
Snack Bar,cafe,"Viale Vittorio Emanuele II, 64, 53100, Siena",43.328916,11.3220357
Bar Perù,cafe,"Viale Vittorio Emanuele Secondo, 9, 53100, Siena",43.3277717,11.3247075
Drinking_water,drinking_water,Adresse unbekannt,43.3285037,11.3225588
Capricci di Pizza,restaurant,"Viale Vittorio Emanuele Secondo, 5, 53100, Siena",43.3276939,11.3249553
Ravioli Wang,restaurant,"Viale Vittorio Emanuele Secondo, 38, 53100, Siena",43.328486,11.3232625
Bar Impero,cafe,"Viale Vittorio Emanuele Secondo, 10, 53100, Siena",43.3282643,11.3240082
I Gabellieri,restaurant,"Viale Vittorio Emanuele Secondo, 75, 53100, Siena",43.3286889,11.3216275
Komori Sushi,restaurant,"Viale Vittorio Emanuele Secondo, 30, 53100, Siena",43.3283676,11.3236633
Premiata Braceria Toscana,restaurant,"Piazzale Carlo Rosselli, 19, 53100, Siena",43.3309975,11.3242533
S. Rosalia,bakery,"Viale Vittorio Emanuele Secondo, 53100, Siena",43.3278288,11.3245356
Nannini,cafe,"Viale Vittorio Emanuele Secondo, 9, 53100, Siena",43.3277215,11.3248617
Anima Toscana Bike Tours,bicycle,"Viale Vittorio Emanuele Secondo, 67, 53100, Siena",43.3285902,11.3219581
POKE INN,restaurant,"Viale Vittorio Emanuele Secondo, 69, 53100, Siena",43.3286327,11.3218309
Pizzeria Antiporto,restaurant,"Viale Camillo Benso di Cavour, 27, 53100, Siena",43.329251,11.3205817
Drinking_water,drinking_water,Adresse unbekannt,43.3310918,11.3246676
All'Osteria,restaurant,"Viale Camillo Benso di Cavour, 7, 53100, Siena",43.3290943,11.3209134
Siena Bike Shop,bicycle,"Via Nino Bixio, 30, 53100, Siena",43.3284736,11.3277854
Bar Pegaso,cafe,"Viale Giuseppe Mazzini, 129, 53100, Siena",43.3290833,11.3271339
Cafe,cafe,"Strada delle Grondaie, 1, 53100, Siena",43.3304002,11.3284498
Officina dei Dolci,restaurant,"Strada del Paradiso, 1;3;5, 53100, Siena",43.3306843,11.3272188
Conad City,supermarket,"Viale Goffredo Mameli, 60;62, 53100, Siena",43.3298845,11.3176447
Charlie Mixology Bar,cafe,"Viale Camillo Benso di Cavour, 58, 53100, Siena",43.3301331,11.319218
Bar Ciompi,cafe,"Via Mentana, 88, 53100, Siena",43.3308998,11.3142194
Bar Eden,cafe,"Viale Camillo Benso di Cavour, 202, 53100, Siena",43.3320969,11.3149163
Bar CEcco,cafe,"Viale Camillo Benso di Cavour, 248, 53100, Siena",43.3323563,11.313472
La Piccola Osteria,restaurant,"Viale Camillo Benso di Cavour, 81, 53100, Siena",43.3299099,11.3191694
Bar Mens Sana,cafe,"53100, Siena",43.333609,11.3132139
Capricci di Pizza,restaurant,"Viale Camillo Benso di Cavour, 236, 53100, Siena",43.3323388,11.3136208
E-Bike Travel Siena,bicycle,"Via Mentana, 38, 53100, Siena",43.3309573,11.3139379
Ristorante La Limonaia,restaurant,"Via Custoza, 2, 53100, Siena",43.3300386,11.3115343
Willy's,restaurant,"Viale Achille Sclavo, 33, 53100, Siena",43.3340331,11.3104564
Drinking_water,drinking_water,Adresse unbekannt,43.327895,11.314026
Ristorante Pizzeria Il Jolly,restaurant,"Via Fiorentina, 13, 53100, Siena",43.3348175,11.3088778
La Strana Coppia,restaurant,"Via Celso Cittadini, 6, 53100, Siena",43.3361748,11.3068305
Coop.fi,supermarket,"Via Celso Cittadini, 64, 53100, Siena",43.3371412,11.3058653
Drinking_water,drinking_water,Adresse unbekannt,43.3413934,11.3052213
Carrefour Market,supermarket,"Via delle Province, 28, 53100, Siena",43.3401458,11.3015289
Il Mestolo,restaurant,"Via Fiorentina, 81, 53100, Siena",43.3397105,11.305718
Bar Acquacalda,cafe,"Via delle Province, 14, 53100, Siena",43.3403515,11.3019842
Bottega di Rosaria,restaurant,"Via Fiorentina, 151, 53100, Siena",43.3423921,11.3058204
Pizzeria Poppi,restaurant,"Via Fiorentina, 105, 53100, Siena",43.3410813,11.3058273
Drinking_water,drinking_water,Adresse unbekannt,43.3445939,11.3002022
Bar Bagianni,cafe,"Via Val d'Aosta, 9, 53035, Siena",43.3465465,11.3051512
Osteria Alimentari Tanaliberatutti,restaurant,"Via Uopini, 1, 53035, Siena",43.3445996,11.2999646
Casa dell'Acqua,drinking_water,Adresse unbekannt,43.3443089,11.2852092
Drinking_water,drinking_water,Adresse unbekannt,43.373272,11.2356976
XXXI Canto,cafe,Adresse unbekannt,43.3897879,11.2239644
Antico Travaglio,restaurant,"Piazza Dante Alighieri, 6/a, 53035",43.389719,11.223796
La Bottega del Castello,cafe,Adresse unbekannt,43.3897734,11.2236433
Il Tagliere Medievale,restaurant,Adresse unbekannt,43.3897802,11.2236071
Bar dell'Orso,restaurant,"Via Cassia, 23, 53035, Monteriggioni",43.3927891,11.2188303
Drinking_water,drinking_water,Adresse unbekannt,43.3929537,11.2189385
Drinking_water,drinking_water,Adresse unbekannt,43.3899818,11.2232334
Drinking_water,drinking_water,Adresse unbekannt,43.3900581,11.2226721
Drinking_water,drinking_water,Adresse unbekannt,43.3903417,11.2223763
Bar Ristorante Il Feudo,restaurant,Adresse unbekannt,43.3899099,11.2232607
Ristorante da Remo,restaurant,"Via 1 Maggio, 2, 53035, Monteriggioni",43.390168,11.2233374
Drinking_water,drinking_water,Adresse unbekannt,43.3906179,11.2242521
Drinking_water,drinking_water,Adresse unbekannt,43.3901092,11.2234679
Pit Stop 17,cafe,Adresse unbekannt,43.3903055,11.2226497
Ristorante Le Torri,restaurant,"Piazza Roma,, 20, 53035, Monteriggioni",43.39011,11.2232709
Drinking_water,drinking_water,Adresse unbekannt,43.3902688,11.2236294
Drinking_water,drinking_water,Adresse unbekannt,43.3879585,11.1948185
Futura Osteria di Abbadia Isola,restaurant,Adresse unbekannt,43.3875625,11.1953242
Cafe,cafe,Adresse unbekannt,43.3875978,11.1951027
Circolo ARCI,cafe,Adresse unbekannt,43.3878675,11.1943738
Drinking_water,drinking_water,Adresse unbekannt,43.383835,11.186761
Drinking_water,drinking_water,Adresse unbekannt,43.3775288,11.1703586
Bar Pizzeria Ristorante Alimentari Locanda di Strove,restaurant,Adresse unbekannt,43.3782467,11.1720758
Casalta ristorante & winebar,restaurant,Adresse unbekannt,43.3793915,11.1719755
Drinking_water,drinking_water,Adresse unbekannt,43.3791427,11.1718432
Drinking_water,drinking_water,Adresse unbekannt,43.3941678,11.1612775
Restaurant,restaurant,Adresse unbekannt,43.4055249,11.1377243
Bar Rubino,cafe,"53034, Colle di Val d'Elsa",43.4004134,11.1336661
Profuma di Pane,bakery,"53034, Colle di Val d'Elsa",43.4008106,11.1337431
Indios,restaurant,Adresse unbekannt,43.4047089,11.1338004
PlayGame,cafe,Adresse unbekannt,43.4046003,11.1338432
Cafe,cafe,Colle di Val d'Elsa,43.4075368,11.1247034
Drinking_water,drinking_water,Adresse unbekannt,43.4088459,11.0994789
Bar Campiglia,cafe,Adresse unbekannt,43.4146444,11.0799962
Restaurant,restaurant,Adresse unbekannt,43.415497,11.0781504
Punto di Ristoro sulla Via Francigena,cafe,Strada Provinciale di Grotti,43.4326672,11.0678438
Drinking_water,drinking_water,Adresse unbekannt,43.4699154,11.0409915
Drinking_water,drinking_water,Adresse unbekannt,43.47057,11.0444967
Bar Piazetta,cafe,Adresse unbekannt,43.4696172,11.0412333
Ristorante La Stella,restaurant,"Via San Matteo, 77",43.4691267,11.0417959
Restaurant,restaurant,Via Venti Settembre,43.469698,11.0420447
Ristorante La Griglia,restaurant,"Via San Matteo, 34",43.4686218,11.0427076
Echoes Bruschetteria,restaurant,"vicolo Mainardi, 10, 53037, San Gimignano",43.4694228,11.0409365
Locanda la Mandragola,restaurant,Adresse unbekannt,43.4687339,11.0417985
Ristorante Fuoriluogo,restaurant,"Via Niccolò Cannicci, 2/a, 53037, San Gimignano",43.4706809,11.0402599
Magnino,restaurant,Adresse unbekannt,43.4696809,11.04119
Ristorante il Pino,restaurant,Adresse unbekannt,43.4700548,11.041455
Il Ceppo Toscano,restaurant,Adresse unbekannt,43.4694457,11.0430762
LaVecchia Nicchia,restaurant,Adresse unbekannt,43.4698496,11.0417157
Perucà,restaurant,"Via Capassi, 16",43.469285,11.0420393
Il Trovatore,restaurant,Adresse unbekannt,43.4691961,11.0403912
Osteria Delle Catene,restaurant,"Via Mainardi, 18, 53037, San Gimignano",43.4692675,11.0410631
Osteria delle Catene,restaurant,Adresse unbekannt,43.4693334,11.0411413
Cum Quibus,restaurant,Adresse unbekannt,43.469917,11.0417005
San Martino 26,restaurant,Adresse unbekannt,43.4699592,11.0419158
Locanda di Sant'Agostino,restaurant,Adresse unbekannt,43.4705521,11.0419546
