Latitude,Longitude,Street,City,PostalCode
53.551383,10.032179,Wikingerweg,Hamburg,20537
53.55224,10.031533,Wikingerweg,Hamburg,20537
53.552192,10.030071,Wikingerweg,Hamburg,20537
53.552366,10.028476,Wikingerweg,Hamburg,20537
53.552052,10.026799,Wikingerweg,Hamburg,20537
53.552302,10.025949,Wikingerweg,Hamburg,20537
53.552749,10.025944,Wikingerweg,Hamburg,20537
53.552779,10.025788,Wikingerweg,Hamburg,20537
53.553218,10.025914,Wikingerweg,Hamburg,20537
53.554995,10.026571,Bürgerweide,Hamburg,20535
53.556048,10.027201,Bürgerweide,Hamburg,20535
53.556716,10.026406,Bürgerweide,Hamburg,20535
53.562518,10.025114,Mühlendamm,Hamburg,22087
53.56255,10.024947,Mühlendamm,Hamburg,22087
53.563817,10.024611,Mühlendamm,Hamburg,22087
53.564534,10.024203,Mühlendamm,Hamburg,22087
53.564766,10.024234,Mühlendamm,Hamburg,22087
53.56822,10.026239,Schürbeker Straße,Hamburg,22087
53.568852,10.027251,Schürbeker Straße,Hamburg,22087
53.569283,10.028374,Schürbeker Straße,Hamburg,22087
53.569724,10.027839,Schürbeker Straße,Hamburg,22087
53.57002,10.027699,Schürbeker Straße,Hamburg,22087
53.570246,10.027798,Schürbeker Straße,Hamburg,22087
53.57356,10.033614,Richardstraße,Hamburg,22081
53.573701,10.033624,Richardstraße,Hamburg,22081
53.574385,10.034632,Richardstraße,Hamburg,22081
53.574838,10.035642,Richardstraße,Hamburg,22081
53.576711,10.038063,Richardstraße,Hamburg,22081
53.579505,10.040022,Hamburger Straße,Hamburg,22083
53.579676,10.040631,Hamburger Straße,Hamburg,22083
53.579535,10.041181,Hamburger Straße,Hamburg,22083
53.579748,10.041491,Hamburger Straße,Hamburg,22083
53.580421,10.040514,Hamburger Straße,Hamburg,22083
53.58075,10.040419,Hamburger Straße,Hamburg,22083
53.582962,10.041576,Hamburger Straße,Hamburg,22083
53.584393,10.041786,Hufnerstraße,Hamburg,22083
53.585275,10.042339,Hufnerstraße,Hamburg,22083
53.585304,10.042506,Hufnerstraße,Hamburg,22083
53.586409,10.041509,Hufnerstraße,Hamburg,22083
53.587374,10.041457,Hufnerstraße,Hamburg,22083
53.588531,10.042056,Hufnerstraße,Hamburg,22083
53.591389,10.043967,Hellbrookstraße,Hamburg,22305
53.591389,10.044451,Hellbrookstraße,Hamburg,22305
53.592019,10.044233,Hellbrookstraße,Hamburg,22305
53.593911,10.044193,Hellbrookstraße,Hamburg,22305
53.596399,10.043322,Fuhlsbüttler Straße,Hamburg,22307
53.599425,10.041291,Fuhlsbüttler Straße,Hamburg,22307
53.603434,10.040535,Fuhlsbüttler Straße,Hamburg,22309
53.605163,10.039902,Fuhlsbüttler Straße,Hamburg,22309
53.607276,10.038883,Fuhlsbüttler Straße,Hamburg,22309
53.607588,10.03878,Fuhlsbüttler Straße,Hamburg,22309
53.607619,10.03897,Fuhlsbüttler Straße,Hamburg,22309
53.608145,10.038912,Nordheimstraße,Hamburg,22309
53.608109,10.038069,Nordheimstraße,Hamburg,22309
53.608421,10.037985,Nordheimstraße,Hamburg,22309
53.60847,10.038297,Nordheimstraße,Hamburg,22309
53.608955,10.038329,Nordheimstraße,Hamburg,22309
53.608987,10.038517,Nordheimstraße,Hamburg,22309
53.610503,10.037309,Nordheimstraße,Hamburg,22309
53.612567,10.036617,Fuhlsbüttler Straße,Hamburg,22337
53.615045,10.035299,Fuhlsbüttler Straße,Hamburg,22337
53.62004,10.033759,Fuhlsbüttler Straße,Hamburg,22337
53.620258,10.033834,Fuhlsbüttler Straße,Hamburg,22337
53.622569,10.032951,Fuhlsbüttler Straße,Hamburg,22337
53.62327,10.032924,Fuhlsbüttler Straße,Hamburg,22337
53.623577,10.032581,Fuhlsbüttler Straße,Hamburg,22337
53.625141,10.032251,Fuhlsbüttler Straße,Hamburg,22337
53.625811,10.03171,Fuhlsbüttler Straße,Hamburg,22337
53.626041,10.031712,Fuhlsbüttler Straße,Hamburg,22337
53.6288,10.035391,Fuhlsbüttler Straße,Hamburg,22337
53.629335,10.03532,Wellingsbütteler Landstraße,Hamburg,22337
53.630054,10.034911,Wellingsbütteler Landstraße,Hamburg,22337
53.630535,10.035027,Wellingsbütteler Landstraße,Hamburg,22337
53.631515,10.033297,Wellingsbütteler Landstraße,Hamburg,22337
53.632038,10.033183,Wellingsbütteler Landstraße,Hamburg,22337
53.632281,10.033554,Wellingsbütteler Landstraße,Hamburg,22337
53.632666,10.035263,Wellingsbütteler Landstraße,Hamburg,22337
53.632312,10.037648,Wellingsbütteler Landstraße,Hamburg,22337
53.63177,10.03978,Wellingsbütteler Landstraße,Hamburg,22337
53.631996,10.041481,Alsterwanderweg,Hamburg,22337
53.633071,10.043342,Alsterwanderweg,Hamburg,22337
53.634285,10.046136,Alsterwanderweg,Hamburg,22337
53.634608,10.046462,Alsterwanderweg,Hamburg,22337
53.635743,10.050063,Alsterwanderweg,Hamburg,22339
53.635764,10.050714,Alsterwanderweg,Hamburg,22339
53.636093,10.051787,Alsterwanderweg,Hamburg,22339
53.636943,10.053735,Alsterwanderweg,Hamburg,22339
53.637866,10.055135,Alsterwanderweg,Hamburg,22339
53.638166,10.055877,Alsterwanderweg,Hamburg,22339
53.638296,10.056372,Alsterwanderweg,Hamburg,22339
53.63798,10.056597,Alsterwanderweg,Hamburg,22339
53.637397,10.058844,Alsterwanderweg,Hamburg,22339
53.638137,10.059402,Alsterwanderweg,Hamburg,22339
53.638358,10.060523,Alsterwanderweg,Hamburg,22339
53.638857,10.061352,Alsterwanderweg,Hamburg,22339
53.639707,10.060837,Alsterwanderweg,Hamburg,22339
53.640624,10.06135,Alsterwanderweg,Hamburg,22339
53.640891,10.06175,Alsterwanderweg,Hamburg,22339
53.640977,10.062411,Alsterwanderweg,Hamburg,22339
53.640554,10.063498,Alsterwanderweg,Hamburg,22391
53.640461,10.064302,Alsterwanderweg,Hamburg,22391
53.64076,10.065754,Alsterwanderweg,Hamburg,22391
53.640993,10.066221,Alsterwanderweg,Hamburg,22391
53.641458,10.066588,Alsterwanderweg,Hamburg,22391
53.641618,10.06746,Alsterwanderweg,Hamburg,22391
53.642361,10.069026,Alsterwanderweg,Hamburg,22391
53.644313,10.072576,Alsterwanderweg,Hamburg,22391
53.644245,10.073212,Alsterwanderweg,Hamburg,22391
53.644522,10.074418,Alsterwanderweg,Hamburg,22391
53.644559,10.075439,Alsterwanderweg,Hamburg,22391
53.644293,10.076412,Alsterwanderweg,Hamburg,22391
53.644614,10.078735,Alsterwanderweg,Hamburg,22391
53.644781,10.079823,Alsterwanderweg,Hamburg,22391
53.645668,10.082215,Alsterwanderweg,Hamburg,22391
53.646058,10.082462,Alsterwanderweg,Hamburg,22391
53.647469,10.084023,Alsterwanderweg,Hamburg,22391
53.647856,10.084254,Alsterwanderweg,Hamburg,22391
53.648613,10.084158,Alsterwanderweg,Hamburg,22391
53.648084,10.083197,Alsterwanderweg,Hamburg,22391
53.648005,10.082644,Alsterwanderweg,Hamburg,22391
53.648136,10.082261,Alsterwanderweg,Hamburg,22391
53.649875,10.080863,Alsterwanderweg,Hamburg,22391
53.652411,10.079774,Alsterwanderweg,Hamburg,22391
53.652832,10.079764,Alsterwanderweg,Hamburg,22391
53.654235,10.083142,Alsterwanderweg,Hamburg,22391
53.654294,10.083739,Alsterwanderweg,Hamburg,22391
53.653918,10.08462,Alsterwanderweg,Hamburg,22391
53.653902,10.085362,Alsterwanderweg,Hamburg,22391
53.654132,10.086073,Alsterwanderweg,Hamburg,22391
53.654806,10.087076,Alsterwanderweg,Hamburg,22391
53.655425,10.087467,Alsterwanderweg,Hamburg,22391
53.656265,10.087395,Alsterwanderweg,Hamburg,22391
53.657025,10.088391,Alsterwanderweg,Hamburg,22391
53.657446,10.088365,Alsterwanderweg,Hamburg,22391
53.657777,10.08959,Alsterwanderweg,Hamburg,22391
53.658555,10.090117,Alsterwanderweg,Hamburg,22391
53.658763,10.090896,Alsterwanderweg,Hamburg,22395
53.659626,10.091206,Alsterwanderweg,Hamburg,22395
53.660343,10.090246,Alsterwanderweg,Hamburg,22395
53.661306,10.092021,Alsterwanderweg,Hamburg,22395
53.662196,10.091893,Alsterwanderweg,Hamburg,22395
53.663309,10.091441,Alsterwanderweg,Hamburg,22399
53.663744,10.091762,Alsterwanderweg,Hamburg,22399
53.664028,10.092194,Alsterwanderweg,Hamburg,22399
53.664341,10.094065,Alsterwanderweg,Hamburg,22399
53.665053,10.095488,Alsterwanderweg,Hamburg,22399
53.66564,10.095985,Alsterwanderweg,Hamburg,22399
53.66675,10.096511,Saselbergweg,Hamburg,22395
53.667388,10.097246,Saselbergweg,Hamburg,22395
53.667596,10.09706,Saselbergweg,Hamburg,22395
53.668008,10.097588,Saselbergweg,Hamburg,22395
53.668463,10.097585,Saselbergweg,Hamburg,22395
53.668478,10.098229,Saselbergweg,Hamburg,22395
53.668176,10.099126,Saselbergweg,Hamburg,22395
53.668562,10.105662,Mellingburgredder,Hamburg,22395
53.669703,10.108159,Mellingburgredder,Hamburg,22395
53.670147,10.108627,Mellingburgredder,Hamburg,22395
53.670803,10.110089,Mellingburgredder,Hamburg,22395
53.673149,10.111353,Twietenkoppel,Hamburg,22395
53.674655,10.10772,Twietenkoppel,Hamburg,22395
53.676813,10.112055,Twietenkoppel,Hamburg,22395
53.677101,10.111675,Twietenkoppel,Hamburg,22395
53.677509,10.111897,Twietenkoppel,Hamburg,22395
53.678928,10.111685,Hohenbergstedt,Hamburg,22395
53.679165,10.112048,Hohenbergstedt,Hamburg,22395
53.679513,10.113884,Hohenbergstedt,Hamburg,22395
53.680625,10.115507,Hohenbergstedt,Hamburg,22395
53.681649,10.115578,Hohenbergstedt,Hamburg,22395
53.682212,10.11532,Hohenbergstedt,Hamburg,22395
53.683669,10.117498,Rodenbeker Straße,Hamburg,22395
53.685307,10.117475,Rodenbeker Straße,Hamburg,22395
53.685547,10.118025,Rodenbeker Straße,Hamburg,22395
53.687106,10.11935,Rodenbeker Straße,Hamburg,22395
53.687265,10.120189,Rodenbeker Straße,Hamburg,22395
53.687874,10.120695,Krampstieg,Hamburg,22395
53.688793,10.121047,Krampstieg,Hamburg,22395
53.689369,10.121753,Krampstieg,Hamburg,22395
53.689663,10.122678,Krampstieg,Hamburg,22395
53.690556,10.123158,Krampstieg,Hamburg,22395
53.691882,10.123433,Krampstieg,Hamburg,22395
53.692539,10.123765,Haselknick,Hamburg,22397
53.695033,10.125955,Haselknick,Hamburg,22397
53.695627,10.12729,Haselknick,Hamburg,22397
53.697005,10.128701,Bredenbekstraße,Hamburg,22397
53.698075,10.126883,Bredenbekstraße,Hamburg,22397
53.698224,10.127024,Bredenbekstraße,Hamburg,22397
53.698585,10.126869,Bredenbekstraße,Hamburg,22397
53.699563,10.126962,Bredenbekstraße,Hamburg,22397
53.708114,10.131208,Mühlenredder,Hamburg,22397
53.708327,10.131053,Mühlenredder,Hamburg,22397
53.70839,10.13037,Mühlenredder,Hamburg,22397
53.708616,10.130035,Mühlenredder,Hamburg,22397
53.709175,10.129914,Mühlenredder,Hamburg,22397
53.70974,10.130055,Mühlenredder,Hamburg,22397
53.710348,10.129113,Mühlenredder,Hamburg,22397
53.711416,10.131019,Mühlenredder,Hamburg,22397
53.712435,10.133358,Duvenstedter Triftweg,Hamburg,22397
53.713565,10.136745,Duvenstedter Triftweg,Hamburg,22397
53.714526,10.140535,Duvenstedter Triftweg,Hamburg,22397
53.718203,10.139281,Duvenstedter Triftweg,Hamburg,22397
53.719416,10.140294,Wiemerskamper Weg,Hamburg,22397
53.724122,10.142009,Wiemerskamper Weg,Hamburg,22397
53.725125,10.142757,Wiemerskamper Weg,Hamburg,22397
53.728104,10.145868,Wiemerskamper Weg,Wiemerskamp,22889
53.728727,10.147146,Wiemerskamper Weg,Wiemerskamp,22889
53.730832,10.149183,Wiemerskamper Weg,Wiemerskamp,22889
53.733198,10.151828,Wiemerskamper Weg,Wiemerskamp,22889
53.734015,10.151959,Wiemerskamper Weg,Wiemerskamp,22889
53.735411,10.152998,Wiemerskamper Weg,Wiemerskamp,22889
53.737299,10.155168,Wiemerskamper Weg,Wiemerskamp,22889
53.737673,10.156049,Wiemerskamper Weg,Wiemerskamp,22889
53.739564,10.163533,Wiemerskamper Weg,Wiemerskamp,22889
53.7395,10.164772,Wiemerskamper Weg,Wiemerskamp,22889
53.740629,10.166654,Wiemerskamper Weg,Wiemerskamp,22889
53.741219,10.167157,Wiemerskamper Weg,Wiemerskamp,22889
53.742984,10.170672,Forstweg,Bargfeld-Stegen,23863
53.745916,10.174122,Forstweg,Bargfeld-Stegen,23863
53.746575,10.174382,Forstweg,Bargfeld-Stegen,23863
53.747542,10.174302,Forstweg,Bargfeld-Stegen,23863
53.748172,10.174023,Forstweg,Bargfeld-Stegen,23863
53.749552,10.175138,Forstweg,Bargfeld-Stegen,23863
53.750421,10.176993,Forstweg,Bargfeld-Stegen,23863
53.751556,10.175795,Forstweg,Bargfeld-Stegen,23863
53.75338,10.176114,Viertbrucher Weg,Bargfeld-Stegen,23863
53.753626,10.176452,Viertbrucher Weg,Bargfeld-Stegen,23863
53.753882,10.178756,Viertbrucher Weg,Bargfeld-Stegen,23863
53.754319,10.179652,Viertbrucher Weg,Bargfeld-Stegen,23863
53.76236,10.182828,Viertbrucher Weg,Bargfeld-Stegen,23863
53.762796,10.181248,Viertbrucher Weg,Bargfeld-Stegen,23863
53.763045,10.179138,Viertbrucher Weg,Bargfeld-Stegen,23863
53.763405,10.178803,Viertbrucher Weg,Bargfeld-Stegen,23863
53.764149,10.179502,Viertbrucher Weg,Bargfeld-Stegen,23863
53.764444,10.179523,Viertbrucher Weg,Bargfeld-Stegen,23863
53.764888,10.181105,Viertbrucher Weg,Bargfeld-Stegen,23863
53.766217,10.184249,Viertbrucher Weg,Bargfeld-Stegen,23863
53.766384,10.185028,Viertbrucher Weg,Bargfeld-Stegen,23863
53.766353,10.18603,Viertbrucher Weg,Bargfeld-Stegen,23863
53.767896,10.186918,Nienwohlder Straße,Bargfeld-Stegen,23863
53.768405,10.185984,Nienwohlder Straße,Bargfeld-Stegen,23863
53.769999,10.186066,Nienwohlder Straße,Bargfeld-Stegen,23863
53.77036,10.188805,Nienwohlder Straße,Bargfeld-Stegen,23863
53.772151,10.196945,Rastleben,Bargfeld-Stegen,23863
53.774096,10.198318,Rastleben,Bargfeld-Stegen,23863
53.774411,10.198689,Rastleben,Bargfeld-Stegen,23863
53.775771,10.202115,Brooklande,Nienwohld,23863
53.77649,10.202468,Brooklande,Nienwohld,23863
53.776753,10.202934,Brooklande,Nienwohld,23863
53.777577,10.203455,Brooklande,Nienwohld,23863
53.779072,10.205633,Brooklande,Nienwohld,23863
53.78075,10.206808,Gräberkater Weg,Nienwohld,23863
53.782081,10.208055,Gräberkater Weg,Nienwohld,23863
53.783777,10.210239,Gräberkater Weg,Nienwohld,23863
53.785203,10.211746,Gräberkater Weg,Nienwohld,23863
53.787384,10.213663,Gräberkater Weg,Nienwohld,23863
53.788873,10.215915,Gräberkater Weg,Nienwohld,23863
53.789265,10.217178,Gräberkater Weg,Sülfeld,23867
53.789885,10.218203,Gräberkater Weg,Sülfeld,23867
53.79081,10.219204,Gräberkater Weg,Sülfeld,23867
53.792225,10.220301,Gräberkater Weg,Sülfeld,23867
53.79386,10.222862,Nienwohlder Straße,Sülfeld,23867
53.798078,10.228112,Steindamm,Sülfeld,23867
53.799205,10.231404,Steindamm,Sülfeld,23867
53.799565,10.231893,Steindamm,Sülfeld,23867
53.800041,10.231756,Steindamm,Sülfeld,23867
53.800165,10.233555,Steindamm,Sülfeld,23867
53.799033,10.237334,Oldesloer Straße,Sülfeld,23867
53.798632,10.239362,Oldesloer Straße,Sülfeld,23867
53.798806,10.241087,Oldesloer Straße,Sülfeld,23867
53.798998,10.241524,Oldesloer Straße,Sülfeld,23867
53.798761,10.24242,Oldesloer Straße,Sülfeld,23867
53.798924,10.249389,Kassburg,Sülfeld,23867
53.79871,10.251812,Kassburg,Sülfeld,23867
53.797142,10.256682,Kassburg,Sülfeld,23867
53.796995,10.257742,Kassburg,Sülfeld,23867
53.797038,10.261909,Kassburg,Sülfeld,23867
53.797539,10.263388,Kassburg,Sülfeld,23867
53.797378,10.265415,Hoherdamm,Grabau,23845
53.797669,10.268869,Hoherdamm,Grabau,23845
53.79852,10.272659,Hoherdamm,Grabau,23845
53.798647,10.27474,Dorfstraße,Grabau,23845
53.798793,10.275025,Dorfstraße,Grabau,23845
53.803021,10.274397,Dorfstraße,Grabau,23845
53.803887,10.274425,Dorfstraße,Grabau,23845
53.80361,10.277387,Dorfstraße,Grabau,23845
53.804489,10.277774,Dorfstraße,Grabau,23845
53.805827,10.277833,Dorfstraße,Grabau,23845
53.806261,10.277741,Dorfstraße,Grabau,23845
53.806711,10.277388,Dorfstraße,Grabau,23845
53.807814,10.277564,Dorfstraße,Grabau,23845
53.808894,10.279108,Ringstraße,Grabau,23845
53.809304,10.279123,Ringstraße,Grabau,23845
53.80962,10.278929,Ringstraße,Grabau,23845
53.810814,10.277576,Ringstraße,Grabau,23845
53.812275,10.277407,Ringstraße,Grabau,23845
53.814186,10.27778,Ringstraße,Grabau,23845
53.815755,10.277112,Ringstraße,Grabau,23845
53.816505,10.277411,Ringstraße,Grabau,23845
53.817773,10.279101,Ringstraße,Grabau,23845
53.818023,10.280628,Ringstraße,Grabau,23845
53.818486,10.281481,Unbekannte Straße,Grabau,23845
53.818371,10.28269,Unbekannte Straße,Grabau,23845
53.818978,10.284914,Unbekannte Straße,Grabau,23845
53.819956,10.286856,Unbekannte Straße,Grabau,23845
53.820438,10.288492,Unbekannte Straße,Travenbrück,23843
53.822442,10.290199,Unbekannte Straße,Travenbrück,23843
53.823953,10.292051,Unbekannte Straße,Travenbrück,23843
53.824814,10.292599,Schäferkamp,Travenbrück,23843
53.828396,10.293617,Schäferkamp,Travenbrück,23843
53.832911,10.293888,Schulstraße,Travenbrück,23843
53.834122,10.293873,Schulstraße,Travenbrück,23843
53.834683,10.29359,Schulstraße,Travenbrück,23843
53.835029,10.293699,Schulstraße,Travenbrück,23843
53.83642,10.295002,Schulstraße,Travenbrück,23843
53.837072,10.296389,Schulstraße,Travenbrück,23843
53.838251,10.298104,Schulstraße,Travenbrück,23843
53.838573,10.297222,Schulstraße,Travenbrück,23843
53.83962,10.295708,Schulstraße,Travenbrück,23843
53.850087,10.293711,Mühlenberg,Travenbrück,23843
53.851925,10.294191,Mühlenberg,Travenbrück,23843
53.852303,10.294182,Mühlenberg,Travenbrück,23843
53.852962,10.293734,Mühlenberg,Travenbrück,23843
53.853738,10.293816,Mühlenberg,Travenbrück,23843
53.854095,10.294267,Mühlenberg,Travenbrück,23843
53.854557,10.295794,Mühlenberg,Travenbrück,23843
53.854849,10.296232,Mühlenberg,Travenbrück,23843
53.855272,10.296233,Mühlenberg,Travenbrück,23843
53.855475,10.296049,Mühlenberg,Travenbrück,23843
53.856215,10.294287,Mühlenberg,Travenbrück,23843
53.861316,10.295974,Dorfstraße,Neversdorf,23816
53.86151,10.294875,Dorfstraße,Neversdorf,23816
53.863309,10.2954,Dorfstraße,Neversdorf,23816
53.863942,10.295774,Dorfstraße,Neversdorf,23816
53.865193,10.297781,Dorfstraße,Neversdorf,23816
53.866106,10.298757,Hauptstraße,Neversdorf,23816
53.872279,10.300114,Hauptstraße,Bebensee,23816
53.872597,10.300049,Hauptstraße,Bebensee,23816
53.874427,10.298433,Hauptstraße,Bebensee,23816
53.874713,10.298336,Hauptstraße,Bebensee,23816
53.875984,10.298982,Hauptstraße,Bebensee,23816
53.877209,10.298664,Hauptstraße,Bebensee,23816
53.877666,10.298689,Hauptstraße,Bebensee,23816
53.881998,10.299551,Hauptstraße,Bebensee,23816
53.88282,10.299569,Hauptstraße,Bebensee,23816
53.886002,10.298311,Hauptstraße,Bebensee,23816
53.888353,10.297916,Hauptstraße,Bebensee,23816
53.890678,10.297019,Hauptstraße,Bebensee,23816
53.895815,10.293455,Dorfstraße,Schwissel,23795
53.896842,10.293226,Dorfstraße,Schwissel,23795
53.899041,10.28992,Dorfstraße,Schwissel,23795
53.899217,10.291098,Dorfstraße,Schwissel,23795
53.90096,10.295085,Dorfstraße,Schwissel,23795
53.902217,10.296984,Dorfstraße,Schwissel,23795
53.90345,10.3011,Dorfstraße,Schwissel,23795
53.90353,10.30189,Dorfstraße,Schwissel,23795
53.9034,10.3026,Dorfstraße,Schwissel,23795
53.903598,10.304183,Dorfstraße,Schwissel,23795
53.903296,10.307628,Dorfstraße,Schwissel,23795
53.903477,10.312802,Herrenmühle,Traventhal,23795
53.903794,10.313394,Herrenmühle,Traventhal,23795
53.904134,10.313656,Herrenmühle,Traventhal,23795
53.906381,10.314552,Herrenmühle,Traventhal,23795
53.909169,10.317585,Traventhaler Straße,Klein Gladebrügge,23795
53.913839,10.317494,Traventhaler Straße,Klein Gladebrügge,23795
53.91489,10.317709,Traventhaler Straße,Klein Gladebrügge,23795
53.915948,10.319339,Traventhaler Straße,Klein Gladebrügge,23795
53.916824,10.320351,Traventhaler Straße,Klein Gladebrügge,23795
53.917905,10.321072,Segeberger Straße,Klein Gladebrügge,23795
53.91919,10.321658,Segeberger Straße,Klein Gladebrügge,23795
53.920083,10.321573,Segeberger Straße,Klein Gladebrügge,23795
53.921062,10.321252,Segeberger Straße,Klein Gladebrügge,23795
53.923857,10.319819,Oldesloer Straße,Bad Segeberg,23795
53.927325,10.319599,Oldesloer Straße,Bad Segeberg,23795
53.927529,10.319392,Oldesloer Straße,Bad Segeberg,23795
53.927736,10.319571,Oldesloer Straße,Bad Segeberg,23795
53.929655,10.319305,Lornsenstraße,Bad Segeberg,23795
53.929946,10.320186,Lornsenstraße,Bad Segeberg,23795
53.931407,10.321402,Lornsenstraße,Bad Segeberg,23795
53.9316,10.321335,Lornsenstraße,Bad Segeberg,23795
53.932063,10.320611,Lornsenstraße,Bad Segeberg,23795
53.932715,10.32154,Lornsenstraße,Bad Segeberg,23795
53.932322,10.322449,Lornsenstraße,Bad Segeberg,23795
53.932903,10.322703,Lornsenstraße,Bad Segeberg,23795
53.933576,10.322633,Lornsenstraße,Bad Segeberg,23795
53.933786,10.324865,Am Wege nach Stipsdorf,Bad Segeberg,23795
53.934383,10.327251,Am Wege nach Stipsdorf,Bad Segeberg,23795
53.934671,10.330023,Am Wege nach Stipsdorf,Bad Segeberg,23795
53.936443,10.335553,K 46,Bad Segeberg,23795
53.937779,10.342301,K 46,Bad Segeberg,23795
53.937981,10.346171,K 46,Stipsdorf,23795
53.938271,10.348416,K 46,Stipsdorf,23795
53.939031,10.350447,K 46,Stipsdorf,23795
53.945053,10.349472,Unbekannte Straße,Stipsdorf,23795
53.946542,10.3491,Unbekannte Straße,Stipsdorf,23795
53.948151,10.350148,Unbekannte Straße,Stipsdorf,23795
53.949586,10.351964,Unbekannte Straße,Stipsdorf,23795
53.949949,10.35216,Unbekannte Straße,Stipsdorf,23795
53.950075,10.352543,Unbekannte Straße,Stipsdorf,23795
53.952267,10.355313,Unbekannte Straße,Stipsdorf,23795
53.95347,10.357549,Stipsdorfer Weg,Quaal,23821
53.958579,10.365867,Stipsdorfer Weg,Quaal,23821
53.959736,10.371692,Stipsdorfer Weg,Quaal,23821
53.959852,10.373683,Dorfstraße,Quaal,23821
53.960397,10.373798,Dorfstraße,Quaal,23821
53.961668,10.373102,Dorfstraße,Quaal,23821
53.963291,10.381386,Warderfelder Weg,Quaal,23821
53.966681,10.382861,Warderfelder Weg,Quaal,23821
53.971155,10.38303,Warderfelder Weg,Wardersee,23821
53.97263,10.382286,Warderfelder Weg,Wardersee,23821
53.973598,10.382049,Warderfelder Weg,Wardersee,23821
53.975033,10.385513,Warderfelder Weg,Wardersee,23821
53.979183,10.398863,B 432,Wensin,23827
53.979509,10.399243,B 432,Wensin,23827
53.979529,10.40002,B 432,Wensin,23827
53.99166,10.440474,Hüls,Wensin,23827
53.991589,10.440834,Hüls,Wensin,23827
53.992506,10.446241,Hüls,Wensin,23827
53.992561,10.447355,Hüls,Wensin,23827
53.99215,10.456653,B 432,Gnissau,23623
53.992369,10.458362,B 432,Gnissau,23623
53.999263,10.49085,Ahrensböker Straße,Gnissau,23623
53.999486,10.492732,Ahrensböker Straße,Gnissau,23623
53.99872,10.519729,B 432,Ahrensbök,23623
53.999013,10.531253,B 432,Ahrensbök,23623
54.000176,10.537483,B 432,Ahrensbök,23623
54.00118,10.540206,Hörsten,Heuerstubben,23623
54.013962,10.566967,Segeberger Chaussee,Barghorst,23623
54.014944,10.569284,Segeberger Chaussee,Barghorst,23623
54.015726,10.570884,Segeberger Chaussee,Barghorst,23623
54.01582,10.570776,Segeberger Chaussee,Barghorst,23623
54.015971,10.571108,Segeberger Chaussee,Barghorst,23623
54.015861,10.571278,Segeberger Chaussee,Barghorst,23623
54.017513,10.574756,Neustädter Chaussee,Barghorst,23623
54.018985,10.577804,Neustädter Chaussee,Barghorst,23623
54.019081,10.577701,Neustädter Chaussee,Barghorst,23623
54.019447,10.578435,Neustädter Chaussee,Barghorst,23623
54.019502,10.5788,Neustädter Chaussee,Barghorst,23623
54.023229,10.586804,Neustädter Chaussee,Barghorst,23623
54.028074,10.596739,Neustädter Chaussee,Holstendorf,23623
54.036161,10.617668,Brauner Hirsch,Holstendorf,23623
54.036597,10.61917,Brauner Hirsch,Holstendorf,23623
54.042918,10.659482,B 432,Scharbeutz,23684
54.043385,10.664886,B 432,Scharbeutz,23684
54.041652,10.672767,B 432,Scharbeutz,23684
54.041543,10.67811,B 432,Scharbeutz,23684
54.040891,10.683954,Scharbeutzer Straße,Scharbeutz,23684
54.039001,10.69123,Scharbeutzer Straße,Scharbeutz,23684
54.039213,10.695852,Scharbeutzer Straße,Scharbeutz,23684
54.039089,10.700047,Scharbeutzer Straße,Scharbeutz,23684
54.038368,10.702742,Scharbeutzer Straße,Scharbeutz,23684
54.038041,10.704975,Scharbeutzer Straße,Scharbeutz,23684
54.037841,10.70495,Scharbeutzer Straße,Scharbeutz,23684
54.037318,10.706815,Scharbeutzer Straße,Scharbeutz,23684
54.036326,10.709266,B 432,Scharbeutz,23684
54.035815,10.711279,B 432,Scharbeutz,23684
54.035198,10.716297,B 432,Scharbeutz,23684
54.034941,10.722992,B 432,Scharbeutz,23684
54.034882,10.722517,B 432,Scharbeutz,23684
54.034555,10.729713,B 432,Scharbeutz,23684
54.034389,10.730749,Pönitzer Chaussee,Scharbeutz,23684
54.03429,10.736548,Pönitzer Chaussee,Scharbeutz,23684
54.033929,10.741625,Pönitzer Chaussee,Scharbeutz,23683
54.035337,10.750997,Pönitzer Chaussee,Scharbeutz,23683
54.035286,10.7514,Pönitzer Chaussee,Scharbeutz,23683
54.038911,10.750173,Pönitzer Chaussee,Scharbeutz,23683
54.044115,10.749581,Strandallee,Scharbeutz,23683
54.044933,10.749675,Strandallee,Scharbeutz,23683
54.045198,10.750293,Strandallee,Scharbeutz,23683
54.045862,10.75038,Strandallee,Scharbeutz,23683
54.046034,10.750032,Strandallee,Scharbeutz,23683
54.048147,10.750538,Strandallee,Scharbeutz,23683
54.050912,10.752085,Strandallee,Scharbeutz,23683
54.051257,10.752114,Strandallee,Scharbeutz,23683
54.052587,10.752773,Strandallee,Scharbeutz,23683
54.052688,10.753091,Strandallee,Scharbeutz,23683
54.056788,10.755938,Am Strande,Sierksdorf,23730
54.057884,10.757152,Am Strande,Sierksdorf,23730
54.061642,10.763289,Am Strande,Sierksdorf,23730
54.062505,10.764968,Am Strande,Sierksdorf,23730
54.062759,10.764926,Am Strande,Sierksdorf,23730
54.064618,10.763398,Am Strande,Sierksdorf,23730
54.065265,10.763736,Am Strande,Sierksdorf,23730
54.065644,10.764671,Am Strande,Sierksdorf,23730
54.066129,10.768029,Professor-Haas-Straße,Sierksdorf,23730
54.066511,10.768794,Professor-Haas-Straße,Sierksdorf,23730
54.066826,10.76911,Professor-Haas-Straße,Sierksdorf,23730
54.067654,10.769395,Professor-Haas-Straße,Sierksdorf,23730
54.068694,10.770481,Professor-Haas-Straße,Sierksdorf,23730
54.069296,10.770477,Professor-Haas-Straße,Sierksdorf,23730
54.06962,10.771263,Professor-Haas-Straße,Sierksdorf,23730
54.074437,10.776251,Am Fahrenkrog,Sierksdorf,23730
54.077546,10.777549,Am Fahrenkrog,Sierksdorf,23730
54.080143,10.776895,Pohnsdorfer Straße,Sierksdorf,23730
54.081964,10.776245,Pohnsdorfer Straße,Sierksdorf,23730
54.084385,10.77603,Pohnsdorfer Straße,Sierksdorf,23730
54.085862,10.776271,Pohnsdorfer Straße,Roge,23730
54.086896,10.776949,Pohnsdorfer Straße,Roge,23730
54.088462,10.779544,Pohnsdorfer Straße,Roge,23730
54.089382,10.77997,Pohnsdorfer Straße,Roge,23730
54.090328,10.780167,Pohnsdorfer Straße,Roge,23730
54.091012,10.780635,Pohnsdorfer Straße,Roge,23730
54.091991,10.781911,Pohnsdorfer Straße,Roge,23730
54.093639,10.784812,Pohnsdorfer Straße,Roge,23730
54.094224,10.78752,Sierksdorfer Straße,Neustadt in Holstein,23730
54.09481,10.789104,Sierksdorfer Straße,Neustadt in Holstein,23730
54.096633,10.790979,Sierksdorfer Straße,Neustadt in Holstein,23730
54.097648,10.792273,Sierksdorfer Straße,Neustadt in Holstein,23730
54.099467,10.7934,Eutiner Straße,Neustadt in Holstein,23730
54.106011,10.807081,Lienaustraße,Neustadt in Holstein,23730
54.106276,10.809176,Lienaustraße,Neustadt in Holstein,23730
54.106674,10.810676,Lienaustraße,Neustadt in Holstein,23730
54.105865,10.81144,Lienaustraße,Neustadt in Holstein,23730
54.104953,10.811424,Lienaustraße,Neustadt in Holstein,23730
54.104642,10.812322,Lienaustraße,Neustadt in Holstein,23730
54.105401,10.815843,Waschgrabenallee,Neustadt in Holstein,23730
54.105841,10.817015,Waschgrabenallee,Neustadt in Holstein,23730
54.105793,10.818649,Waschgrabenallee,Neustadt in Holstein,23730
54.106382,10.818576,Waschgrabenallee,Neustadt in Holstein,23730
54.108055,10.818975,Waschgrabenallee,Neustadt in Holstein,23730
54.110526,10.818563,Vor dem Kremper Tor,Neustadt in Holstein,23730
54.110724,10.819307,Vor dem Kremper Tor,Neustadt in Holstein,23730
54.110646,10.820483,Vor dem Kremper Tor,Neustadt in Holstein,23730
54.111569,10.824868,Vor dem Kremper Tor,Neustadt in Holstein,23730
54.112951,10.828872,Oldenburger Straße,Neustadt in Holstein,23730
54.114033,10.831259,Oldenburger Straße,Neustadt in Holstein,23730
54.114118,10.831594,Oldenburger Straße,Neustadt in Holstein,23730
54.113965,10.83196,Oldenburger Straße,Neustadt in Holstein,23730
54.114203,10.832245,Oldenburger Straße,Neustadt in Holstein,23730
54.114328,10.83213,Oldenburger Straße,Neustadt in Holstein,23730
54.114738,10.832688,Oldenburger Straße,Neustadt in Holstein,23730
54.116037,10.835397,L 309,Neustadt in Holstein,23730
54.116881,10.838034,L 309,Neustadt in Holstein,23730
54.117389,10.840364,L 309,Neustadt in Holstein,23730
54.118702,10.842599,Grömitzer Straße,Merkendorf,23730
54.121414,10.845239,Grömitzer Straße,Merkendorf,23730
54.122895,10.848737,Neustädter Straße,Merkendorf,23730
54.123477,10.849142,Neustädter Straße,Merkendorf,23730
54.124868,10.84869,Neustädter Straße,Merkendorf,23730
54.125488,10.848993,Neustädter Straße,Merkendorf,23730
54.126002,10.849044,Neustädter Straße,Merkendorf,23730
54.128158,10.84798,Neustädter Straße,Logeberg,23730
54.129488,10.847703,Neustädter Straße,Logeberg,23730
54.131828,10.848102,Neustädter Straße,Logeberg,23730
54.134444,10.848788,Neustädter Straße,Logeberg,23730
54.137987,10.848309,Neustädter Straße,Logeberg,23730
54.13803,10.848132,Neustädter Straße,Logeberg,23730
54.143319,10.846105,Neustädter Straße,Logeberg,23730
54.144361,10.846187,Neustädter Straße,Logeberg,23730
54.146062,10.846851,Neustädter Straße,Logeberg,23730
54.148169,10.848524,Neustädter Straße,Groß Schlamin,23730
54.1508,10.851362,Neustädter Straße,Groß Schlamin,23730
54.151975,10.852863,Neustädter Straße,Groß Schlamin,23730
54.154524,10.856685,Neustädter Straße,Groß Schlamin,23730
54.156674,10.858761,Neustädter Straße,Groß Schlamin,23730
54.159834,10.863888,Neustädter Straße,Groß Schlamin,23730
54.160593,10.866165,Neustädter Straße,Groß Schlamin,23730
54.160975,10.866793,Neustädter Straße,Groß Schlamin,23730
54.161563,10.867214,Neustädter Straße,Groß Schlamin,23730
54.162802,10.867425,Neustädter Straße,Groß Schlamin,23730
54.163297,10.86773,Neustädter Straße,Groß Schlamin,23730
54.166164,10.8704,Am Erlengrund,Groß Schlamin,23730
54.167531,10.872258,Am Erlengrund,Groß Schlamin,23730
54.1689,10.873428,Am Erlengrund,Groß Schlamin,23730
54.173351,10.874486,Hauptstraße,Groß Schlamin,23730
54.175028,10.875053,Hauptstraße,Groß Schlamin,23730
54.178159,10.876631,Lensahner Straße,Beschendorf,23738
54.17942,10.877548,Lensahner Straße,Beschendorf,23738
54.181046,10.878106,Lensahner Straße,Beschendorf,23738
54.182195,10.878819,Lensahner Straße,Beschendorf,23738
54.182774,10.878892,Lensahner Straße,Beschendorf,23738
54.185406,10.878225,Lensahner Straße,Beschendorf,23738
54.186054,10.877933,Lensahner Straße,Beschendorf,23738
54.186958,10.877186,Lensahner Straße,Beschendorf,23738
54.189702,10.876146,Lensahner Straße,Beschendorf,23738
54.193315,10.873847,Lensahner Straße,Beschendorf,23738
54.194098,10.873613,Unbekannte Straße,Beschendorf,23738
54.194779,10.873651,Unbekannte Straße,Beschendorf,23738
54.195791,10.874031,Unbekannte Straße,Beschendorf,23738
54.197595,10.875828,Unbekannte Straße,Beschendorf,23738
54.198886,10.876631,Lensahner Straße,Beschendorf,23738
54.201756,10.877325,Lensahner Straße,Beschendorf,23738
54.20302,10.877377,Lensahner Straße,Beschendorf,23738
54.203027,10.877216,Lensahner Straße,Beschendorf,23738
54.204164,10.877223,Lensahner Straße,Beschendorf,23738
54.205704,10.877783,Lensahner Straße,Beschendorf,23738
54.205935,10.877706,Lensahner Straße,Beschendorf,23738
54.206413,10.878195,Lensahner Straße,Beschendorf,23738
54.210063,10.880243,Lübecker Straße,Lensahn,23738
54.21001,10.88036,Lübecker Straße,Lensahn,23738
54.212172,10.881907,Lübecker Straße,Lensahn,23738
54.216053,10.883424,Sandkuhle,Lensahn,23738
54.217995,10.883305,Sandkuhle,Lensahn,23738
54.219609,10.883457,Sandkuhle,Lensahn,23738
54.219581,10.883352,Sandkuhle,Lensahn,23738
54.220396,10.882942,Sandkuhle,Lensahn,23738
54.221366,10.882847,Lübecker Straße,Lensahn,23738
54.223782,10.884026,Lübecker Straße,Lensahn,23738
54.223889,10.884318,Lübecker Straße,Lensahn,23738
54.224026,10.884182,Lübecker Straße,Lensahn,23738
54.225235,10.884606,Lübecker Straße,Lensahn,23738
54.229292,10.884934,K 59,Lensahn,23738
54.229968,10.885252,K 59,Lensahn,23738
54.231448,10.886484,K 59,Lensahn,23738
54.232836,10.886914,K 59,Lensahn,23738
54.235334,10.886702,Grüner Hirsch,Lensahn,23738
54.238764,10.886746,Grüner Hirsch,Lensahn,23738
54.241933,10.884135,Moosbruch,Lensahn,23738
54.243628,10.882315,Moosbruch,Lensahn,23738
54.2494,10.876932,K 59,Lensahn,23738
54.25565,10.874284,Oldenburger Straße,Lensahn,23738
54.256668,10.874301,Oldenburger Straße,Lensahn,23738
54.257479,10.874516,Oldenburger Straße,Lensahn,23738
54.25985,10.876207,Oldenburger Straße,Lensahn,23738
54.260861,10.876754,K 59,Oldenburg in Holstein,23738
54.276536,10.881391,K 59,Oldenburg in Holstein,23738
54.277933,10.882144,K 59,Oldenburg in Holstein,23738
54.278884,10.882056,K 59,Oldenburg in Holstein,23738
54.280894,10.88033,K 59,Oldenburg in Holstein,23738
54.283189,10.880036,Neustädter Straße,Oldenburg in Holstein,23758
54.283837,10.879049,Neustädter Straße,Oldenburg in Holstein,23758
54.284274,10.878791,Neustädter Straße,Oldenburg in Holstein,23758
54.284824,10.878757,Neustädter Straße,Oldenburg in Holstein,23758
54.285437,10.878834,Neustädter Straße,Oldenburg in Holstein,23758
54.285962,10.879211,Neustädter Straße,Oldenburg in Holstein,23758
54.2881,10.882061,Schuhstraße,Oldenburg in Holstein,23758
54.288497,10.881151,Schuhstraße,Oldenburg in Holstein,23758
54.289591,10.881719,Schuhstraße,Oldenburg in Holstein,23758
54.28857,10.881153,Schuhstraße,Oldenburg in Holstein,23758
54.288305,10.881653,Schuhstraße,Oldenburg in Holstein,23758
54.289371,10.883023,Schuhstraße,Oldenburg in Holstein,23758
54.290201,10.8838,Schuhstraße,Oldenburg in Holstein,23758
54.290048,10.88418,Schuhstraße,Oldenburg in Holstein,23758
54.290229,10.884388,Schuhstraße,Oldenburg in Holstein,23758
54.289672,10.88578,Schuhstraße,Oldenburg in Holstein,23758
54.290121,10.886434,Schuhstraße,Oldenburg in Holstein,23758
54.290638,10.888488,Holsteiner Straße,Oldenburg in Holstein,23758
54.289924,10.894723,Holsteiner Straße,Oldenburg in Holstein,23758
54.290653,10.897698,Kremsdorfer Weg,Oldenburg in Holstein,23758
54.292505,10.898013,Kremsdorfer Weg,Oldenburg in Holstein,23758
54.29289,10.898308,Kremsdorfer Weg,Oldenburg in Holstein,23758
54.293917,10.899717,Kremsdorfer Weg,Oldenburg in Holstein,23758
54.294529,10.901229,Kremsdorfer Weg,Oldenburg in Holstein,23758
54.295514,10.902453,Kremsdorfer Weg,Oldenburg in Holstein,23758
54.296011,10.904246,Kremsdorfer Weg,Oldenburg in Holstein,23758
54.297106,10.911211,Kremsdorfer Weg,Oldenburg in Holstein,23758
54.299482,10.911647,Kremsdorfer Weg,Oldenburg in Holstein,23758
54.305157,10.920651,Am Sandkamp,Giddendorf,23758
54.306659,10.923366,Am Sandkamp,Giddendorf,23758
54.307311,10.924141,Am Sandkamp,Giddendorf,23758
54.307629,10.92562,Am Sandkamp,Giddendorf,23758
54.308438,10.927143,Langereihe,Giddendorf,23758
54.308602,10.928631,Langereihe,Giddendorf,23758
54.308526,10.929401,Langereihe,Giddendorf,23758
54.308683,10.929338,Langereihe,Giddendorf,23758
54.308871,10.930762,Langereihe,Giddendorf,23758
54.309739,10.934252,Langereihe,Giddendorf,23758
54.311286,10.938035,Langereihe,Giddendorf,23758
54.312194,10.939726,Langereihe,Giddendorf,23758
54.312976,10.940693,Langereihe,Giddendorf,23758
54.31363,10.942332,Langereihe,Giddendorf,23758
54.313839,10.94348,Langereihe,Giddendorf,23758
54.313907,10.945346,Langereihe,Giddendorf,23758
54.314045,10.945328,Langereihe,Giddendorf,23758
54.313942,10.946578,Langereihe,Giddendorf,23758
54.314237,10.949362,Langereihe,Giddendorf,23758
54.315013,10.955383,Alter Sundweg,Gremersdorf,23758
54.315064,10.959511,Alter Sundweg,Gremersdorf,23758
54.315916,10.970398,Neuseegalendorf,Gremersdorf,23779
54.316267,10.972937,Neuseegalendorf,Gremersdorf,23779
54.316596,10.97445,Neuseegalendorf,Gremersdorf,23779
54.317089,10.975773,Neuseegalendorf,Gremersdorf,23779
54.317616,10.97702,Neuseegalendorf,Gremersdorf,23779
54.318139,10.977815,L 60,Gremersdorf,23779
54.318621,10.980087,L 60,Gremersdorf,23779
54.320454,10.98399,L 60,Gremersdorf,23779
54.320707,10.985024,Meeschendorf,Meeschendorf,23779
54.320739,10.987864,Meeschendorf,Meeschendorf,23779
54.321536,10.990169,Meeschendorf,Meeschendorf,23779
54.322196,10.991537,Meeschendorf,Meeschendorf,23779
54.322114,10.991626,Meeschendorf,Meeschendorf,23779
54.323032,10.994763,Meeschendorf,Meeschendorf,23779
54.323154,10.996858,Meeschendorf,Meeschendorf,23779
54.322706,11.000962,Meeschendorf,Meeschendorf,23779
54.323457,11.005322,Georgshof,Meeschendorf,23779
54.324554,11.013405,An der Kirche,Neukirchen,23779
54.324486,11.01367,An der Kirche,Neukirchen,23779
54.323885,11.014124,An der Kirche,Neukirchen,23779
54.323717,11.014667,An der Kirche,Neukirchen,23779
54.324137,11.019322,An der Kirche,Neukirchen,23779
54.332363,11.024275,Bäderstraße,Ölendorf,23779
54.33508,11.025639,Bäderstraße,Ölendorf,23779
54.336296,11.02603,Bäderstraße,Ölendorf,23779
54.338819,11.026378,B 501,Ölendorf,23779
54.339683,11.026342,B 501,Ölendorf,23779
54.339681,11.026181,B 501,Ölendorf,23779
54.340994,11.025975,B 501,Ölendorf,23779
54.341005,11.026155,B 501,Ölendorf,23779
54.341389,11.026093,B 501,Ölendorf,23779
54.343978,11.0251,B 501,Ölendorf,23779
54.345,11.024306,B 501,Ölendorf,23779
54.345682,11.023515,B 501,Ölendorf,23779
54.348205,11.018689,Bäderstraße,Lütjenbrode,23775
54.350935,11.015427,Bäderstraße,Lütjenbrode,23775
54.351788,11.014071,Bäderstraße,Lütjenbrode,23775
54.351623,11.013862,Bäderstraße,Lütjenbrode,23775
54.35184,11.013746,Bäderstraße,Lütjenbrode,23775
54.352255,11.012999,Bäderstraße,Lütjenbrode,23775
54.353189,11.015838,Bäderstraße,Lütjenbrode,23775
54.354317,11.017432,Bäderstraße,Lütjenbrode,23775
54.355743,11.019864,Eichthaler Weg,Lütjenbrode,23775
54.356206,11.02094,Eichthaler Weg,Lütjenbrode,23775
54.356646,11.02331,Eichthaler Weg,Lütjenbrode,23775
54.357672,11.025578,Eichthaler Weg,Lütjenbrode,23775
54.35839,11.030358,Eichthaler Weg,Lütjenbrode,23775
54.359212,11.031577,Eichthaler Weg,Lütjenbrode,23775
54.359693,11.033203,Eichthaler Weg,Lütjenbrode,23775
54.360875,11.036029,Eichthaler Weg,Lütjenbrode,23775
54.361289,11.039427,Bahnhofstraße,Lütjenbrode,23775
54.36217,11.041681,Bahnhofstraße,Lütjenbrode,23775
54.362754,11.04587,Bahnhofstraße,Lütjenbrode,23775
54.363356,11.048435,K 42,Lütjenbrode,23775
54.363754,11.051599,K 42,Lütjenbrode,23775
54.363607,11.05546,K 42,Lütjenbrode,23775
54.364154,11.059378,K 42,Lütjenbrode,23775
54.364577,11.064295,K 42,Lütjenbrode,23775
54.36401,11.073953,K 42,Großenbrode,23775
54.364437,11.075541,K 42,Großenbrode,23775
54.365506,11.077599,K 42,Großenbrode,23775
54.367112,11.081767,Am Fliederhof,Großenbrode,23775
54.367593,11.082532,Am Fliederhof,Großenbrode,23775
54.36888,11.083757,Am Fliederhof,Großenbrode,23775
54.368986,11.084083,Am Fliederhof,Großenbrode,23775
54.369107,11.08386,Am Fliederhof,Großenbrode,23775
54.369865,11.084341,Am Fliederhof,Großenbrode,23775
54.37087,11.084346,Am Fliederhof,Großenbrode,23775
54.374726,11.085013,Schmiedestraße,Großenbrode,23775
54.375599,11.084979,Schmiedestraße,Großenbrode,23775
54.377948,11.086223,Schmiedestraße,Großenbrode,23775
54.378735,11.087373,Schmiedestraße,Großenbrode,23775
54.379813,11.087267,K 42,Großenbrode,23775
54.380196,11.087541,K 42,Großenbrode,23775
54.380318,11.087475,K 42,Großenbrode,23775
54.380203,11.088996,K 42,Großenbrode,23775
54.381938,11.092691,K 42,Großenbrode,23775
54.382151,11.092852,K 42,Großenbrode,23775
54.382538,11.092809,K 42,Großenbrode,23775
54.382997,11.093653,B 207,Großenbrode,23775
54.383209,11.094454,B 207,Großenbrode,23775
54.38377,11.095018,B 207,Großenbrode,23775
54.384202,11.094969,B 207,Großenbrode,23775
54.384895,11.095154,B 207,Großenbrode,23775
54.388081,11.096441,B 207,Großenbrode,23775
54.38798,11.101828,B 207,Großenbrode,23775
54.388024,11.102177,B 207,Großenbrode,23775
54.388903,11.103101,B 207,Großenbrode,23775
54.391444,11.105391,B 207,Großenbrode,23775
54.396512,11.108958,B 207,Fehmarn,23769
54.404663,11.114248,B 207,Fehmarn,23769
54.408034,11.11598,B 207,Fehmarn,23769
54.405601,11.114304,B 207,Fehmarn,23769
54.405286,11.113933,B 207,Fehmarn,23769
54.404794,11.113699,B 207,Fehmarn,23769
54.404428,11.113893,B 207,Fehmarn,23769
54.404284,11.114518,B 207,Fehmarn,23769
54.404469,11.11558,B 207,Fehmarn,23769
54.405057,11.116068,B 207,Fehmarn,23769
54.404588,11.118913,B 207,Fehmarn,23769
54.40343,11.122525,Fehmarnsund,Fehmarn,23769
54.403475,11.12547,Fehmarnsund,Fehmarn,23769
