Name,Typ,Adresse,Latitude,Longitude
Betriebssportcasino,restaurant,"Wendenstraße, 120, 20537, Hamburg",53.5479824,10.0308402
jam jam,restaurant,"Eiffestraße, 78, 20537, Hamburg",53.5523106,10.0391956
Yafa,restaurant,Adresse unbekannt,53.5510508,10.035921
Rettungsbrot,bakery,"Klaus-Groth-Straße, 40, 20535, Hamburg",53.5551642,10.0307297
Stulle Plus,restaurant,Adresse unbekannt,53.5496614,10.0253789
Delhicious,restaurant,Adresse unbekannt,53.5498676,10.035543
St.Georg Bäckerei,bakery,Adresse unbekannt,53.5576458,10.0207228
Café-Shop Blueberry,cafe,Adresse unbekannt,53.5564901,10.0216254
Café Berliner Tor,cafe,Adresse unbekannt,53.5571934,10.0228843
Nur Hier,bakery,Beim Strohhause,53.5536183,10.0216129
La Malême,cafe,Adresse unbekannt,53.5531229,10.02319
Brot&Brötchen Café,bakery,Adresse unbekannt,53.5529638,10.0222781
ASIA24,supermarket,Adresse unbekannt,53.553039,10.022702
Nur Hier,bakery,Adresse unbekannt,53.5527158,10.0205484
Kaufland,supermarket,"Beim Strohhause, 8, 20097, Hamburg",53.5524952,10.0205863
Restaurant,restaurant,Adresse unbekannt,53.5568288,10.0216891
Oh It's Fresh,cafe,Adresse unbekannt,53.5572065,10.0216292
Backshop Beim Strohhause,bakery,Adresse unbekannt,53.5529193,10.0219275
Novo2,restaurant,Adresse unbekannt,53.5589612,10.0253025
AnTee Vegan,restaurant,"Ferdinand-Beit-Straße, 7, 20099, Hamburg",53.5540249,10.0192791
Schlemmerschule - Eventlocation,restaurant,"Lübeckertordamm, 4, 20099, Hamburg",53.5571252,10.0217484
EBike Doc,bicycle,Adresse unbekannt,53.5551043,10.020771
bistro fresh,cafe,Adresse unbekannt,53.5566249,10.025095
Drinking_water,drinking_water,Adresse unbekannt,53.5532589,10.0240361
Café Herzstück,cafe,"Alexanderstraße, 18, 20099",53.5557996,10.0203474
Damascino,restaurant,"Berliner Tor, 3, 20099, Hamburg",53.5569031,10.0215117
Reisprinzen,restaurant,"Bürgerweide, 36, 20535, Hamburg",53.5569859,10.0315994
Schweinske Hohenfelde,restaurant,"Lübecker Straße, 84, 22087, Hamburg",53.5610317,10.0312569
Alstercafé,bakery,"Ifflandstraße, 45, 22087, Hamburg",53.561613,10.0219757
Sushi Company,restaurant,Adresse unbekannt,53.5602734,10.025759
REWE,supermarket,"Lübecker Straße, 107, 22087, Hamburg",53.5621792,10.0313413
Griffato's,restaurant,"Lübecker Straße, 85, 22087, Hamburg",53.5612577,10.0306634
Mit Herz & Zucker,cafe,"Lübecker Straße, 29, 22087, Hamburg",53.5609276,10.0300268
Bäckerei/Cafe Allaf,bakery,"Lübecker Straße, 72, 22087, Hamburg",53.5601227,10.0293458
Goldherz,cafe,"Hartwicusstraße, 20, 22087, Hamburg",53.5662578,10.0245181
KinEz,cafe,"Ifflandstraße, 69, 22087, Hamburg",53.5631268,10.0214846
Dat Backhus,bakery,Adresse unbekannt,53.5639592,10.0237132
Sushi für Hamburg,restaurant,Adresse unbekannt,53.5605236,10.030126
The Noodle House,restaurant,"Ifflandstraße, 92, 22087",53.5636066,10.0241052
Baris,restaurant,"Lerchenfeld, 48, 22081, Hamburg",53.5700016,10.0279222
Inos,restaurant,"Finkenau, 1, 22081",53.571335,10.0302686
Il Nonnino,restaurant,"Mundsburger Damm, 45, 22087, Hamburg",53.5683952,10.0236822
Pappenheimer Wirtschaft,restaurant,"Papenhuder Straße, 26, 22087, Hamburg",53.5667111,10.0195345
PENNY,supermarket,"Hamburger Straße, 1, 22083",53.5708984,10.0277337
Surimex Cafe Bistro,cafe,Adresse unbekannt,53.5680648,10.023119
Pedalross,bicycle,"Mundsburger Damm, 58, 22087, Hamburg",53.569233,10.0257336
Schanzenbäckerei,bakery,Adresse unbekannt,53.569393,10.0275187
Flickenschildt,restaurant,"Mundsburger Damm, 63, 22087, Hamburg",53.5700534,10.0261886
Café Näscherei,cafe,Adresse unbekannt,53.5670944,10.0192818
The Ramen Hamburg II,restaurant,"Papenhuder Straße, 22, 22087, Hamburg",53.5662859,10.0197116
Asiatische Lebensmittel KIM,supermarket,Adresse unbekannt,53.5679805,10.0229304
Schanzenbäckerei,bakery,Adresse unbekannt,53.5706024,10.0271292
Bodega Sesenta,restaurant,"Mundsburger Damm, 60, 22087, Hamburg",53.5693816,10.0261906
Morgenstund,bakery,Adresse unbekannt,53.5673898,10.0229535
Muttels,supermarket,"Papenhuder Straße, 28, 22087, Hamburg",53.5668092,10.0194643
Moku Poké,restaurant,Adresse unbekannt,53.5669927,10.0223397
Osho Ayu-Leela,restaurant,Adresse unbekannt,53.5681485,10.023257
xodó,restaurant,"Papenhuder Straße, 26, 22087, Hamburg",53.566579,10.0196034
illy,cafe,Adresse unbekannt,53.5717732,10.0287346
Double Coffee,cafe,Adresse unbekannt,53.5700929,10.0262643
Samui Thai Cuisine,restaurant,Adresse unbekannt,53.5775893,10.0327616
Tunici Restaurants Barmbek-Süd,restaurant,"Adolph-Schönfelder-Straße, 49, 22083, Hamburg",53.5779958,10.0324453
Mäxx,restaurant,Adresse unbekannt,53.576047,10.0302602
Albatros Café,cafe,"Wagnerstraße, 5",53.574867,10.0367753
Dat Backhus,bakery,Adresse unbekannt,53.5744539,10.0371849
LORDS Deli,cafe,"Beim Alten Schützenhof, 16",53.5755446,10.0293471
Ahoi Velo (Neuradmontage und Abholung),bicycle,"Wagnerstraße, 16-18, 22081, Hamburg",53.5741394,10.0361116
Mantu,restaurant,Adresse unbekannt,53.5736276,10.0319374
Malik Marokkanischer Supermarkt,supermarket,Adresse unbekannt,53.5750013,10.0365182
Los Damas,restaurant,"Hamburger Straße, 17-49",53.5741365,10.0331156
Rewe,supermarket,"Dehnhaide, 57, 22081, Hamburg",53.57929,10.0463285
REWE,supermarket,"Holsteinischer Kamp, 53, 22081, Hamburg",53.5754213,10.0421407
Schweinske Barmbek,restaurant,"Barmbeker Markt, 19, 22081, Hamburg",53.5822365,10.0434948
Falafel Factory,restaurant,"Barmbeker Markt, 40, 22081, Hamburg",53.5795062,10.0408825
Asia Supermarket,supermarket,Adresse unbekannt,53.579965,10.0418361
Goldener Drache,restaurant,Adresse unbekannt,53.5780158,10.0385387
Daube,bakery,"Dehnhaide, 6, 22081, Hamburg",53.5791686,10.0417834
Netto Marken-Discount,supermarket,"Haferkamp, 8, 22081, Hamburg",53.5815211,10.0448644
Eis Qgel,cafe,"Dehnhaide, 56, 22081, Hamburg",53.5788525,10.0456225
Il Ristorantino,restaurant,"Wohldorfer Straße, 30",53.576919,10.0429151
Daube,bakery,"Hamburger Straße, 206, 22083, Hamburg",53.5792648,10.040115
Konditorei Ulrich Münch,cafe,"Weidestraße, 26, 22083, Hamburg",53.5804596,10.0374208
Käthners 23,restaurant,"Käthnerort, 23, 22083, Hamburg",53.5817462,10.0375198
Räderei Hamburg,bicycle,"Weidestraße, 18, 22083, Hamburg",53.5804421,10.038328
Caruso,restaurant,"Weidestraße, 49, 22083, Hamburg",53.5800277,10.0360247
re.cycle Barmbek,bicycle,"Hamburger Straße, 200, 22083, Hamburg",53.5790022,10.0399667
Asia Imbiss,restaurant,Adresse unbekannt,53.5791348,10.0418608
Đỗ Quán,restaurant,"Dehnhaide, 12, 22081, Hamburg",53.5790091,10.042433
PENNY,supermarket,Adresse unbekannt,53.5786223,10.0396626
Rüya,restaurant,Adresse unbekannt,53.5794618,10.0407747
LüttLiv,restaurant,"Maurienstraße, 19, 22305, Hamburg",53.5857798,10.0449119
T.R.U.D.E.,restaurant,"Maurienstraße, 13, 22305, Hamburg",53.5850016,10.0450945
New Asia,supermarket,Adresse unbekannt,53.5840995,10.046864
Bäckerei Hönig,bakery,Adresse unbekannt,53.5834909,10.0364712
Pho Hanoi,restaurant,Adresse unbekannt,53.5871635,10.0381421
von Allwörden,bakery,Adresse unbekannt,53.5870335,10.0440636
Oktober,restaurant,"Wiesendamm, 10, 22305, Hamburg",53.5874415,10.0410794
Roomyz,cafe,"Pestalozzistraße, 20, 22305",53.5872454,10.0471061
Morgenland,restaurant,"Pestalozzistraße, 19, 22305",53.5875175,10.0471943
Soulkebab,restaurant,"Fuhlsbüttler Straße, 97, 22305, Hamburg",53.5878452,10.0457672
Sira,restaurant,Adresse unbekannt,53.5876287,10.0467373
Bartels Breakfastclub,cafe,"Alter Teichweg, 7a",53.5828603,10.0475036
Vi Foods,restaurant,"Alter Teichweg, 9c",53.5827917,10.0478468
Denns BioMarkt,supermarket,"Massaquoipassage, 5, 22305, Hamburg",53.5884333,10.0446426
Ditsch,bakery,Adresse unbekannt,53.5874357,10.0446227
Kentauros,restaurant,"Wiesendamm, 41, 22305, Hamburg",53.5870841,10.0387426
ALDI,supermarket,"Krüsistraße, 7, 22305, Hamburg",53.5879662,10.0448355
REWE,supermarket,"Krüsistraße, 7, 22305, Hamburg",53.5880487,10.0448509
Espresso House,cafe,"Krüsistraße, 7, 22305, Hamburg",53.5878226,10.0448923
The Public pub & bar,restaurant,"Fuhlsbüttler Straße, 32, 22305, Hamburg",53.586115,10.0469665
Schmidt & Schmidtchen,cafe,"Wiesendamm, 28, 22305, Hamburg",53.5878105,10.0369333
Sushi Green,restaurant,Adresse unbekannt,53.5828281,10.0476945
Torhauskantine,cafe,Adresse unbekannt,53.5857756,10.0454187
EDEKA,supermarket,"Fuhlsbüttler Straße, 188, 22307, Hamburg",53.5943474,10.0444502
Dallmeyers Backhus,bakery,"Fuhlsbüttler Straße, 188, 22307, Hamburg",53.5944598,10.0443866
Lidl,supermarket,"Fuhlsbüttler Straße, 184, 22307, Hamburg",53.5941386,10.0445275
Nur Hier,bakery,"Fuhlsbüttler Straße, 107-109, 22305, Hamburg",53.58884,10.0453098
Burger Boss,restaurant,Adresse unbekannt,53.5889538,10.0459661
Lezzet,restaurant,"Fuhlsbüttler Straße, 173, 22307, Hamburg",53.5942828,10.0437839
Nur Bazar,supermarket,"Fuhlsbüttler Straße, 174, 22305, Hamburg",53.5927379,10.044557
Kleines Glück,restaurant,"Fuhlsbüttler Straße, 181, 22307, Hamburg",53.5951563,10.0434838
Onur,supermarket,"Fuhlsbüttler Straße, 125-127, 22305, Hamburg",53.5903045,10.0446866
BLOCK HOUSE,restaurant,"Fuhlsbüttler Straße, 165, 22307, Hamburg",53.5931869,10.0439294
bioMarkt Barmbek,supermarket,"Fuhlsbüttler Straße, 164, 22305, Hamburg",53.5918748,10.044575
Rohlfs Bäckerei,bakery,"Fuhlsbüttler Straße, 177, 22307, Hamburg",53.5946272,10.0436575
Daily Asia,supermarket,Adresse unbekannt,53.5905783,10.0445418
Indian Temple,restaurant,"Fuhlsbüttler Straße, 159, 22305, Hamburg",53.5924109,10.043956
DO Friends,restaurant,"Fuhlsbüttler Straße, 151, 22305, Hamburg",53.5918552,10.0438712
Fils D'or Markt,supermarket,"Fuhlsbüttler Straße, 151, 22305, Hamburg",53.5919794,10.0439064
Junge,bakery,"Fuhlsbüttler Straße, 149, 22305, Hamburg",53.5917501,10.0438501
Ihr Backshop,bakery,"Fuhlsbüttler Straße, 169, 22307, Hamburg",53.5936891,10.0439037
Mosaic,cafe,"Fuhlsbüttler Straße, 176, 22307, Hamburg",53.5932111,10.0446035
Amadeus,restaurant,"Fuhlsbüttler Straße, 113, 22305, Hamburg",53.5892933,10.045147
New Balochistan Barmbek,restaurant,"Fuhlsbüttler Straße, 172a, 22305, Hamburg",53.5923402,10.0445222
Konditorei Nehberg,bakery,"Hellbrookstraße, 83, 22305, Hamburg",53.5917822,10.0491756
Simit Factory,cafe,Adresse unbekannt,53.5902246,10.044713
Leontes,cafe,"Fuhlsbüttler Straße, 116, 22305, Hamburg",53.58943,10.0457472
Copenhagen Coffee Lab,cafe,"Fuhlsbüttler Straße, 132, 22305, Hamburg",53.5905063,10.0451827
Fahrrad Diedrich,bicycle,"Fuhlsbüttler Straße, 132, 22305, Hamburg",53.5903739,10.0452438
Saigon Café,restaurant,"Fuhlsbüttler Straße, 128, 22305, Hamburg",53.5902105,10.0453222
Marina,restaurant,"Fuhlsbüttler Straße, 167, 22307, Hamburg",53.5934922,10.0439758
Soul Sushi Barmbek,restaurant,"Fuhlsbüttler Straße, 174, 22305, Hamburg",53.5925987,10.0445488
Café NEON,cafe,"Fuhlsbüttler Straße, 163, 22305, Hamburg",53.5925048,10.043976
L‘Quán,restaurant,"Fuhlsbüttler Straße, 108, 22305, Hamburg",53.5886799,10.0461305
Naan,restaurant,Adresse unbekannt,53.588325,10.0455882
MalinaStories Café,cafe,"Hellbrookstraße, 61, 22305, Hamburg",53.5916133,10.0457006
MalinaStories Bakery,bakery,"Schwalbenstraße, 57, 22305, Hamburg",53.5917758,10.0465265
Gräber Räder,bicycle,"Fuhlsbüttler Straße, 269, 22307, Hamburg",53.5978109,10.0421087
Orchideen Palast,restaurant,"Fuhlsbüttler Straße, 236, 22307, Hamburg",53.5966438,10.0435783
Kamiros,restaurant,"Fuhlsbüttler Straße, 256, 22307, Hamburg",53.5977583,10.0428056
Kalliopea,restaurant,"Neue Wöhr, 14, 22307, Hamburg",53.5982403,10.0379638
Eiscafé Tanduo,cafe,"Fuhlsbüttler Straße, 291, 22307, Hamburg",53.5993886,10.0409791
Erdgeschoss,restaurant,"Alte Wöhr, 13a, 22307, Hamburg",53.5976362,10.0382286
Aroma,restaurant,"Fuhlsbüttler Straße, 227, 22307, Hamburg",53.5960103,10.0431605
Spezzagrano,restaurant,"Fuhlsbüttler Straße, 300, 22307, Hamburg",53.5990564,10.041814
Poké Pao,restaurant,"Fuhlsbüttler Straße, 328, 22307, Hamburg",53.6003759,10.0413855
SUSHIMEN,restaurant,"Fuhlsbüttler Straße, 332, 22307, Hamburg",53.6005723,10.0413853
püük - fein + herausgeputzt,cafe,"Lorichsstraße, 28a, 22307, Hamburg",53.6024968,10.0438417
Kalivrisi,restaurant,"Fuhlsbüttler Straße, 466, 22309, Hamburg",53.6062435,10.0396309
Junge,bakery,Adresse unbekannt,53.6058629,10.036183
REWE,supermarket,"Fuhlsbüttler Straße, 387, 22309, Hamburg",53.6017671,10.040567
Aldi,supermarket,"Fuhlsbüttler Straße, 334, 22307, Hamburg",53.6008583,10.0413875
Café May,cafe,"Fuhlsbüttler Straße, 402, 22309, Hamburg",53.6025743,10.0410609
Denns BioMarkt,supermarket,"Fuhlsbüttler Straße, 397, 22309, Hamburg",53.6024722,10.0400193
Gasthaus Q21,restaurant,"Fuhlsbüttler Straße, 405, 22309, Hamburg",53.6035609,10.0395239
Pastelaria Carlos,cafe,"Fuhlsbüttler Straße, 412, 22309, Hamburg",53.6029408,10.0409581
Tunici,restaurant,"Fuhlsbüttler Straße, 388, 22309, Hamburg",53.6019839,10.0411411
Dat Backhus,bakery,Adresse unbekannt,53.6016863,10.0406082
que huong Asia Laden,supermarket,"Fuhlsbüttler Straße, 417, 22309, Hamburg",53.605922,10.0391655
Simply Food,restaurant,"Fuhlsbüttler Straße, 397, 22309, Hamburg",53.6024409,10.0397347
Pizza Jungs,restaurant,"Fuhlsbüttler Straße, 414, 22309",53.6031941,10.0408909
Orientalische Bäckerei,bakery,"Fuhlsbüttler Straße, 468, 22309, Hamburg",53.6064286,10.0395355
Hohenstein Räder,bicycle,"Fuhlsbüttler Straße, 468, 22309, Hamburg",53.6063233,10.0395971
Dàm,restaurant,"Fuhlsbüttler Straße, 397, 22309, Hamburg",53.6024254,10.0395022
Al Granada,restaurant,"Fuhlsbüttler Straße, 464, 22309, Hamburg",53.6060502,10.0397023
Kebab Kitchen,restaurant,"Fuhlsbüttler Straße, 386, 22309, Hamburg",53.6018623,10.0411519
Wüstenrose,restaurant,"Elligersweg, 1, 22307, Hamburg",53.605796,10.0399771
La Tropicana,restaurant,"Fuhlsbüttler Straße, 460",53.6050044,10.0402578
Café Gourmet,cafe,"Elligersweg, 5, 22307, Hamburg",53.6055331,10.0403103
Sushi für Hamburg,restaurant,Adresse unbekannt,53.6059595,10.0397789
Restaurant Athen,restaurant,"Fuhlsbüttler Straße, 527, 22337, Hamburg",53.6089121,10.037961
Hansens-Berliner-Bäckerei,bakery,"Eichenlohweg, 17, 22309, Hamburg",53.6085326,10.0435854
famila,supermarket,"Eichenlohweg, 17, 22309, Hamburg",53.6089752,10.0430475
Junge,bakery,"Eichenlohweg, 17, 22309, Hamburg",53.6083991,10.0433962
Rio The Grillbar,restaurant,"Fuhlsbüttler Straße, 666, 22337, Hamburg",53.6150223,10.0356466
Le Crobag,bakery,Adresse unbekannt,53.6206713,10.0313504
Ditsch,bakery,"Fuhlsbüttler Straße, 761, 22337, Hamburg",53.6207023,10.0318118
Cafe Restaurant Harmonie,cafe,Adresse unbekannt,53.620003,10.0330009
Ribling,restaurant,"Fuhlsbüttler Straße, 755-757, 22337, Hamburg",53.6205536,10.0332188
Khorshid,restaurant,"Alsterdorfer Straße, 537, 22337, Hamburg",53.6187174,10.0291817
Café Fritz,restaurant,"Fuhlsbüttler Straße, 758, 22337, Hamburg",53.6231316,10.0331224
Café Schwesterherz,cafe,"Alsterdorfer Straße, 572",53.6197571,10.033235
Backwerk,bakery,Adresse unbekannt,53.6209553,10.0315324
Café & au Lait,cafe,Adresse unbekannt,53.6210211,10.0326544
Zur Ratsmühle,restaurant,"Ratsmühlendamm, 2, 22335, Hamburg",53.6264324,10.0295222
Drinking_water,drinking_water,Adresse unbekannt,53.6242456,10.0368107
Kobe Nord,restaurant,"Wellingsbütteler Landstraße, 43, 22337, Hamburg",53.6273643,10.0330468
Spaccaforno,restaurant,"Erdkampsweg, 6, 22335, Hamburg",53.6268755,10.0255914
Café Luise,bakery,"Stübeheide, 157, 22337, Hamburg",53.6334258,10.0540901
Ristorante Vivere,restaurant,"Tornberg, 40, 22337, Hamburg",53.6332653,10.0551473
Café Paari,cafe,Adresse unbekannt,53.6333111,10.0534575
Café im Herrenhaus,cafe,"Wellingsbüttler Weg, 71, 22391, Hamburg",53.6429591,10.0715697
mama,restaurant,"Wellingsbüttler Weg, 119, 22391, Hamburg",53.6416595,10.0806106
Casa Di Bianca,restaurant,"Rolfinckstraße, 19, 22391, Hamburg",53.6412074,10.0820043
Nur Hier,bakery,"Rolfinckstraße, 17, 22391, Hamburg",53.6412538,10.0818517
BLOCK HOUSE,restaurant,"Heegbarg, 32, 22391, Hamburg",53.6550388,10.0934197
REWE,supermarket,"Heegbarg, 31, 22391, Hamburg",53.6536326,10.0900797
Erdkorn,supermarket,"Heegbarg, 31, 22391, Hamburg",53.6542578,10.0917126
Allwörden,bakery,"Heegbarg, 31, 22391, Hamburg",53.6533036,10.0912288
Schlemmermarkt Struve,supermarket,"Heegbarg, 25, 22391, Hamburg",53.6532947,10.0913576
The Locks,restaurant,"Marienhof, 6, 22399, Hamburg",53.6573,10.0870867
Balducci,restaurant,"Heegbarg, 31, Hamburg",53.6547773,10.0922317
MAZZA,restaurant,"Poppenbütteler Weg, 236, 22399, Hamburg",53.6581542,10.0854775
Bistro Pizzarello,restaurant,"Heegbarg, 14, 22391, Hamburg",53.6537364,10.0928432
Das Eiswerk Florenz,cafe,"Heegbarg, 31, 22391, Hamburg",53.6546617,10.0909224
Rosalie’s,cafe,Adresse unbekannt,53.653092,10.0904177
del favero,restaurant,"Heegbarg, 30, 22391, Hamburg",53.654875,10.0931467
Nur Hier,bakery,Adresse unbekannt,53.6607052,10.0861125
JA ĂN,restaurant,Adresse unbekannt,53.6602677,10.0842261
Daube,bakery,"Harksheider Straße, 2, 22399, Hamburg",53.6597897,10.0850422
Aldi,supermarket,"Poppenbüttler Hauptstraße, 1, 22399, Hamburg",53.6601707,10.0856979
"Cafe Reinhardt - Bäckerei, Konditorei",bakery,"Poppenbüttler Hauptstraße, 37, 22399, Hamburg",53.6651092,10.089726
Cafe Reinhardt - Cafe,cafe,"Poppenbüttler Hauptstraße, 37, 22399, Hamburg",53.6650134,10.0896603
Kleinhuis,restaurant,"Mellingburgredder, 1, 22395, Hamburg",53.6701808,10.0980938
Zum Haselknick,cafe,Adresse unbekannt,53.6932076,10.1187619
Zum Bäcker,restaurant,"Herrenhausallee, 9, 22397, Hamburg",53.7099799,10.1319684
Wohldorfer Mühle,restaurant,"Mühlenredder, 38",53.7099374,10.1301567
Bäckerei Hinze,bakery,Adresse unbekannt,53.7099628,10.1316983
Waldesruh / Wilhelm,restaurant,Adresse unbekannt,53.7483658,10.1739421
Lieblings,restaurant,"Waldweg, 6",53.7629163,10.1851178
Café Vogelsand,bakery,"Mittelweg, 5, 23863, Bargfeld-Stegen",53.7672546,10.1864054
Frischemarkt Märkl,supermarket,"Kayhuder Straße, 2, 23863, Bargfeld-Stegen",53.766629,10.1866543
Landbäckerei Matthiessen,bakery,"Am Markt, 2, 23867, Sülfeld",53.8001767,10.23193
Eiscafe Jella,cafe,Adresse unbekannt,53.799824,10.2305054
Kühl´s Restaurant,restaurant,Adresse unbekannt,53.8032233,10.2745181
Drinking_water,drinking_water,Adresse unbekannt,53.8369401,10.2985941
Zum Keglertreff,restaurant,Adresse unbekannt,53.9209536,10.3215399
Park-Cafe,cafe,"Rosenstraße, 33-35, 23795, Bad Segeberg",53.9258492,10.3186398
Bäckerei Konditorei. Gräper,bakery,Adresse unbekannt,53.9331823,10.315733
Florian Ritzki,restaurant,"Lübecker Landstraße, 18, 23795, Bad Segeberg",53.9315377,10.3254211
Bäckerei Schmidt,bakery,Adresse unbekannt,54.0156599,10.5724698
Ihr Fahrradprofi,bicycle,"Dieksbarg, 4, 23623, Ahrensbök",54.0200682,10.5766712
Brede,bakery,"Lindenstraße, 32, 23684, Scharbeutz",54.0451635,10.6740408
Backbord,restaurant,"Strandallee, 49, 23683, Scharbeutz",54.0468866,10.7498498
Brumund's Fischleckereien,restaurant,"Strandallee, 51, 23683, Scharbeutz",54.0464896,10.7497374
Café Strandkorb,cafe,"Strandallee, 61, 23683, Scharbeutz",54.0451165,10.7493548
Haus am Meer,cafe,Adresse unbekannt,54.0405412,10.7495886
Von Allwörden,bakery,Adresse unbekannt,54.047958,10.7464504
Bäckerei Schacht,bakery,"Strandallee, 25, 23683, Scharbeutz",54.0491414,10.7507579
Café-Häuschen,cafe,"Strandallee, 17, 23683, Scharbeutz",54.0502828,10.7514034
Janny's Eis,cafe,Adresse unbekannt,54.0517163,10.7521771
Seßelberg,bakery,"Strandallee, 5, 23683, Scharbeutz",54.0516166,10.752133
Strand Café,cafe,"Strandallee, 6, 23683, Scharbeutz",54.0514463,10.7520441
Sai Gon,restaurant,"Strandallee, 22, 23683, Scharbeutz",54.0497067,10.7509787
Corfu,restaurant,Adresse unbekannt,54.0518383,10.7522523
Vista Mare,restaurant,"23683, Scharbeutz",54.0511574,10.7518219
Ostsee-Panorama,restaurant,Adresse unbekannt,54.0496025,10.7509141
Kafferösterei,cafe,Adresse unbekannt,54.0513502,10.7519381
Ocean's,restaurant,Adresse unbekannt,54.0521154,10.7528222
Brede,bakery,"Bahnhofstraße, 15, 23683, Scharbeutz",54.0527452,10.7481256
Fischbrötchen .....Bistro..... Räucherfisch,restaurant,"Strandallee, 5, 23683, Scharbeutz",54.0517788,10.7522476
Buhne 15,restaurant,Adresse unbekannt,54.0505058,10.7512721
Saloon „New Chance“,restaurant,Adresse unbekannt,54.0755348,10.7821632
Weltumsegler,restaurant,Adresse unbekannt,54.0751919,10.7777142
Cafeteria,cafe,Adresse unbekannt,54.0745098,10.7773747
Drinking_water,drinking_water,Adresse unbekannt,54.0744501,10.7773851
Joe’s Cowboy Cookout Barbecue,restaurant,Adresse unbekannt,54.0754238,10.7818442
Birdie's,restaurant,"Gutshof, 9, 23730, Sierksdorf",54.0819285,10.7736149
Wintershagen Gutshofcafé,cafe,"Gutshof, 9, 23730, Sierksdorf",54.0818722,10.7736193
Rewe,supermarket,"Sierksdorfer Straße, 8, 23730, Neustadt in Holstein",54.097155,10.7901801
Ambrosia,restaurant,Adresse unbekannt,54.1059895,10.8098322
Gemütlich Essen & Trinken,restaurant,Adresse unbekannt,54.1065147,10.8095057
Eiscafe Vicino,cafe,"Untere Querstraße, 3, 23730, Neustadt in Holstein",54.1070941,10.8104954
Nahkauf,supermarket,"Am Markt, 10, 23730, Neustadt in Holstein",54.1075567,10.8133444
Mien Backstuuv,bakery,"Brückstraße, 2, 23730, Neustadt in Holstein",54.1072249,10.813606
KaffeeWestseite,cafe,"Bahnhofstraße, 16, 23730, Neustadt in Holstein",54.1039966,10.8078533
Drinking_water,drinking_water,Adresse unbekannt,54.1088867,10.8123891
Ristorante Vicino,restaurant,"Untere Querstraße, 3, 23730, Neustadt in Holstein",54.1071285,10.8104651
Pizzeria La Piccola,restaurant,"Waschgrabenstraße, 5, 23730, Neustadt in Holstein",54.1068258,10.8149349
Four Seasons Restaurant,restaurant,"Kremper Straße, 12 a, 23730, Neustadt in Holstein",54.1085041,10.8159253
Golden Leaf,cafe,"Hochtorstraße, 7, 23730, Neustadt in Holstein",54.1072843,10.8157437
Brocks Café & Bar,cafe,"Am Markt, 6, 23730, Neustadt in Holstein",54.1073771,10.8150215
Bäckerei Seßelberg,bakery,"Am Markt, 7, 23730, Neustadt in Holstein",54.1072992,10.8149645
Pizzeria Rana,restaurant,Adresse unbekannt,54.1056155,10.8148237
Jinder's Pizza Service,restaurant,Adresse unbekannt,54.1099134,10.816661
bei Marco,restaurant,"Dr.-Julius-Stinde-Straße, 2a, 23738, Lensahn",54.214178,10.8808652
EDEKA Jens,supermarket,"Eutiner Straße, 11, 23738, Lensahn",54.2197812,10.8847447
Mien Backstuuv,bakery,"Eutiner Straße, 11, 23738, Lensahn",54.2198555,10.8848593
PENNY,supermarket,"Bäderstraße, 17, 23738, Lensahn",54.2192313,10.8887876
Bauernhofcafe,restaurant,"Bäderstraße, 18, 23738, Lensahn",54.2161491,10.8878595
LaRia,restaurant,"Lübecker Straße, 28, 23738, Lensahn",54.2145487,10.882301
Puck,bakery,"Bäderstraße, 2, 23738, Lensahn",54.2204952,10.8867523
Balkan-Restaurant Bei Jovo,restaurant,"Bäderstraße, 15, 23738, Lensahn",54.2195932,10.8883219
Zweirad Hartje,bicycle,"Schuhstraße, 99, 23758, Oldenburg in Holstein",54.2868752,10.8807475
Netto,supermarket,"Holsteiner Straße, 2, 23758, Oldenburg in Holstein",54.2907943,10.8876011
REWE,supermarket,"Kieler Chaussee, 4a, 23758, Oldenburg in Holstein",54.2875928,10.8777176
Landbäckerei - Unser Norden Landbäcker,bakery,"Kieler Chaussee, 4a, 23758, Oldenburg in Holstein",54.2875816,10.8775092
Akropolis,restaurant,"Markt, 4, 23758, Oldenburg in Holstein",54.2913953,10.8862948
Landbäckerei Puck,bakery,"Holsteiner Straße, 2, 23758, Oldenburg in Holstein",54.2909284,10.8877368
PENNY,supermarket,"Kieler Chaussee, 6, 23758, Oldenburg in Holstein",54.2877083,10.8766283
Grillmaster,restaurant,Adresse unbekannt,54.2892879,10.8839576
Edeka,supermarket,"Göhler Straße, 7, 23758, Oldenburg in Holstein",54.2910902,10.8916415
Modrücker's Restaurant,restaurant,"Kuhtorstraße, 3, 23758, Oldenburg in Holstein",54.2917944,10.8884868
Insel-Bäckerei,bakery,"Markt, 28, 23758, Oldenburg in Holstein",54.2915923,10.887383
Mephisto,restaurant,"Markt, 9, 23758, Oldenburg in Holstein",54.2919463,10.8862587
Stadtcafe,cafe,"Markt, 8, 23758, Oldenburg in Holstein",54.2918757,10.8862869
Bio-Markt,supermarket,"Schauenburger Straße, 5, 23758, Oldenburg in Holstein",54.2907247,10.8897223
von Allwörden,bakery,"Göhler Straße, 7, 23758, Oldenburg in Holstein",54.2910886,10.8913303
Keglerheim,restaurant,"Meiereiweg, 12, 23758, Oldenburg in Holstein",54.2881701,10.8929443
Pola Pola,restaurant,"Lankenstraße, 1a, 23758, Oldenburg in Holstein",54.2895276,10.8903824
Insel-Bäckerei,cafe,"Markt, 28, 23758, Oldenburg in Holstein",54.291558,10.887288
Aldi,supermarket,"Göhler Straße, 5, 23758, Oldenburg in Holstein",54.2910076,10.8904231
La Trattoria,restaurant,"Kuhtorstraße, 1, 23758, Oldenburg in Holstein",54.2918644,10.8877164
Cafe Leselampe,cafe,Adresse unbekannt,54.2917852,10.8895464
Lidl,supermarket,"Am Voßberg, 3, 23758, Oldenburg in Holstein",54.2929443,10.9117722
Edeka Jens,supermarket,"Strandstraße, 1b, 23775, Großenbrode",54.3683449,11.0841978
Restaurant,restaurant,Adresse unbekannt,54.3675538,11.0851188
Puck,bakery,Adresse unbekannt,54.3702724,11.0841575
Café Mehlbeere,cafe,"Alte Sundstraße, 9, 23775, Großenbrode",54.3752936,11.0892977
Restaurant Großenbrode,restaurant,Adresse unbekannt,54.373082,11.0862136
Café MeerZeit,cafe,"Fehmarnsund, 13, 23769, Fehmarn",54.4038592,11.121483
